HIERARCHY
ROOT Hips
{
	OFFSET 0.00000 0.00000 0.00000
	CHANNELS 6 Xposition Yposition Zposition Zrotation Yrotation Xrotation 
	JOINT LHipJoint
	{
		OFFSET 0 0 0
		CHANNELS 3 Zrotation Yrotation Xrotation
		JOINT LeftUpLeg
		{
			OFFSET 1.65674 -1.80282 0.62477
			CHANNELS 3 Zrotation Yrotation Xrotation
			JOINT LeftLeg
			{
				OFFSET 2.59720 -7.13576 0.00000
				CHANNELS 3 Zrotation Yrotation Xrotation
				JOINT LeftFoot
				{
					OFFSET 2.49236 -6.84770 0.00000
					CHANNELS 3 Zrotation Yrotation Xrotation
					JOINT LeftToeBase
					{
						OFFSET 0.19704 -0.54136 2.14581
						CHANNELS 3 Zrotation Yrotation Xrotation
						End Site
						{
							OFFSET 0.00000 -0.00000 1.11249
						}
					}
				}
			}
		}
	}
	JOINT RHipJoint
	{
		OFFSET 0 0 0
		CHANNELS 3 Zrotation Yrotation Xrotation
		JOINT RightUpLeg
		{
			OFFSET -1.61070 -1.80282 0.62476
			CHANNELS 3 Zrotation Yrotation Xrotation
			JOINT RightLeg
			{
				OFFSET -2.59502 -7.12977 0.00000
				CHANNELS 3 Zrotation Yrotation Xrotation
				JOINT RightFoot
				{
					OFFSET -2.46780 -6.78024 0.00000
					CHANNELS 3 Zrotation Yrotation Xrotation
					JOINT RightToeBase
					{
						OFFSET -0.23024 -0.63258 2.13368
						CHANNELS 3 Zrotation Yrotation Xrotation
						End Site
						{
							OFFSET -0.00000 -0.00000 1.11569
						}
					}
				}
			}
		}
	}
	JOINT LowerBack
	{
		OFFSET 0 0 0
		CHANNELS 3 Zrotation Yrotation Xrotation
		JOINT Spine
		{
			OFFSET 0.01961 2.05450 -0.14112
			CHANNELS 3 Zrotation Yrotation Xrotation
			JOINT Spine1
			{
				OFFSET 0.01021 2.06436 -0.05921
				CHANNELS 3 Zrotation Yrotation Xrotation
				JOINT Neck
				{
					OFFSET 0 0 0
					CHANNELS 3 Zrotation Yrotation Xrotation
					JOINT Neck1
					{
						OFFSET 0.00713 1.56711 0.14968
						CHANNELS 3 Zrotation Yrotation Xrotation
						JOINT Head
						{
							OFFSET 0.03429 1.56041 -0.10006
							CHANNELS 3 Zrotation Yrotation Xrotation
							End Site
							{
								OFFSET 0.01305 1.62560 -0.05265
							}
						}
					}
				}
				JOINT LeftShoulder
				{
					OFFSET 0 0 0
					CHANNELS 3 Zrotation Yrotation Xrotation
					JOINT LeftArm
					{
						OFFSET 3.54205 0.90436 -0.17364
						CHANNELS 3 Zrotation Yrotation Xrotation
						JOINT LeftForeArm
						{
							OFFSET 4.86513 -0.00000 -0.00000
							CHANNELS 3 Zrotation Yrotation Xrotation
							JOINT LeftHand
							{
								OFFSET 3.35554 -0.00000 0.00000
								CHANNELS 3 Zrotation Yrotation Xrotation
								JOINT LeftFingerBase
								{
									OFFSET 0 0 0
									CHANNELS 3 Zrotation Yrotation Xrotation
									JOINT LeftHandIndex1
									{
										OFFSET 0.66117 -0.00000 0.00000
										CHANNELS 3 Zrotation Yrotation Xrotation
										End Site
										{
											OFFSET 0.53306 -0.00000 0.00000
										}
									}
								}
								JOINT LThumb
								{
									OFFSET 0 0 0
									CHANNELS 3 Zrotation Yrotation Xrotation
									End Site
									{
										OFFSET 0.54120 -0.00000 0.54120
									}
								}
							}
						}
					}
				}
				JOINT RightShoulder
				{
					OFFSET 0 0 0
					CHANNELS 3 Zrotation Yrotation Xrotation
					JOINT RightArm
					{
						OFFSET -3.49802 0.75994 -0.32616
						CHANNELS 3 Zrotation Yrotation Xrotation
						JOINT RightForeArm
						{
							OFFSET -5.02649 -0.00000 0.00000
							CHANNELS 3 Zrotation Yrotation Xrotation
							JOINT RightHand
							{
								OFFSET -3.36431 -0.00000 0.00000
								CHANNELS 3 Zrotation Yrotation Xrotation
								JOINT RightFingerBase
								{
									OFFSET 0 0 0
									CHANNELS 3 Zrotation Yrotation Xrotation
									JOINT RightHandIndex1
									{
										OFFSET -0.73041 -0.00000 0.00000
										CHANNELS 3 Zrotation Yrotation Xrotation
										End Site
										{
											OFFSET -0.58887 -0.00000 0.00000
										}
									}
								}
								JOINT RThumb
								{
									OFFSET 0 0 0
									CHANNELS 3 Zrotation Yrotation Xrotation
									End Site
									{
										OFFSET -0.59786 -0.00000 0.59786
									}
								}
							}
						}
					}
				}
			}
		}
	}
}
MOTION
Frames: 85
Frame Time: 0.0333332
10.4 16.67 -29.54 -2.43 -10.19 -2.65 0 0 0 -19.5 -9.51 -26.1 1.51 7.75 21.97 0.22 8.49 -15.59 0.35 -3.79 -10.48 0 0 0 28.01 -4.16 17.87 -0.39 -3.99 11.06 -0.61 6.54 -14 -0 -0.14 0.37 5.74 1.82 7.19 1.45 2.77 3.82 -1.91 1.45 0.13 1.32 4.13 -12.92 -6.09 5.59 0.71 -1.87 2.56 2.73 0 0 0 -97.17 11.07 -11.79 10.21 -17.07 -1.54 -0 0 -11.11 23.41 20.07 8.45 -7.12 0 -0 -5.12 51.62 -0.84 0 0 0 79.4 21.13 39.1 -26.81 37.99 -9.38 0 -0 -16.08 -27.04 16.65 -8.32 7.12 -0 -0 0.52 -11.42 0.4
10.35 16.56 -28.75 -2.44 -10.27 -2.36 0 0 0 -20.19 -9.63 -26.18 2.14 9.14 26.25 0.01 9.18 -13.21 0.35 -3.8 -10.53 0 0 0 27.56 -4.68 19.29 -0.55 -4.74 13.17 -0.57 6.74 -13.58 -0.23 3.07 -8.46 4.98 1.79 5.94 1.66 2.61 3.74 -1.21 1.37 0.67 0.87 4.24 -12.66 -4.99 5.68 -0.5 -1.43 2.67 2.21 0 0 0 -97.7 10.67 -11.86 10.22 -17.09 -1.54 -0 0 -11.13 22.94 20.56 8.45 -7.12 0 -0 -5.73 52.05 -1 0 0 0 79.65 20.82 39.76 -25.58 36.79 -8.64 0 -0 -16.54 -27.04 16.29 -8.15 7.12 -0 -0 0.48 -11.82 0.37
10.3 16.52 -27.97 -2.62 -10.06 -2.46 0 0 0 -20.16 -10.07 -26.31 2.98 10.66 31.13 -0.15 10.68 -12.6 0 0.37 1.02 0 0 0 27.4 -4.79 19.44 -1.03 -6.45 18.1 -0.37 6.36 -11.01 -0.85 5.89 -16.47 4.96 1.73 5.77 1.37 2.54 3.41 -1.5 1.32 0.44 0.8 4.13 -12.58 -3.67 5.46 -1.53 -1.01 2.62 1.8 -0 -0 0 -96.79 9.79 -12.16 9.67 -16.22 -1.38 -0 0 -8.89 22.82 20.41 8.35 -7.12 0 -0 -5.81 51.87 -0.99 -0 -0 0 81.52 19.27 39.27 -23.47 34.6 -7.41 0 -0 -15.29 -27.5 17.07 -8.69 7.12 -0 -0 0.26 -10.88 0.2
10.24 16.53 -27.25 -0.62 -9.28 -2.75 0 0 0 -23.04 -9.32 -25.4 3.47 11.42 33.7 0.02 8.21 -12.18 0.08 1.87 5.16 0 0 0 25 -3.63 15.4 -2.66 -10.12 29.35 -0.05 6.34 -5.64 -1.71 8.24 -23.44 2.58 1.66 5.65 0.73 2.33 3.11 -0.82 1.19 0.11 -0.68 3.8 -12.4 -1.59 5.15 -2.44 -0.13 2.54 1.34 0 -0 0 -95.91 8.27 -10.81 9.35 -15.72 -1.29 -0 0 -8.07 22.88 21.18 8.67 -7.12 0 -0 -5.98 52.69 -1.13 0 -0 0 83.09 17.21 38.03 -21.12 31.97 -6.11 0 -0 -14.05 -27.54 17.29 -8.81 7.12 -0 -0 0.25 -10.64 0.2
10.21 16.61 -26.53 -0.83 -9.72 -2.76 0 0 0 -23.47 -8.54 -23.67 3.79 11.87 35.29 0.16 7.35 -13.43 0.19 2.81 7.75 0 0 0 24.58 -1.01 10.84 -4.81 -13.17 40 -0.01 3.68 5.6 -2.32 9.51 -27.4 2.93 1.66 5.51 0.56 2.35 2.9 -1.19 1.2 -0 -1.05 3.78 -11.66 -1.07 5.14 -3.71 0.05 2.56 0.78 -0 -0 0 -95.12 6.61 -8.69 9.53 -16 -1.34 -0 0 -8.22 22.19 20.76 8.23 -7.12 0 -0 -6.55 52.13 -1.15 -0 -0 0 84.63 15.53 37.92 -18.36 28.61 -4.72 0 -0 -13.69 -27.76 17.07 -8.79 7.12 -0 -0 0.09 -10.84 0.07
10.19 16.68 -25.88 0.42 -9.86 -3.12 0 0 0 -25.63 -7.63 -20.39 3.58 11.57 34.24 0.37 6.41 -15.57 0.2 2.86 7.89 0 0 0 22.82 2.28 5.54 -7.7 -15.89 51.48 -0.65 -1.83 14.7 -3.18 10.98 -32.2 1.72 1.54 5.86 0.23 2.14 2.87 -0.86 1.08 -0.27 -0.7 3.89 -12.14 -1.84 5.25 -3.82 -0.23 2.59 0.85 0 0 0 -94.82 4.6 -4.02 10.45 -17.43 -1.61 -0 0 -11.14 23.05 20.24 8.37 -7.12 0 -0 -5.53 51.73 -0.92 0 0 0 85.53 14 37.33 -15.61 24.99 -3.48 0 -0 -11.11 -25.15 17.15 -7.88 7.12 -0 -0 1.81 -11.16 1.43
10.16 16.74 -25.27 1.96 -9.23 -3.55 0 0 0 -28.01 -6.75 -17.16 3.28 11.13 32.72 0.48 5.66 -16.44 0.19 2.77 7.65 0 0 0 20.89 4.66 -0.4 -10.68 -17.78 61.74 -0.36 -9 11.61 -2.33 9.52 -27.45 0.08 1.23 6.07 -0.16 1.63 3.11 -0.31 0.82 -0.2 -0.67 4.21 -12.36 -2.3 5.68 -3.75 -0.35 2.79 0.93 -0 0 0 -93.98 2.58 3.18 11.92 -19.69 -2.08 -0 0 -15.73 23.94 18.05 7.83 -7.12 0 -0 -4.07 49.56 -0.46 -0 0 0 86.34 12.65 35.29 -13.77 22.41 -2.74 0 -0 -7.72 -21.41 16.24 -6.26 7.12 -0 -0 4.23 -12.64 3.21
10.14 16.84 -24.64 2.09 -8.7 -3.92 0 0 0 -28.94 -5.5 -13.69 2.99 10.68 31.22 0.61 5.12 -17.54 0.07 1.65 4.53 0 0 0 20.34 6.66 -5.55 -12.68 -18.66 68.13 0.35 -12.98 3.59 -1.1 6.68 -18.76 -0.11 1.03 6.2 -0.05 1.35 3.28 -0.08 0.67 -0.1 -0.47 4.19 -11.76 -3.13 5.6 -4.6 -0.67 2.75 0.59 0 0 0 -93.41 0.78 9.13 13.96 -22.68 -2.81 -0 0 -17.32 23.02 19.39 8.03 -7.12 0 -0 -5.32 50.83 -0.77 0 0 0 86.81 10.3 32.19 -12.46 20.49 -2.26 0 -0 -5.11 -20.24 16.73 -6.06 7.12 -0 -0 5.03 -12.27 3.86
10.13 16.91 -24 2.18 -6.77 -4.1 0 0 0 -29.9 -5.14 -9.88 2.67 10.14 29.43 0.71 4.7 -18.34 0.01 0.76 2.1 0 0 0 19.61 8.07 -10.49 -13.71 -19.02 71.3 0.74 -15.14 -4.04 -0.47 4.39 -12.18 -0.29 0.3 5.89 0.15 0.38 3.36 0.29 0.18 0.15 -0.86 4.25 -11.41 -2.92 5.73 -4.34 -0.54 2.82 0.6 -0 0 0 -92.78 -0.48 15.52 16.71 -26.48 -3.96 -0 0 -20.94 23.91 21.33 9.16 -7.12 0 -0 -4.98 53.05 -0.99 -0 0 0 86.77 7.16 30.59 -11.84 19.56 -2.05 0 -0 -5.23 -21.49 16.6 -6.42 7.12 -0 -0 4.19 -12.25 3.22
10.09 16.97 -23.41 1.82 -4.58 -3.8 0 0 0 -30.07 -5.82 -7.04 2.5 9.85 28.48 0.88 3.96 -19.57 0.01 0.73 2.01 0 0 0 19.35 10.42 -15.21 -13.74 -19.03 71.4 0.79 -16.06 -10.47 -0.22 3.02 -8.33 -0.26 -0.14 5.96 0.34 -0.2 3.34 0.51 -0.11 0.09 -0.42 3.98 -12.31 -3.2 5.36 -3.33 -0.68 2.61 1.1 -0 0 0 -91.72 -2.53 21.56 19.81 -30.41 -5.43 -0 0 -23.74 23.52 23.28 9.76 -7.12 0 -0 -6.03 55.02 -1.49 -0 0 0 86.97 3.53 28.57 -11.86 19.6 -2.06 0 -0 -7.45 -22.8 17.39 -7.16 7.12 -0 -0 3.39 -11.24 2.66
10.06 16.95 -22.8 1.94 -2.82 -3.83 0 0 0 -30.6 -5.5 -4.21 2.4 9.65 27.86 1 2.93 -20.16 0.02 0.79 2.18 0 0 0 18.29 13.35 -18.43 -12.71 -18.67 68.22 0.4 -13.71 -13.6 -0.48 4.42 -12.27 -0.79 -0.54 5.95 0.52 -0.75 3.37 1.02 -0.39 0.15 -0.6 3.78 -11.86 -2.75 5.1 -3.48 -0.54 2.5 0.95 0 0 0 -90.79 -3.96 26.59 23.46 -34.59 -7.4 -0 0 -25.39 22.99 20.06 8.28 -7.12 0 -0 -5.53 51.53 -0.89 0 0 0 87.03 -0.28 26.94 -12.03 19.84 -2.11 0 -0 -8.01 -21.22 12.82 -4.92 7.12 -0 -0 4.2 -16.28 2.86
10.01 16.93 -22.18 1.87 -1.39 -3.98 0 0 0 -30.72 -4.83 -1.18 2.26 9.38 27.01 1.17 1.63 -21.08 0.01 0.65 1.78 0 0 0 17.45 16.28 -20.26 -10.7 -17.79 61.8 0.06 -11.4 -15.3 -0.68 5.26 -14.66 -1.37 -0.79 6.01 0.81 -1.12 3.53 1.66 -0.59 0.31 -0.92 3.58 -12.73 -2.32 4.91 -2.49 -0.33 2.4 1.4 0 0 0 -90.07 -5.14 30.52 27.93 -39.05 -10.08 -0 0 -27.25 24.04 20.35 8.82 -7.12 0 -0 -4.56 52.02 -0.79 0 0 0 86.97 -4.13 26.23 -12.53 20.59 -2.28 0 -0 -9.21 -21.15 14.13 -5.4 7.12 -0 -0 4.29 -14.9 3.05
9.97 16.96 -21.56 2.41 0.25 -3.39 0 0 0 -31.31 -4.18 1.95 1.83 8.51 24.26 1.14 1.1 -20.59 0 -0.09 -0.25 0 0 0 15.33 18.63 -22.28 -8.08 -16.18 52.86 -0.22 -9.09 -16.34 -0.41 4.11 -11.39 -2.46 -1.18 5.95 0.99 -1.69 3.21 2.49 -0.89 0.07 -1.22 3.45 -12.15 -2.16 4.76 -2.85 -0.25 2.33 1.17 0 -0 0 -89.5 -5.72 33.41 32.46 -42.91 -13.05 -0 0 -27.69 26.12 17.5 8.39 -7.12 0 -0 -1.83 49.32 -0.19 0 -0 0 86.98 -7.38 24.99 -12.2 20.1 -2.17 0 -0 -9.31 -21.41 17.02 -6.55 7.12 -0 -0 4.28 -11.82 3.32
9.93 16.99 -20.9 2.91 1.39 -3.03 0 0 0 -31.58 -2.83 5.54 1.33 7.31 20.63 1.06 0.33 -19.54 0 -0.19 -0.54 0 0 0 13.54 20.6 -22.77 -5.24 -13.65 41.84 -0.24 -8.99 -16.43 -0.74 5.51 -15.36 -3.21 -1.49 5.49 0.85 -2.13 3.32 2.77 -1.12 0.5 -1.02 3.48 -12.65 -1.96 4.78 -2.9 -0.21 2.35 1.23 0 -0 0 -88.41 -6.22 35.19 37.65 -46.62 -16.71 -0 0 -27.85 22.95 17.13 7.11 -7.12 0 -0 -4.82 48.42 -0.41 0 -0 0 87.78 -9.44 22.86 -11.33 18.79 -1.88 0 -0 -8.09 -20.77 16.58 -6.18 7.12 -0 -0 4.68 -12.36 3.58
9.9 16.98 -20.25 2.65 2.58 -2.85 0 0 0 -30.91 -1.29 9.38 0.91 6.09 17.04 0.95 -0.46 -18.3 0.02 -0.98 -2.69 0 0 0 13.23 20.41 -23.17 -3.08 -10.82 31.68 -0.3 -8.23 -16.5 -0.7 5.35 -14.92 -2.96 -1.84 5.62 1 -2.58 3.11 2.83 -1.34 0.23 -1.48 3.3 -12.51 -1.76 4.59 -3.05 -0.09 2.26 1.14 -0 0 0 -87.84 -6.16 36.78 42.12 -49.28 -20.03 -0 0 -28.32 24.94 14.28 6.54 -7.12 0 -0 -2.39 45.64 -0.04 -0 0 0 88.46 -11.97 20.14 -10.68 17.8 -1.68 0 -0 -6.25 -20.8 17.57 -6.54 7.12 -0 -0 4.71 -11.32 3.71
9.88 16.98 -19.56 2.41 3.64 -2.87 0 0 0 -30.03 0.89 13.99 0.46 4.37 12.12 0.75 -0.21 -16.35 0.21 -2.96 -8.18 0 0 0 14.18 16.57 -24.65 -1.94 -8.75 25.01 -0.52 -4.4 -15.96 -0.73 5.44 -15.18 -2.53 -2.1 5.28 1.09 -2.9 3.3 2.67 -1.5 0.62 -2.1 3.19 -12.84 -1.13 4.53 -3.15 0.21 2.25 1.14 0 -0 0 -87.55 -6.64 37.56 44.64 -50.59 -21.96 -0 0 -27.31 26.14 15.02 7.25 -7.12 0 -0 -1.38 46.62 -0.06 0 -0 0 89.18 -13.22 16.96 -9.72 16.31 -1.4 0 -0 -4.6 -20.55 18.35 -6.73 7.12 -0 -0 4.93 -10.53 3.96
9.84 16.95 -18.85 2.88 4.46 -2.22 0 0 0 -29.98 1.82 17.64 0.23 3.11 8.57 0.54 0.64 -14.15 0.41 -4.09 -11.32 0 0 0 14.51 13.79 -27.03 -1.66 -8.12 23.08 -0.72 -1.23 -16.51 -0.6 4.96 -13.78 -3.24 -2.24 4.67 1.25 -3.1 3.05 3.22 -1.61 0.76 -0.96 3.07 -13.37 -3.17 4.26 -2.62 -0.61 2.04 1.48 -0 0 0 -87.82 -6.04 38.31 46.03 -51.26 -23.04 -0 0 -26.7 25.98 14.64 7.02 -7.12 0 -0 -1.47 46.18 -0.04 -0 0 0 89.65 -14.04 11.99 -8.71 14.7 -1.13 0 -0 -1.53 -19.61 16.61 -5.82 7.12 -0 -0 5.45 -12.46 4.17
9.77 16.88 -18.11 2.48 4.75 -2.6 0 0 0 -29.11 2.22 18.73 0.46 4.34 12.05 0.6 -0.24 -14.59 0.24 -3.16 -8.72 0 0 0 15.61 14.6 -25.42 -1.72 -8.26 23.51 -0.49 -5.35 -16.29 -0.49 4.47 -12.41 -3.26 -2.38 4.99 1.66 -3.3 2.92 3.68 -1.71 0.5 -1.16 3.13 -13.51 -3.42 4.39 -2.44 -0.65 2.1 1.57 0 0 0 -88.6 -4.75 38.08 45.37 -50.95 -22.53 -0 0 -25.78 24.46 14.43 6.47 -7.12 0 -0 -2.87 45.74 -0.05 0 0 0 89.68 -14.9 8.39 -8.11 13.73 -0.98 0 0 1.65 -19.46 16.28 -5.66 7.12 -0 -0 5.54 -12.83 4.19
9.7 16.79 -17.31 2.79 4.88 -2.51 0 0 0 -29.07 2.43 19.64 0.74 5.5 15.33 0.53 -0.61 -13.58 0.63 -5.08 -14.15 0 0 0 15.91 15.72 -24.85 -2.36 -9.58 27.64 -0.01 -9.49 -13.69 -0.39 4.02 -11.12 -3.51 -2.59 4.43 1.57 -3.58 2.59 3.72 -1.85 0.5 -1.27 3.22 -13.81 -3.12 4.53 -1.92 -0.52 2.17 1.79 0 -0 0 -89.01 -2.46 37.08 43.63 -50.08 -21.18 -0 0 -26.04 23.39 14.52 6.19 -7.12 0 -0 -3.88 45.7 -0.07 0 -0 0 89.97 -14.91 3.97 -7.17 12.2 -0.77 0 0 5.64 -18.91 15.13 -5.11 7.12 -0 -0 5.86 -14.09 4.28
9.67 16.79 -16.49 0.94 4.2 -3.36 0 0 0 -26.7 3.35 19.46 1.45 7.61 21.55 0.36 0 -11.33 1.33 -7.3 -20.6 0 0 0 19.05 15.35 -23.35 -2.86 -10.46 30.49 0.07 -8.65 -10.87 -0.14 2.41 -6.64 -1.39 -2.51 4.46 2.11 -3.39 2.52 3.08 -1.73 0.3 -0.83 3.23 -14.1 -3.81 4.52 -1.5 -0.81 2.13 2.01 0 -0 0 -89.95 -0.53 35.9 38.86 -47.38 -17.59 -0 0 -24.55 24.15 12.85 5.69 -7.12 0 -0 -2.9 44 0.07 0 -0 0 89.94 -14.72 1.23 -6.77 11.53 -0.68 0 0 7.71 -18.99 14.98 -5.08 7.12 -0 -0 5.8 -14.24 4.22
9.65 16.8 -15.71 0.45 3.12 -4.09 0 0 0 -25.55 4.27 16.58 2.96 10.63 31.05 0.05 1.19 -4.87 1.49 -7.72 -21.86 0 0 0 20.86 15.46 -21.14 -3.42 -11.35 33.48 -0.06 -7.66 -12.13 -0 0.24 -0.67 -0.66 -2.27 4.46 2.38 -3.04 2.57 2.93 -1.55 0.3 -1.25 3.26 -13.98 -3.72 4.62 -1.75 -0.7 2.19 1.89 0 0 0 -91.55 0.88 33.2 32.96 -43.3 -13.4 -0 0 -22.46 23.19 15.68 6.6 -7.12 0 -0 -4.28 46.91 -0.2 0 0 0 89.47 -13.92 1.01 -6.83 11.64 -0.7 0 0 7.4 -19.18 14.59 -5.01 7.12 -0 -0 5.66 -14.62 4.07
9.58 16.84 -14.99 -0.53 3.31 -3.75 0 0 0 -23.4 2.96 11.17 5.27 13.68 41.98 0.1 3.37 5.67 2.43 -9.71 -28.06 0 0 0 22.94 14.75 -19.65 -3.73 -11.8 35.02 -0.32 -6.23 -14.72 -0 -0.22 0.61 0.2 -2.34 3.87 2.54 -3.11 2.36 2.6 -1.57 0.39 -0.9 3.31 -14.14 -3.34 4.62 -1.73 -0.64 2.19 1.93 0 0 0 -92.31 1.62 30.41 26.5 -37.7 -9.19 -0 0 -21.62 22.29 17.24 6.93 -7.12 0 -0 -5.48 48.44 -0.47 0 0 0 89.59 -12.26 1.68 -7 11.91 -0.73 0 0 7.01 -19.93 16.17 -5.77 7.12 -0 -0 5.21 -12.89 3.94
9.53 16.95 -14.35 -1.21 3.59 -3.87 0 0 0 -21.98 0.79 4.51 8.42 16.42 54.08 0.61 9.47 14.44 2.1 -9.07 -26.01 0 0 0 24.66 12.42 -17.11 -3.62 -11.64 34.45 -0.59 -4.37 -16.74 -0.03 -1.06 2.91 0.66 -2.27 4.66 2.67 -2.98 2.22 2.51 -1.5 -0.22 -0.85 2.96 -14.76 -2.93 4.15 -1.37 -0.53 1.96 2.15 -0 0 0 -93.03 1.64 27.04 20.59 -31.34 -5.83 -0 0 -20.86 22.04 19.81 7.81 -7.12 0 -0 -6.41 51.1 -0.97 -0 0 0 89.59 -10.11 4.06 -7.69 13.05 -0.88 0 0 3.96 -19.43 14.6 -5.08 7.12 -0 -0 5.49 -14.59 3.95
9.5 17.02 -13.74 -2.18 3.1 -4.26 0 0 0 -20.39 0.06 -2.15 11.33 18.09 63.86 -0.17 15.51 8.93 1 -6.37 -17.85 0 0 0 26.49 9.7 -14.17 -3.31 -11.18 32.89 -0.72 -2.55 -17.19 -0.01 -0.57 1.56 1.86 -1.96 5.25 2.7 -2.5 2.49 1.87 -1.25 -0.33 -1.2 2.67 -15.11 -2.28 3.81 -1.22 -0.28 1.81 2.23 0 -0 0 -93.24 1.02 22.51 15.51 -24.85 -3.44 -0 0 -18.33 20.38 20.85 7.53 -7.12 0 -0 -8.39 51.9 -1.43 0 -0 0 89.49 -7.27 8.32 -8.48 14.33 -1.07 0 -0 -0 -21.7 16.34 -6.39 7.12 -0 -0 4.04 -12.5 3.08
9.46 17.11 -13.14 -2.33 2.06 -4.35 0 0 0 -19.79 -0.67 -8.44 13.2 18.85 69.75 -0.92 17.49 -0.76 0.12 -2.23 -6.14 0 0 0 27.47 8.79 -11 -3.01 -10.71 31.31 -0.83 -1.66 -17.92 -0 -0.02 0.06 2.1 -1.41 5.68 2.39 -1.74 2.55 1.38 -0.87 -0.54 -1.56 2.28 -13.65 -1.35 3.28 -2.43 0.01 1.61 1.54 0 -0 0 -93.03 1.25 16.24 11.78 -19.47 -2.03 -0 0 -14.02 21.97 20.05 7.87 -7.12 0 -0 -6.56 51.35 -1.03 0 -0 0 89.63 -4.06 11.48 -9.41 15.81 -1.31 0 -0 -1.48 -22.02 14.75 -5.88 7.12 -0 -0 3.73 -14.15 2.71
9.44 17.18 -12.54 -2.12 -0.02 -5.14 0 0 0 -19.53 -1.16 -13.34 13.84 19.07 71.72 -0.84 15.96 -5.18 0.07 -1.73 -4.76 0 0 0 28.19 8.56 -6.68 -2.72 -10.23 29.72 -0.95 -0.83 -18.76 -0 -0.45 1.23 2.05 -0.8 6.66 2.08 -0.91 3.01 1.06 -0.45 -0.63 -1.85 2.36 -13.62 -0.96 3.43 -1.91 0.2 1.69 1.69 -0 -0 0 -93.07 2.2 10.08 9.67 -16.22 -1.38 -0 0 -12.14 24.03 18.95 8.24 -7.12 0 -0 -4.21 50.53 -0.57 -0 -0 0 88.62 -0.41 18.83 -10.49 17.5 -1.62 0 -0 -4.8 -20.47 14.17 -5.22 7.12 -0 -0 4.76 -14.93 3.38
9.45 17.16 -11.94 -2.6 -1.66 -4.77 0 0 0 -18.61 -3.58 -18.37 13.5 18.96 70.67 -0.42 11.73 -7.22 0.14 -2.37 -6.54 0 0 0 28.84 6.99 -5.04 -2.66 -10.13 29.39 -1.13 1.65 -19.64 -0.01 -0.53 1.46 3.26 -0.26 6.3 1.65 -0.16 3.16 -0.13 -0.06 -0.28 -0.86 2.33 -13.07 -1.59 3.25 -1.84 -0.18 1.58 1.65 0 -0 0 -92.31 4.12 5.93 8.89 -14.98 -1.17 -0 0 -9.44 25.47 18.36 8.53 -7.12 0 -0 -2.64 50.14 -0.33 0 -0 0 87.96 3.1 25.13 -12.29 20.24 -2.2 0 -0 -8.3 -20.4 12.14 -4.47 7.12 -0 -0 4.74 -17.09 3.15
9.46 17.14 -11.35 -2.04 -3.21 -4.65 0 0 0 -18.63 -5.83 -22.17 12.08 18.43 66.25 -0.05 7.27 -9.02 0.43 -4.19 -11.62 0 0 0 28.37 6.26 -3.07 -2.66 -10.13 29.4 -1.27 2.96 -20.53 -0 0.06 -0.16 3.07 0.13 6.83 1.22 0.37 3.01 -0.49 0.2 -0.71 -1.43 2.54 -12.44 -0.98 3.6 -1.53 0.12 1.77 1.62 -0 -0 0 -92.13 7.34 5.84 9.2 -15.48 -1.25 -0 0 -11.52 25.84 18.54 8.76 -7.12 0 -0 -2.31 50.41 -0.31 -0 -0 0 86.48 5.25 33.24 -15.59 24.96 -3.47 0 -0 -14.77 -23.5 15.36 -6.57 7.12 -0 -0 2.77 -13.32 2.06
9.48 17.13 -10.73 -2.5 -4.47 -4.71 0 0 0 -17.49 -7.98 -24.37 9.8 17.29 58.8 0.13 5.15 -10.68 0.75 -5.54 -15.45 0 0 0 28.81 4.94 0.13 -2.35 -9.55 27.54 -1.34 4.67 -20.88 -0 -0.11 0.32 3.93 0.48 7.25 1.17 0.91 3.07 -1.08 0.48 -0.85 -1.33 2.7 -11.86 -1.24 3.79 -1.25 0.02 1.86 1.61 -0 0 0 -92.39 9.99 4.72 9.66 -16.21 -1.38 -0 0 -11.76 23.79 19.66 8.43 -7.12 0 -0 -4.63 51.25 -0.71 -0 0 0 84.98 8.74 35.53 -17.99 28.15 -4.55 0 -0 -12.36 -22.82 15.11 -6.26 7.12 -0 -0 3.21 -13.67 2.37
9.51 17.18 -10.09 -2.15 -5.59 -4.62 0 0 0 -17.11 -9.91 -25.31 6.77 15.14 48.01 0.17 5.84 -12.1 0.39 -3.99 -11.05 0 0 0 28.21 3.51 3.9 -1.8 -8.43 24.04 -1.21 5.42 -19.73 -0 -0.28 0.78 4.02 0.77 7.46 0.82 1.3 3.16 -1.52 0.68 -0.84 -0.24 2.89 -11.67 -2.37 3.94 -1.02 -0.51 1.9 1.71 0 -0 0 -92.6 12.16 4.8 10.17 -17.01 -1.53 -0 0 -13.62 23.4 20.61 8.66 -7.12 0 -0 -5.28 52.18 -0.94 0 -0 0 83.48 11.71 38.77 -21.65 32.58 -6.4 0 -0 -15.25 -23.31 14.89 -6.32 7.12 -0 -0 2.87 -13.85 2.1
9.54 17.2 -9.43 -2.64 -6.24 -4.08 0 0 0 -15.83 -12.05 -25.2 4.08 12.26 36.66 0.12 8 -13.65 0.58 -4.86 -13.51 0 0 0 28.23 2.08 7.6 -1.25 -7.09 19.99 -1.1 6.27 -18.76 -0.01 -0.61 1.67 4.72 0.94 6.88 0.87 1.54 3.28 -1.86 0.81 -0.37 -0.1 3.16 -10.66 -2.46 4.25 -1.92 -0.57 2.07 1.24 -0 -0 0 -93.31 13.55 3.32 10.41 -17.37 -1.59 -0 0 -13.96 22.95 19.52 8.05 -7.12 0 -0 -5.42 50.95 -0.8 -0 -0 0 81.98 14.58 40.23 -25.4 36.61 -8.53 0 -0 -16.99 -23.51 16.25 -6.94 7.12 -0 -0 2.83 -12.36 2.16
9.57 17.19 -8.76 -3.18 -7.1 -3.95 0 0 0 -14.37 -13.87 -24.46 2.34 9.54 27.48 0.07 10.24 -15.68 0.32 -3.63 -10.05 0 0 0 28.14 0.18 11.68 -0.79 -5.66 15.81 -0.93 6.49 -17.21 -0 0.44 -1.22 5.32 1.02 6.88 1.08 1.68 3.36 -1.98 0.89 -0.26 0.36 3.68 -10.21 -3.28 4.88 -2.37 -0.89 2.37 1.07 -0 -0 0 -94.35 14.66 1.49 10.39 -17.35 -1.59 -0 0 -14.14 22.64 19.33 7.86 -7.12 0 -0 -5.68 50.7 -0.8 -0 -0 0 80.2 17.17 42.07 -28.77 39.81 -10.61 0 -0 -18.27 -24.8 15.97 -7.25 7.12 -0 -0 1.94 -12.49 1.48
9.61 17.17 -8.05 -2.93 -8.32 -4.26 0 0 0 -14.23 -14.04 -23.89 1.56 7.88 22.36 0.08 11.15 -16.94 0.61 -4.99 -13.88 0 0 0 26.91 -1.36 16.6 -0.4 -4.08 11.3 -0.68 7.08 -14.76 -0.04 1.24 -3.4 5.1 1.31 7.03 0.96 2.05 3.57 -2.01 1.08 -0.1 1.66 4.44 -10.24 -4.21 5.77 -2.05 -1.36 2.79 1.27 0 -0 0 -95.05 15.1 -0.58 10.23 -17.09 -1.54 -0 0 -13.11 22.75 19.73 8.06 -7.12 0 -0 -5.68 51.14 -0.86 0 -0 0 79.6 19.6 42.1 -31.1 41.82 -12.14 0 -0 -17.39 -25.64 16.2 -7.63 7.12 -0 -0 1.41 -12.12 1.08
9.67 17.11 -7.3 -3.37 -8.72 -4.24 0 0 0 -13.98 -13.85 -23.67 1.46 7.65 21.65 0.12 10.45 -16.62 0.82 -5.78 -16.15 0 0 0 26.52 -2.67 20.07 -0.28 -3.38 9.33 -0.52 6.83 -13.03 -0.25 3.22 -8.9 5.66 1.33 6.75 1.06 2.1 3.47 -2.22 1.11 -0.03 2.24 5.12 -9.65 -4.5 6.62 -2.17 -1.53 3.21 1.19 0 -0 0 -95.6 15.03 -3.09 9.55 -16.03 -1.35 -0 0 -10.94 22.5 20.6 8.29 -7.12 0 -0 -6.18 52.01 -1.07 0 -0 0 78.99 20.85 42.07 -33 43.33 -13.42 0 -0 -17.13 -26.15 16.24 -7.82 7.12 -0 -0 1.07 -12 0.83
9.69 17.06 -6.5 -2.85 -9.34 -4.31 0 0 0 -15.56 -11.66 -23.1 1.7 8.2 23.34 -0.14 12 -15.1 0.41 -4.1 -11.37 0 0 0 25.87 -2.04 21.83 -0.46 -4.36 12.08 -0.54 5.89 -13.1 -0.52 4.61 -12.79 4.69 1.59 5.98 1.01 2.35 3.42 -1.71 1.23 0.33 2.15 5.77 -9.31 -3.83 7.51 -1.76 -1.26 3.67 1.26 0 0 0 -95.77 14.11 -5.15 8.62 -14.55 -1.1 -0 0 -8.36 21.74 20.07 7.79 -7.12 0 -0 -6.79 51.33 -1.06 0 0 0 78.79 20.74 41.25 -34.64 44.55 -14.56 0 -0 -16.6 -24.22 16.79 -7.41 7.12 -0 -0 2.4 -11.68 1.86
9.74 17.06 -5.66 -2.24 -9.07 -4.76 0 0 0 -17.49 -9.72 -23.27 2.39 9.64 27.83 -0.74 16.01 -11.97 0.41 -4.11 -11.39 0 0 0 25 -2.21 24.85 -0.5 -4.53 12.59 -0.33 3.81 -10.25 -1.25 7.09 -19.98 3.53 1.55 5.81 0.99 2.24 2.95 -1.09 1.15 -0.12 2.89 6.33 -8.91 -3.74 8.22 -0.52 -1.32 4.02 1.64 -0 -0 0 -96.13 13.7 -7.92 8.09 -13.69 -0.97 -0 0 -5.32 21.94 20.2 7.92 -7.12 0 -0 -6.63 51.5 -1.07 -0 -0 0 79.1 19.1 40.96 -34.92 44.75 -14.76 0 -0 -16.22 -25.18 16.94 -7.8 7.12 -0 -0 1.78 -11.39 1.39
9.75 17.07 -4.84 -2.43 -8 -4.52 0 0 0 -18.08 -8.52 -23.7 3.08 10.82 31.68 -0.32 10.99 -8.99 0.12 -2.26 -6.22 0 0 0 25.5 -1.66 22.91 -1.32 -7.27 20.52 -0.16 2.22 -7.22 -1.48 7.69 -21.78 3.29 1.3 4.79 0.92 1.87 2.44 -0.99 0.96 -0.1 3.28 6.6 -8.06 -3.3 8.57 0.07 -1.25 4.21 1.69 0 -0 0 -95.38 12.48 -8.48 7.74 -13.12 -0.89 -0 0 -3.62 20.88 20.56 7.63 -7.12 0 -0 -7.79 51.69 -1.29 0 -0 0 80.62 16.48 40.08 -34.2 44.23 -14.25 0 -0 -16.21 -25.84 17.01 -8.07 7.12 -0 -0 1.35 -11.21 1.06
9.8 17.11 -4.06 -0.85 -6.94 -4.88 0 0 0 -20.84 -7.99 -21.65 3.39 11.3 33.31 -0.11 9.15 -10.76 0.05 -1.44 -3.95 0 0 0 23.31 -1.14 18.41 -3.05 -10.78 31.55 -0 -0.08 0.83 -1.78 8.4 -23.94 1.75 1.31 4.66 0.29 1.82 1.94 -0.78 0.92 -0.57 3.01 6.64 -8.22 -2.24 8.63 1.81 -0.83 4.26 2.23 -0 0 0 -94.28 11.05 -5.93 7.78 -13.19 -0.9 -0 0 -4.49 20.4 20 7.25 -7.12 0 -0 -8.09 51.02 -1.21 -0 0 0 81.86 12.65 38.99 -32.86 43.23 -13.33 0 -0 -16.92 -26.63 17.62 -8.63 7.12 -0 -0 0.89 -10.42 0.71
9.86 17.21 -3.35 -0.38 -6.83 -4.43 0 0 0 -22.29 -7.3 -19.49 3.35 11.24 33.09 0.03 8.44 -12.57 0.01 -0.7 -1.92 0 0 0 22.78 2 12.03 -5.7 -14.14 43.78 -0.47 -4.6 12.16 -3.19 11 -32.27 1.41 1.29 4.62 0.13 1.78 1.33 -0.76 0.89 -1.19 3.43 6.85 -8.22 -2.57 8.91 2.99 -0.97 4.39 2.67 -0 -0 0 -93.89 10.01 -0.99 9.14 -15.39 -1.24 -0 0 -8.52 20.78 20.34 7.51 -7.12 0 -0 -7.82 51.44 -1.25 -0 -0 0 82.72 10.07 38.78 -30.16 41.03 -11.51 0 -0 -17.41 -26.13 17.19 -8.25 7.12 -0 -0 1.17 -10.97 0.93
9.91 17.3 -2.66 2.01 -6.98 -4.48 0 0 0 -25.8 -6.31 -16.32 3.04 10.76 31.47 0.15 8.3 -14.36 0 -0.06 -0.16 0 0 0 19.86 4.66 5.27 -8.81 -16.69 55.44 -0.56 -8.76 13.78 -3.8 11.88 -35.32 -1.26 1.15 4.5 -0.17 1.47 1.23 0.46 0.74 -1.28 3.5 7.44 -8.86 -3.26 9.75 4.48 -1.1 4.78 3.38 0 -0 0 -94.03 8.92 6.16 11.66 -19.29 -1.99 -0 0 -15.56 22.42 18.75 7.55 -7.12 0 -0 -5.74 50.05 -0.72 0 -0 0 83.29 8.42 39.11 -26.51 37.7 -9.2 0 -0 -15.87 -25.54 17.63 -8.24 7.12 -0 -0 1.6 -10.58 1.28
9.96 17.39 -2.03 2.78 -6.08 -5.04 0 0 0 -27.56 -4.76 -12.62 2.68 10.16 29.5 0.27 7.25 -15.09 0.03 -1.16 -3.18 0 0 0 18.64 5.45 -0.94 -11.36 -18.1 63.93 0.19 -13.01 6.44 -2.11 9.09 -26.08 -1.7 0.86 5.47 -0.54 1.04 1.35 0.33 0.52 -1.7 3.88 7.86 -8.52 -3.31 10.3 4.69 -1.15 5.05 3.44 -0 0 0 -92.62 7.36 12.71 14.32 -23.19 -2.95 -0 0 -19.43 23.28 18.57 7.8 -7.12 0 -0 -4.85 50 -0.6 -0 0 0 84.43 6.95 37.81 -22.76 33.82 -7 0 -0 -14.53 -22.67 16.29 -6.68 7.12 -0 -0 3.39 -12.43 2.59
10.01 17.47 -1.38 2.4 -5.05 -5.13 0 0 0 -27.95 -3.85 -9.39 2.45 9.75 28.17 0.4 6.53 -16.09 0.07 -1.68 -4.61 0 0 0 18.66 6.6 -6.81 -12.89 -18.74 68.78 0.7 -14.75 -3.68 -1.3 7.21 -20.34 -1.5 0.41 5.83 -0.08 0.45 1.32 0.73 0.23 -1.92 3.55 7.85 -7.86 -3.84 10.38 4.61 -1.29 5.08 3.3 -0 -0 0 -92.31 5.93 17.31 17.74 -27.82 -4.43 -0 0 -22.16 23.59 20.2 8.57 -7.12 0 -0 -4.97 51.78 -0.83 -0 -0 0 84.76 4.42 36.24 -19.42 29.93 -5.24 0 -0 -12.89 -22.35 16.21 -6.54 7.12 -0 -0 3.6 -12.56 2.74
10.05 17.49 -0.72 2.3 -3.3 -5.43 0 0 0 -28.68 -3.62 -6.04 2.37 9.59 27.65 0.63 5.49 -17.97 0.01 -0.79 -2.18 0 0 0 18.31 7.61 -11.69 -13.22 -18.86 69.81 0.77 -15.55 -8.55 -0.76 5.58 -15.57 -1.49 -0.04 5.85 0.08 -0.14 1.65 0.93 -0.07 -1.58 3.74 7.97 -8.23 -3.84 10.55 5.7 -1.28 5.15 3.78 -0 -0 0 -91.19 3.97 22.53 21.54 -32.45 -6.34 -0 0 -24.8 23.52 21.99 9.26 -7.12 0 -0 -5.59 53.66 -1.19 -0 -0 0 85.58 1.74 32.48 -16.81 26.61 -4 0 -0 -11.06 -22.49 14.92 -6.09 7.12 -0 -0 3.43 -13.91 2.51
10.06 17.46 -0.09 2.28 -1.5 -5.22 0 0 0 -29.12 -3.64 -3.73 2.33 9.53 27.47 0.84 4.3 -19.43 0.06 -1.53 -4.21 0 0 0 17.79 9.22 -16.45 -12.56 -18.62 67.75 0.58 -14.7 -12.05 -0.84 5.85 -16.34 -1.78 -0.41 6.08 0.35 -0.64 1.63 1.4 -0.32 -1.71 3.48 7.59 -7.61 -4 10.08 5.29 -1.35 4.92 3.49 -0 -0 0 -90.03 2.35 27.05 26.37 -37.57 -9.11 -0 0 -26.75 24.12 22.07 9.55 -7.12 0 -0 -4.99 53.87 -1.09 -0 -0 0 86.03 -1.25 29.3 -14.4 23.3 -2.98 0 -0 -11.54 -22.53 15.89 -6.48 7.12 -0 -0 3.46 -12.87 2.6
10.08 17.41 0.56 1.87 0.41 -5.4 0 0 0 -29.14 -3.23 -0.56 2.25 9.37 26.97 1.1 3.02 -21.15 0.08 -1.78 -4.91 0 0 0 17.53 10.74 -19.24 -10.82 -17.84 62.18 0.11 -11.88 -15.27 -0.69 5.3 -14.77 -1.69 -0.95 6.72 0.7 -1.36 1.57 1.78 -0.67 -2.09 3.38 7.57 -7.66 -3.78 10.07 5.88 -1.25 4.92 3.68 -0 0 0 -89.02 1.08 30.04 31.5 -42.14 -12.4 -0 0 -27.61 23.57 19.23 8.18 -7.12 0 -0 -4.73 50.76 -0.67 -0 0 0 86.65 -4.26 23.93 -12.19 20.09 -2.17 0 -0 -8.12 -21.48 14.49 -5.62 7.12 -0 -0 4.09 -14.48 2.94
10.09 17.41 1.25 2.68 2.08 -5.55 0 0 0 -30.22 -2.48 3.32 1.89 8.64 24.67 1.17 2.17 -21.29 0.05 -1.5 -4.12 0 0 0 15.83 12.4 -20.43 -8.19 -16.26 53.24 -0.25 -9.37 -17.09 -0.63 5.08 -14.13 -2.84 -1.17 6.95 0.66 -1.74 1.78 2.42 -0.86 -1.95 2.42 7.26 -7.63 -2.97 9.67 5.46 -0.86 4.73 3.4 0 0 0 -87.85 -0.27 32.9 37.41 -46.46 -16.54 -0 0 -28.38 24.93 17.07 7.77 -7.12 0 -0 -2.89 48.67 -0.26 0 0 0 87.39 -7.19 17.96 -10.3 17.2 -1.56 0 -0 -5.49 -21.44 16.12 -6.22 7.12 -0 -0 4.2 -12.77 3.18
10.09 17.44 1.95 2.75 3.68 -4.92 0 0 0 -30.11 -1.5 7.09 1.34 7.34 20.72 1.06 1.8 -20.14 0.13 -2.37 -6.52 0 0 0 14.47 14.52 -21.13 -5.25 -13.67 41.91 -0.26 -9.41 -17.26 -0.81 5.73 -16.01 -3.19 -1.5 6.34 0.79 -2.18 1.99 2.76 -1.09 -1.35 2.57 7.03 -8.84 -3.13 9.35 5.76 -0.91 4.55 3.75 -0 0 0 -86.93 -1.96 34.77 43.13 -49.82 -20.8 -0 0 -28.66 25.84 14.73 7.02 -7.12 0 -0 -1.61 46.26 -0.05 -0 0 0 88.27 -9.17 10.81 -8.38 14.16 -1.04 0 -0 -0.74 -21.4 18.44 -7.07 7.12 -0 -0 4.38 -10.32 3.53
10.08 17.44 2.66 2.28 4.98 -4.72 0 0 0 -29.15 -0.47 11.06 0.95 6.2 17.36 1.04 0.6 -19.52 0.06 -1.57 -4.31 0 0 0 14.28 16.04 -20.56 -2.92 -10.56 30.82 -0.49 -8.84 -19.25 -0.91 6.07 -16.99 -3.06 -1.78 6.34 1.14 -2.53 2.04 3.07 -1.27 -1.26 2.01 6.58 -8.74 -3.19 8.79 4.93 -0.89 4.27 3.39 0 -0 0 -86.19 -2.75 36.15 48.68 -52.45 -25.13 -0 0 -29.63 26.92 12.85 6.44 -7.12 0 -0 -0.35 44.33 0.01 0 -0 0 88.78 -11.84 4.38 -7.01 11.94 -0.73 0 0 4.5 -21.4 14.64 -5.66 7.12 -0 -0 4.15 -14.34 3
10.11 17.44 3.39 2.54 6.05 -4.2 0 0 0 -28.82 1.33 15.6 0.45 4.29 11.9 0.79 0.54 -17.04 0.21 -2.92 -8.06 0 0 0 14.07 13.07 -22.75 -1.82 -8.49 24.2 -0.77 -6.07 -19.86 -0.86 5.91 -16.54 -3.07 -2.19 6.04 1.08 -3.07 1.78 3.04 -1.54 -1.33 1.64 6.41 -9.71 -2.8 8.6 5.92 -0.66 4.16 3.88 0 -0 0 -85.72 -2.6 36.24 52.94 -54.11 -28.54 -0 0 -28.61 26.84 12.05 6.03 -7.12 0 -0 -0.34 43.43 0.01 0 -0 0 89.59 -14.62 -1.28 -6.15 10.51 -0.57 0 0 9.08 -20.44 14.12 -5.2 7.12 -0 -0 4.78 -14.99 3.39
10.09 17.38 4.16 2.69 7.06 -4.03 0 0 0 -28.28 2.35 19.92 0.23 3.08 8.51 0.62 0.84 -15.16 0.39 -4.03 -11.17 0 0 0 15.4 8.31 -25.36 -1.5 -7.73 21.91 -0.85 -3.75 -19.18 -1.58 7.93 -22.5 -3.26 -2.4 5.79 1.17 -3.36 1.96 3.25 -1.69 -0.96 1.38 5.93 -10.41 -3.25 8.01 5.48 -0.79 3.84 3.86 0 0 0 -85.67 -2.64 36.63 55.64 -55.03 -30.74 -0 0 -28.6 27.13 12.09 6.12 -7.12 0 -0 -0.08 43.51 0 0 0 0 90.3 -16.39 -7.02 -5.48 9.4 -0.45 0 0 13.89 -19.31 15.19 -5.24 7.12 -0 -0 5.59 -13.99 4.09
10.05 17.29 4.95 2.19 6.8 -3.92 0 0 0 -27.1 3.52 22.42 0.23 3.05 8.43 0.52 0.95 -13.99 0.58 -4.88 -13.56 0 0 0 16.48 10.01 -24.91 -1.68 -8.16 23.21 -0.83 -5.23 -19.83 -0.81 5.75 -16.07 -3.03 -2.47 5.37 1.46 -3.43 1.91 3.4 -1.73 -0.77 1.33 5.6 -11.3 -3.61 7.61 5.92 -0.89 3.61 4.2 0 0 0 -86.04 -1.35 35.93 56.1 -55.18 -31.12 -0 0 -27.77 26.52 12.31 6.07 -7.12 0 -0 -0.66 43.69 0.02 0 0 0 90.58 -17.73 -10.42 -5.11 8.77 -0.39 0 0 17.3 -18.28 11.93 -3.9 7.12 -0 -0 6.22 -17.49 4.08
10.01 17.21 5.79 2.84 6.62 -3.94 0 0 0 -27.25 4.35 23.16 0.47 4.39 12.19 0.48 0.74 -13.33 1.08 -6.62 -18.59 0 0 0 16.39 11.94 -23.57 -2.17 -9.22 26.49 -0.43 -7.84 -17.7 -0.88 5.99 -16.75 -3.8 -2.62 4.95 1.28 -3.65 1.75 3.64 -1.84 -0.65 1.47 5.47 -11.45 -4 7.47 6.21 -1.06 3.52 4.36 -0 0 0 -86.35 1.17 35.37 54.85 -54.77 -30.09 -0 0 -28.5 27.6 11.73 6.07 -7.12 0 -0 0.39 43.16 -0.02 -0 0 0 90.92 -18.69 -10.99 -4.86 8.34 -0.35 0 0 17.46 -18.8 10.9 -3.68 7.12 -0 -0 5.83 -18.52 3.7
9.99 17.17 6.65 0.63 6.19 -4.58 0 0 0 -24.38 4.72 22.24 1.22 7.01 19.74 0.36 0.5 -11.57 1.49 -7.71 -21.82 0 0 0 19.44 13.04 -22.22 -2.73 -10.24 29.77 -0.07 -8.94 -13.99 -0.34 3.73 -10.33 -1.41 -2.87 4.76 1.93 -3.86 1.68 2.97 -1.94 -0.71 1.16 5.38 -11.02 -4.26 7.4 5.9 -1.11 3.47 4.16 -0 0 0 -87.45 3.49 33.81 50.52 -53.2 -26.59 -0 0 -27.67 27.51 10.78 5.56 -7.12 0 -0 0.39 42.09 -0.03 -0 0 0 90.78 -18.79 -11.43 -4.84 8.31 -0.35 0 0 17.47 -17.52 13.02 -4.07 7.12 -0 -0 6.75 -16.41 4.6
9.96 17.14 7.45 -0.47 4.97 -5.05 0 0 0 -22.31 5.6 18.6 2.83 10.42 30.34 0.08 0.74 -5.68 2.08 -9.04 -25.91 0 0 0 21.85 13.5 -20.96 -3.49 -11.46 33.83 -0.19 -7.79 -14.43 -0.01 0.67 -1.84 -0.42 -2.79 4.83 2.28 -3.71 1.68 2.78 -1.86 -0.8 1.51 5.26 -11.2 -4.77 7.24 5.87 -1.35 3.38 4.23 -0 0 0 -88.98 5.3 31.63 43.07 -49.79 -20.76 -0 0 -25.67 25.75 12.29 5.86 -7.12 0 -0 -1.36 43.58 0.05 -0 0 0 90.58 -17.59 -11.71 -4.95 8.51 -0.37 0 0 17.99 -17.48 12.65 -3.95 7.12 -0 -0 6.78 -16.8 4.56
9.91 17.16 8.19 -0.78 4.56 -5.48 0 0 0 -21.1 4.78 13.44 5.29 13.7 42.05 0.06 4.14 4.81 2.07 -9.01 -25.84 0 0 0 23.49 13.9 -18.47 -3.91 -12.04 35.89 -0.36 -7.4 -16.34 -0.05 -1.41 3.88 -0.49 -2.76 5.45 2.41 -3.66 1.62 2.98 -1.83 -1.19 1.01 4.8 -10.53 -4.2 6.6 5.05 -1.14 3.1 3.73 0 -0 0 -90.56 6.51 29.53 35.27 -45 -15 -0 0 -25.2 24.87 15.22 6.94 -7.12 0 -0 -2.61 46.66 -0.11 0 -0 0 90.3 -15.69 -9.76 -5.4 9.25 -0.44 0 0 16.07 -16.8 13.33 -3.98 7.12 -0 -0 7.26 -16.15 4.99
9.86 17.2 8.83 -1.79 4.7 -5.09 0 0 0 -19.37 2.49 5.44 8.83 16.7 55.49 0.36 12.7 12.99 0.81 -5.73 -16.02 0 0 0 25.63 13.44 -16.29 -3.91 -12.04 35.87 -0.51 -7.31 -18.09 -0.03 -1.17 3.22 0.3 -2.74 5.71 2.49 -3.58 1.5 2.64 -1.79 -1.52 0.21 4.23 -10.48 -3 5.85 4.67 -0.66 2.77 3.48 0 -0 0 -91.22 5.86 27.51 27.13 -38.3 -9.58 -0 0 -24.52 23.15 18.79 7.84 -7.12 0 -0 -5.03 50.22 -0.65 0 -0 0 90.83 -12.82 -5.43 -6.11 10.45 -0.56 0 0 10.87 -18.79 14.53 -4.88 7.12 -0 -0 5.92 -14.73 4.24
9.86 17.27 9.47 -1.97 4.18 -4.93 0 0 0 -19.1 1.47 -1.94 11.79 18.3 65.33 -0.48 19.4 9.11 0.71 -5.39 -15.03 0 0 0 26.5 11.86 -14.09 -3.77 -11.84 35.17 -0.77 -5.34 -19.4 -0.1 -2.08 5.74 1.03 -2.31 5.92 2.11 -2.97 1.59 1.8 -1.48 -1.61 -0.16 3.52 -10.71 -2.29 4.89 4.44 -0.42 2.32 3.39 -0 0 0 -91.73 4.57 24.47 19.86 -30.47 -5.46 -0 0 -22.59 21.65 19.07 7.39 -7.12 0 -0 -6.58 50.27 -0.86 -0 0 0 91.34 -9.47 0.45 -7.15 12.17 -0.76 0 0 4.57 -20.65 15.13 -5.62 7.12 -0 -0 4.68 -13.9 3.43
9.89 17.35 10.13 -1.92 3.21 -6.02 0 0 0 -19.46 1.02 -6.35 13.35 18.91 70.21 -1.25 20.47 -0.34 0.41 -4.09 -11.32 0 0 0 27.27 9.59 -10.16 -3.59 -11.59 34.3 -0.96 -3.85 -20.28 -0.08 -1.85 5.1 1.46 -1.97 6.57 1.75 -2.5 2.22 1.17 -1.25 -1.38 -0.3 3.13 -9.93 -1.99 4.34 3.67 -0.35 2.07 2.96 -0 -0 0 -92.72 3.3 17.36 14.06 -22.82 -2.85 -0 0 -17.3 20.43 19.35 7.03 -7.12 0 -0 -7.86 50.36 -1.04 -0 -0 0 91.16 -5.67 6.82 -8.37 14.15 -1.04 0 0 0.15 -22.35 14.79 -5.99 7.12 -0 -0 3.51 -14.07 2.56
9.89 17.42 10.76 -1.76 1.07 -6.03 0 0 0 -19.5 -0.03 -11.86 14.02 19.12 72.27 -0.9 16.54 -4.76 0.51 -4.58 -12.7 0 0 0 27.94 9.35 -6.37 -3.15 -10.94 32.08 -1.03 -3.19 -20.54 -0 -0.11 0.31 1.4 -1.29 6.78 1.4 -1.59 2.2 0.78 -0.8 -1.53 -0.38 2.99 -9.8 -1.44 4.13 4.27 -0.17 1.98 3.12 -0 0 0 -93.31 3.92 9.04 10.49 -17.5 -1.62 -0 0 -12.66 22.26 19.58 7.81 -7.12 0 -0 -6.12 50.9 -0.89 -0 0 0 90.71 -2.02 14.41 -9.67 16.22 -1.38 0 -0 -3.47 -22.9 14.2 -5.91 7.12 -0 -0 3.11 -14.64 2.23
9.91 17.47 11.4 -2.36 -1.02 -5.69 0 0 0 -18.44 -1.76 -17.04 13.71 19.02 71.32 -0.43 11.86 -7.16 0.47 -4.4 -12.21 0 0 0 29 8.68 -3.56 -2.85 -10.45 30.46 -1.22 -1.4 -21.43 -0.03 -1.07 2.95 2.32 -0.77 6.55 1.37 -0.85 2.24 0.17 -0.43 -1.37 -0.54 2.87 -9.67 -1.67 4.01 4.3 -0.22 1.91 3.11 0 -0 0 -93.97 5.04 0.86 8.5 -14.36 -1.07 -0 0 -7.92 23.81 20.98 8.98 -7.12 0 -0 -4.97 52.65 -0.94 0 -0 0 89.56 2.39 22.83 -11.13 18.48 -1.82 0 -0 -8.17 -23.61 13.02 -5.62 7.12 -0 -0 2.55 -15.83 1.76
9.95 17.46 12.03 -1.89 -2.54 -5.57 0 0 0 -18.6 -4.13 -20.76 12.29 18.51 66.92 -0.15 8.92 -9.33 0.52 -4.62 -12.82 0 0 0 28.55 7.24 -1.13 -2.71 -10.22 29.69 -1.48 0.28 -22.95 -0.01 -0.75 2.07 2.37 -0.38 6.89 0.89 -0.32 2.02 -0.39 -0.16 -1.79 -0.02 2.91 -9.56 -2.21 4.05 4.73 -0.48 1.92 3.26 -0 -0 0 -94.35 7.7 -3.72 7.9 -13.4 -0.93 -0 0 -6.64 24.82 20.64 9.26 -7.12 0 -0 -3.85 52.48 -0.71 -0 -0 0 88.46 6.06 28.74 -13.14 21.49 -2.5 0 -0 -10.29 -23.29 14.7 -6.23 7.12 -0 -0 2.87 -14.05 2.09
9.99 17.49 12.68 -1.89 -3.59 -5.4 0 0 0 -17.95 -6.56 -23.23 10 17.41 59.48 0.03 8.17 -12.22 0.42 -4.16 -11.54 0 0 0 28.19 5.26 1.9 -2.3 -9.46 27.26 -1.52 1.78 -22.8 -0.01 0.68 -1.86 2.75 -0.24 7.05 0.6 -0.11 2.22 -0.91 -0.06 -1.66 0.5 2.87 -10.01 -2.9 3.97 4.25 -0.8 1.86 3.22 -0 -0 0 -94.9 10.17 -4.99 8.08 -13.68 -0.97 -0 0 -7.42 24.08 20.44 8.87 -7.12 0 -0 -4.55 52.13 -0.8 -0 -0 0 87.28 9.96 33.75 -16.01 25.53 -3.65 0 -0 -12.59 -22.78 13.69 -5.68 7.12 -0 -0 3.16 -15.19 2.22
10.04 17.52 13.3 -2.81 -4.51 -4.89 0 0 0 -15.86 -8.89 -24.87 7.14 15.45 49.39 0.03 9.1 -13.48 0.4 -4.06 -11.24 0 0 0 28.74 3.5 5.29 -1.7 -8.22 23.39 -1.32 2.9 -20.95 -0.02 0.96 -2.65 3.86 -0.13 7.43 0.76 0.12 2.16 -1.39 0.05 -1.92 0.27 2.77 -9.68 -3.17 3.84 2.89 -0.87 1.8 2.68 0 -0 0 -95.78 12.33 -5.47 8.37 -14.15 -1.04 -0 0 -8.14 22.7 21.16 8.58 -7.12 0 -0 -6.16 52.63 -1.16 0 -0 0 85.87 13.52 37.4 -19.04 29.47 -5.05 0 -0 -14.72 -23.51 14.37 -6.16 7.12 -0 -0 2.7 -14.39 1.95
10.1 17.58 13.95 -3.08 -5.28 -3.95 0 0 0 -14.32 -11.59 -25.24 4.32 12.57 37.8 0.05 9.67 -14.62 0.56 -4.8 -13.34 0 0 0 28.41 2.1 8.71 -1.12 -6.72 18.89 -1.16 3.7 -19.46 -0.01 0.67 -1.84 4.2 0.01 7.12 0.78 0.32 2.11 -1.58 0.15 -1.8 0.86 2.86 -10.34 -4.01 3.9 2.2 -1.24 1.81 2.62 -0 -0 0 -96.54 13.83 -5.68 8.79 -14.83 -1.15 -0 0 -9.05 21.85 19.4 7.59 -7.12 0 -0 -6.48 50.64 -0.9 -0 -0 0 84.5 17.1 39.73 -21.83 32.79 -6.5 0 -0 -16.67 -24.66 16.26 -7.32 7.12 -0 -0 2.06 -12.2 1.58
10.15 17.56 14.64 -3.45 -6.28 -3.54 0 0 0 -12.45 -14.46 -24.44 2.48 9.8 28.34 0.05 10.74 -16.08 0.9 -6.05 -16.94 0 0 0 28 0.49 12.81 -0.64 -5.11 14.23 -0.93 4.33 -17.29 -0.01 0.51 -1.4 4.59 0.3 6.95 0.88 0.72 2.35 -1.73 0.37 -1.42 0.47 2.66 -10.74 -3.99 3.65 0.87 -1.17 1.69 2.22 0 -0 0 -97.12 13.99 -7.23 8.72 -14.71 -1.13 -0 0 -8.5 20.09 21.5 7.64 -7.12 0 -0 -8.9 52.52 -1.66 0 -0 0 83.21 20.26 40.76 -24.82 36.02 -8.18 0 -0 -17.55 -25.68 16.27 -7.67 7.12 -0 -0 1.39 -12.04 1.07
10.22 17.52 15.34 -3.47 -7.43 -3.6 0 0 0 -11.74 -14.92 -24.02 1.63 8.04 22.84 0.05 11.8 -17.44 0.99 -6.33 -17.76 0 0 0 27.03 -1.31 17.03 -0.33 -3.67 10.15 -0.74 4.55 -15.33 -0.07 1.68 -4.61 4.63 0.58 7.13 0.83 1.09 2.57 -1.83 0.56 -1.27 1.09 2.66 -10.66 -4.88 3.54 -0.41 -1.58 1.63 1.82 -0 0 0 -97.36 13.79 -8.46 8.48 -14.33 -1.07 -0 0 -7.85 20.09 21.46 7.62 -7.12 0 -0 -8.89 52.47 -1.65 -0 0 0 82.5 22.73 41.41 -27.27 38.44 -9.67 0 -0 -18.13 -25.7 16.33 -7.7 7.12 -0 -0 1.38 -11.97 1.06
10.32 17.45 16.13 -2.94 -7.96 -4.14 0 0 0 -13.1 -13.72 -23.08 1.49 7.71 21.82 0.19 10.58 -17.64 1.11 -6.69 -18.8 0 0 0 25.59 -2.26 20.93 -0.25 -3.2 8.84 -0.65 3.7 -14.45 -0.37 3.92 -10.86 4.45 0.74 7.07 0.57 1.28 2.87 -2.01 0.66 -0.91 1.37 2.59 -10.45 -5.24 3.38 -1.58 -1.75 1.56 1.41 -0 -0 0 -97.33 13.78 -7.55 8.7 -14.68 -1.12 -0 0 -8.32 20.55 21.02 7.66 -7.12 0 -0 -8.27 52.1 -1.45 -0 -0 0 82.26 24.3 41.33 -28.93 39.96 -10.72 0 -0 -17.8 -26.06 17.38 -8.31 7.12 -0 -0 1.24 -10.78 0.98
10.39 17.4 16.92 -3.43 -8.21 -3.83 0 0 0 -14 -11.11 -23.85 1.89 8.63 24.65 -0.16 10.74 -12.54 1.21 -6.97 -19.62 0 0 0 25.82 -1.98 23.15 -0.3 -3.54 9.78 -0.55 2.93 -13.26 -0.74 5.51 -15.36 4.88 0.91 6.42 0.69 1.5 2.72 -2.13 0.77 -0.68 1.2 2.39 -10.49 -4.9 3.12 -1.89 -1.62 1.44 1.3 0 -0 0 -96.96 12.93 -7.83 8.37 -14.15 -1.04 -0 0 -6.45 20.77 20.96 7.72 -7.12 0 -0 -8.04 52.08 -1.41 0 -0 0 81.87 24.3 41.25 -30.94 41.69 -12.03 0 -0 -18.3 -26.63 15.87 -7.81 7.12 -0 -0 0.72 -12.34 0.55
10.51 17.39 17.8 -1.46 -7.38 -4.1 0 0 0 -17.09 -11.72 -23.64 2.54 9.9 28.67 -0.39 11.98 -9.37 0.3 -3.49 -9.66 0 0 0 23.55 -1.38 24.78 -0.52 -4.61 12.81 -0.41 1.41 -11.72 -1.25 7.09 -19.98 3.14 0.85 5.36 0.12 1.28 2.47 -1.7 0.66 -0.4 1.18 2.2 -10.06 -4.71 2.86 -1.9 -1.57 1.32 1.21 -0 0 0 -96.45 11.92 -7.28 8.2 -13.88 -1 -0 0 -6.58 21.78 20.29 7.89 -7.12 0 -0 -6.81 51.56 -1.1 -0 0 0 81.93 22.38 40.82 -32.2 42.71 -12.88 0 -0 -17.98 -26.53 17.06 -8.33 7.12 -0 -0 0.9 -11.05 0.71
10.58 17.32 18.57 -1.58 -5.73 -4.33 0 0 0 -18.14 -11.18 -24.01 3.4 11.31 33.34 -0.23 9.09 -6.99 0.03 -1.03 -2.84 0 0 0 23.45 -2.04 21.47 -1.72 -8.27 23.53 -0.27 1.35 -9.36 -2.33 9.52 -27.42 3.17 0.76 5.1 0.21 1.16 2.47 -1.62 0.6 -0.26 0.17 1.68 -10.06 -3.95 2.26 -2.08 -1.18 1.05 1.1 -0 0 0 -95.58 9.87 -5.51 8.2 -13.87 -1 -0 0 -6.07 22.33 19.68 7.88 -7.12 0 -0 -6.08 51.02 -0.9 -0 0 0 82.24 20.31 39.37 -32.24 42.74 -12.91 0 -0 -17.96 -26.99 17.01 -8.47 7.12 -0 -0 0.59 -11.04 0.46
10.68 17.4 19.33 -0.65 -5.47 -4.48 0 0 0 -20.36 -10.13 -22.45 3.8 11.89 35.35 -0.03 6.87 -9.1 0.01 -0.62 -1.69 0 0 0 21.8 -0.56 16.9 -3.66 -11.7 34.66 0 -0.95 0.44 -2.84 10.44 -30.41 2.52 0.89 5.42 -0.04 1.31 1.89 -1.53 0.66 -1.04 -0.55 1.3 -9.72 -3.39 1.84 -1.56 -0.9 0.85 1.18 -0 0 0 -94.96 8.84 -1.31 9.03 -15.21 -1.21 -0 0 -9.02 21.34 20.62 7.83 -7.12 0 -0 -7.36 51.83 -1.24 -0 0 0 82.87 16.76 38.84 -31.4 42.06 -12.34 0 -0 -17.47 -27.03 18.39 -9.14 7.12 -0 -0 0.71 -9.51 0.58
10.78 17.49 20.04 0.77 -6.15 -4.67 0 0 0 -23 -8.58 -19.59 3.68 11.72 34.76 0.12 6.26 -11.63 0 0.31 0.86 0 0 0 20.25 3.16 11.51 -6.46 -14.86 46.8 -0.34 -5.27 10.43 -3.48 11.44 -33.78 1.44 1.15 5.07 -0.38 1.59 2.24 -1.29 0.8 -0.48 -0.7 1.45 -10.29 -3.52 2.07 -1.48 -0.9 0.95 1.31 -0 0 0 -94.34 6.89 4.54 11.1 -18.44 -1.81 -0 0 -13.99 21.62 21.51 8.27 -7.12 0 -0 -7.37 52.81 -1.42 -0 0 0 83.38 15.66 39.64 -28.87 39.91 -10.68 0 -0 -17.61 -26.9 18.85 -9.31 7.12 -0 -0 0.84 -9.03 0.7
10.86 17.57 20.71 2.71 -6.17 -5.26 0 0 0 -26.22 -7.09 -15.96 3.4 11.31 33.34 0.25 5.75 -13.36 0 -0.34 -0.95 0 0 0 17.95 5.26 5.48 -9.54 -17.14 57.92 -0.39 -11.13 12.69 -3.61 11.63 -34.42 -0.4 1.03 5.66 -0.82 1.34 2.22 -0.7 0.67 -0.88 -0.65 1.74 -9.65 -3.95 2.43 -1.89 -1.03 1.14 1.08 -0 -0 0 -93.63 6.01 10.12 13.32 -21.75 -2.57 -0 0 -18.28 23.19 18.06 7.57 -7.12 0 -0 -4.81 49.45 -0.53 -0 -0 0 84.1 14 40.71 -25.59 36.8 -8.64 0 -0 -16.12 -25.92 19.53 -9.23 7.12 -0 -0 1.55 -8.46 1.3
10.91 17.67 21.31 1.51 -6.2 -5.39 0 0 0 -25.5 -6.2 -13.25 3.26 11.11 32.66 0.44 4.82 -15.22 0 0.03 0.07 0 0 0 19.68 6.78 -1.08 -12.07 -18.42 66.22 0.45 -16.96 6.82 -2.97 10.65 -31.1 0.52 0.82 6.2 -0.29 1.11 2.64 -0.67 0.56 -0.75 -0.37 2.08 -9.95 -4.55 2.87 -2.02 -1.25 1.34 1.11 0 0 0 -92.87 4.14 14.93 16.32 -25.96 -3.79 -0 0 -21.3 23.3 19.67 8.25 -7.12 0 -0 -5.11 51.18 -0.78 0 0 0 85.2 13.2 39.39 -21.77 32.72 -6.46 0 -0 -13.07 -23.21 18.65 -7.81 7.12 -0 -0 3.21 -9.84 2.62
11 17.75 21.96 2.58 -4.21 -5.23 0 0 0 -27.9 -5.48 -9.05 2.62 10.05 29.15 0.49 3.85 -15.25 0 0.14 0.38 0 0 0 17.72 7.28 -7.18 -13.65 -19.01 71.14 1.22 -19.33 -3.86 -0.93 6.14 -17.19 -0.51 0.03 6.23 -0.33 0 2.26 -0.05 -0 -1.17 0.19 2.16 -9.5 -5.82 2.96 -1.36 -1.76 1.35 1.29 -0 0 0 -92.17 3.35 18.73 19.35 -29.85 -5.2 -0 0 -22.81 22.56 21.16 8.53 -7.12 0 -0 -6.3 52.61 -1.18 -0 0 0 85.57 10.28 38.35 -18.58 28.89 -4.83 0 -0 -10.95 -22.82 17.99 -7.4 7.12 -0 -0 3.42 -10.6 2.73
11.01 17.79 22.58 2.3 -3.04 -5.51 0 0 0 -28.12 -4.47 -6.27 2.52 9.87 28.55 0.64 2.98 -16.44 0.05 -1.5 -4.13 0 0 0 18.34 8.96 -12.12 -14.02 -19.12 72.27 1.31 -19.78 -8.12 -0.9 6.05 -16.92 -0.92 -0.04 6.29 0.1 -0.11 2.66 0.62 -0.06 -0.78 -0.19 1.94 -8.75 -5.68 2.67 -1.74 -1.66 1.23 1.02 0 0 0 -90.98 1.16 24.32 22.31 -33.33 -6.76 -0 0 -25.9 23.87 20.01 8.61 -7.12 0 -0 -4.64 51.64 -0.76 0 0 0 85.82 7.56 35.6 -16.23 25.83 -3.74 0 -0 -10.7 -23.24 16.81 -7.08 7.12 -0 -0 3.05 -11.8 2.36
11.05 17.76 23.2 2.66 -0.82 -5.36 0 0 0 -29.16 -4.42 -3.98 2.54 9.92 28.72 0.82 1.79 -17.82 0.1 -2 -5.52 0 0 0 17.45 9.87 -16.57 -13.29 -18.88 70.01 0.93 -17.28 -10.94 -1.28 7.16 -20.18 -1.63 -0.55 6.53 0.25 -0.83 2.58 1.24 -0.42 -0.98 -0.37 1.69 -9.22 -5.51 2.41 -0.78 -1.58 1.08 1.4 0 0 0 -90.16 -0.39 27.6 26.25 -37.45 -9.04 -0 0 -25.83 23.13 17.14 7.17 -7.12 0 -0 -4.65 48.46 -0.4 0 0 0 86.54 4.42 31.33 -13.66 22.25 -2.7 0 -0 -9.9 -23.62 17.01 -7.29 7.12 -0 -0 2.81 -11.53 2.2
11.09 17.76 23.91 3.52 0.72 -5.76 0 0 0 -30.62 -3.08 0.34 2.13 9.14 26.24 0.91 0.86 -18.31 0.13 -2.3 -6.34 0 0 0 15.9 11.27 -18.49 -11.35 -18.1 63.93 0.31 -12.97 -13.74 -0.95 6.2 -17.37 -2.73 -0.76 6.16 0.25 -1.15 2.97 1.86 -0.6 -0.34 -1.45 1.25 -9.63 -4.24 1.95 -0.26 -1.01 0.86 1.59 0 -0 0 -89.33 -1.98 30.44 30.91 -41.66 -12.01 -0 0 -27.65 23.87 19.4 8.36 -7.12 0 -0 -4.47 50.98 -0.66 0 -0 0 87.33 1.24 24.66 -11.72 19.38 -2.01 0 -0 -6.29 -22.4 15.54 -6.3 7.12 -0 -0 3.52 -13.27 2.63
11.09 17.73 24.56 3.93 1.8 -5.54 0 0 0 -31.14 -2.45 2.91 1.96 8.79 25.14 1.04 -0.34 -19.14 0.01 -0.75 -2.07 0 0 0 15.15 13 -20.19 -8.7 -16.61 55.05 -0.03 -10.58 -15.47 -0.92 6.11 -17.1 -3.93 -0.77 6.49 0.4 -1.25 2.92 2.7 -0.66 -0.53 -1.65 1.13 -9.7 -3.62 1.79 -0.23 -0.78 0.8 1.59 -0 0 0 -88.59 -3.1 32.7 35.7 -45.3 -15.31 -0 0 -28.35 24.42 17.22 7.66 -7.12 0 -0 -3.43 48.75 -0.32 -0 0 0 88.12 -2.09 18.91 -9.7 16.27 -1.39 0 -0 -3.25 -22.97 16.04 -6.68 7.12 -0 -0 3.18 -12.66 2.41
11.1 17.73 25.13 2.01 3.73 -4.29 0 0 0 -28.91 -2.96 3.63 2.05 8.98 25.73 1.14 -1.64 -19.67 0.07 -1.77 -4.86 0 0 0 16.56 13.61 -21.46 -5.29 -13.7 42.05 0.11 -11.07 -13.99 -1.02 6.42 -17.99 -1.99 -1.27 5.54 0.76 -1.78 3.56 1.98 -0.93 0.64 -1.06 1.21 -11.34 -3.47 1.85 -0.75 -0.83 0.82 1.72 -0 0 0 -87.47 -5.98 34.07 40.75 -48.51 -19 -0 0 -27.97 25.37 14.89 6.95 -7.12 0 -0 -2.08 46.37 -0.07 -0 0 0 89.79 -2.99 10.39 -7.81 13.24 -0.91 0 0 2.88 -22.82 15.88 -6.57 7.12 -0 -0 3.26 -12.84 2.46
11.08 17.77 25.83 0.58 4.34 -4.23 0 0 0 -26.78 -0.79 7.03 1.58 7.93 22.51 1.12 -2.68 -19.27 0.04 -1.31 -3.61 0 0 0 18.25 15 -20.55 -2.72 -10.24 29.74 0.13 -12.2 -15.56 -1.11 6.71 -18.85 -1.19 -1.35 6.49 1.49 -1.85 2.6 2.33 -0.94 -0.86 -1.54 1.07 -10.33 -3.11 1.69 -0.55 -0.64 0.76 1.59 -0 0 0 -87.43 -4.63 35.02 45.93 -51.21 -22.96 -0 0 -28.49 25.06 14.43 6.65 -7.12 0 -0 -2.3 45.82 -0.05 -0 0 0 90.56 -7.93 2.51 -6.81 11.61 -0.69 0 0 9.16 -20.99 14.43 -5.46 7.12 -0 -0 4.42 -14.61 3.17
11.1 17.79 26.55 1.17 5.84 -3.49 0 0 0 -26.95 0.65 10.81 1.03 6.45 18.11 0.93 -3.25 -17.38 0.06 -1.52 -4.19 0 0 0 17.68 13.22 -21.98 -1.47 -7.67 21.7 -0.11 -10.98 -17.19 -1.25 7.09 -19.99 -1.77 -1.46 7.05 1.41 -2.03 1.69 2.62 -1 -2.09 -1.65 0.76 -11.11 -2.94 1.34 0.55 -0.58 0.57 2.09 0 0 0 -87.08 -3.69 36.41 49.52 -52.8 -25.79 -0 0 -28.65 24.77 14.29 6.5 -7.12 0 -0 -2.55 45.64 -0.04 0 0 0 91.82 -12.35 -4.67 -5.81 9.94 -0.51 0 0 15.27 -23.24 16.15 -6.81 7.12 -0 -0 3 -12.5 2.28
11.12 17.71 27.26 2.76 7.47 -2.8 0 0 0 -28.23 1.03 14.04 0.79 5.66 15.8 0.77 -3.57 -15.73 0.21 -2.92 -8.07 0 0 0 17.19 8.94 -24.52 -1.21 -6.99 19.68 -0.42 -5.92 -15.83 -1.16 6.83 -19.2 -3.07 -1.74 5.05 1 -2.44 2.76 2.86 -1.26 0.19 -1.55 0.58 -12.22 -3.38 1.11 -0.65 -0.75 0.45 1.9 -0 -0 0 -87.32 -5.26 36.85 51 -53.39 -26.98 -0 0 -29.32 27.11 11.97 6.06 -7.12 0 -0 -0.09 43.37 0 -0 -0 0 93.02 -13.26 -6.81 -6.54 11.16 -0.64 0 0 12.56 -18.72 7.12 -2.4 7.12 -0 -0 5.9 -22.48 3.21
11.06 17.64 28.03 0.32 6.83 -3.49 0 0 0 -24.81 2.23 15.49 1.06 6.55 18.4 0.78 -4.31 -15.76 0.61 -4.99 -13.87 0 0 0 20.4 12.55 -21.78 -1.16 -6.83 19.22 -0.23 -7.24 -14.47 -0.4 4.08 -11.29 -1.12 -1.58 6.38 1.84 -2.13 1.78 2.68 -1.06 -1.63 -1.53 0.5 -11.28 -3.69 1 -0.13 -0.86 0.38 1.9 -0 0 0 -87.92 -1.92 36.32 51.63 -53.63 -27.48 -0 0 -28.5 27.38 10.73 5.51 -7.12 0 -0 0.28 42.03 -0.02 -0 0 0 93.8 -16.69 -18.45 -5.29 9.07 -0.42 0 0 23.69 -21.43 12.38 -4.81 7.12 -0 -0 4.03 -16.73 2.71
11.03 17.54 28.85 0.66 6.91 -3.83 0 0 0 -24.63 2.88 16.82 1.5 7.72 21.88 0.68 -4.5 -14.71 1.22 -6.99 -19.7 0 0 0 20.71 14.27 -21.12 -1.82 -8.47 24.16 0.25 -11.56 -12.23 -0.36 3.84 -10.63 -1.56 -1.67 5.54 1.82 -2.29 2.1 2.89 -1.15 -0.81 -1.15 0.6 -11.78 -4.34 1.11 -0.09 -1.13 0.42 2.02 -0 0 0 -88.45 -0.35 35.25 49.81 -52.92 -26.03 -0 0 -27.43 26.7 12.6 6.26 -7.12 0 -0 -0.53 44.03 0.01 -0 0 0 94.28 -17.44 -19.28 -5.82 9.96 -0.51 0 0 20.54 -18.85 7.95 -2.7 7.12 -0 -0 5.8 -21.6 3.27
