HIERARCHY
ROOT Hips
{
	OFFSET 0.00000 0.00000 0.00000
	CHANNELS 6 Xposition Yposition Zposition Zrotation Yrotation Xrotation 
	JOINT LHipJoint
	{
		OFFSET 0 0 0
		CHANNELS 3 Zrotation Yrotation Xrotation
		JOINT LeftUpLeg
		{
			OFFSET 1.57314 -1.85774 0.63783
			CHANNELS 3 Zrotation Yrotation Xrotation
			JOINT LeftLeg
			{
				OFFSET 2.57982 -7.08799 0.00000
				CHANNELS 3 Zrotation Yrotation Xrotation
				JOINT LeftFoot
				{
					OFFSET 2.63993 -7.25315 0.00000
					CHANNELS 3 Zrotation Yrotation Xrotation
					JOINT LeftToeBase
					{
						OFFSET 0.16864 -0.46332 2.12791
						CHANNELS 3 Zrotation Yrotation Xrotation
						End Site
						{
							OFFSET 0.00000 -0.00000 1.09718
						}
					}
				}
			}
		}
	}
	JOINT RHipJoint
	{
		OFFSET 0 0 0
		CHANNELS 3 Zrotation Yrotation Xrotation
		JOINT RightUpLeg
		{
			OFFSET -1.56006 -1.85774 0.63784
			CHANNELS 3 Zrotation Yrotation Xrotation
			JOINT RightLeg
			{
				OFFSET -2.54246 -6.98536 0.00000
				CHANNELS 3 Zrotation Yrotation Xrotation
				JOINT RightFoot
				{
					OFFSET -2.65791 -7.30256 0.00000
					CHANNELS 3 Zrotation Yrotation Xrotation
					JOINT RightToeBase
					{
						OFFSET -0.18435 -0.50650 2.16316
						CHANNELS 3 Zrotation Yrotation Xrotation
						End Site
						{
							OFFSET -0.00000 -0.00000 1.11780
						}
					}
				}
			}
		}
	}
	JOINT LowerBack
	{
		OFFSET 0 0 0
		CHANNELS 3 Zrotation Yrotation Xrotation
		JOINT Spine
		{
			OFFSET -0.00136 1.92812 -0.29638
			CHANNELS 3 Zrotation Yrotation Xrotation
			JOINT Spine1
			{
				OFFSET -0.00528 1.96223 -0.02928
				CHANNELS 3 Zrotation Yrotation Xrotation
				JOINT Neck
				{
					OFFSET 0 0 0
					CHANNELS 3 Zrotation Yrotation Xrotation
					JOINT Neck1
					{
						OFFSET -0.01015 1.75586 0.07797
						CHANNELS 3 Zrotation Yrotation Xrotation
						JOINT Head
						{
							OFFSET 0.05540 1.72452 0.04558
							CHANNELS 3 Zrotation Yrotation Xrotation
							End Site
							{
								OFFSET 0.02170 1.79958 0.00864
							}
						}
					}
				}
				JOINT LeftShoulder
				{
					OFFSET 0 0 0
					CHANNELS 3 Zrotation Yrotation Xrotation
					JOINT LeftArm
					{
						OFFSET 3.16292 1.29277 -0.65728
						CHANNELS 3 Zrotation Yrotation Xrotation
						JOINT LeftForeArm
						{
							OFFSET 5.52302 -0.00000 -0.00000
							CHANNELS 3 Zrotation Yrotation Xrotation
							JOINT LeftHand
							{
								OFFSET 3.58675 -0.00000 -0.00000
								CHANNELS 3 Zrotation Yrotation Xrotation
								JOINT LeftFingerBase
								{
									OFFSET 0 0 0
									CHANNELS 3 Zrotation Yrotation Xrotation
									JOINT LeftHandIndex1
									{
										OFFSET 0.53641 -0.00000 -0.00000
										CHANNELS 3 Zrotation Yrotation Xrotation
										End Site
										{
											OFFSET 0.43247 -0.00000 -0.00000
										}
									}
								}
								JOINT LThumb
								{
									OFFSET 0 0 0
									CHANNELS 3 Zrotation Yrotation Xrotation
									End Site
									{
										OFFSET 0.43907 -0.00000 0.43907
									}
								}
							}
						}
					}
				}
				JOINT RightShoulder
				{
					OFFSET 0 0 0
					CHANNELS 3 Zrotation Yrotation Xrotation
					JOINT RightArm
					{
						OFFSET -3.08296 1.43376 -0.52927
						CHANNELS 3 Zrotation Yrotation Xrotation
						JOINT RightForeArm
						{
							OFFSET -5.84780 -0.00000 0.00000
							CHANNELS 3 Zrotation Yrotation Xrotation
							JOINT RightHand
							{
								OFFSET -3.62717 -0.00000 -0.00000
								CHANNELS 3 Zrotation Yrotation Xrotation
								JOINT RightFingerBase
								{
									OFFSET 0 0 0
									CHANNELS 3 Zrotation Yrotation Xrotation
									JOINT RightHandIndex1
									{
										OFFSET -0.65052 -0.00000 -0.00000
										CHANNELS 3 Zrotation Yrotation Xrotation
										End Site
										{
											OFFSET -0.52446 -0.00000 -0.00000
										}
									}
								}
								JOINT RThumb
								{
									OFFSET 0 0 0
									CHANNELS 3 Zrotation Yrotation Xrotation
									End Site
									{
										OFFSET -0.53247 -0.00000 0.53247
									}
								}
							}
						}
					}
				}
			}
		}
	}
}
MOTION
Frames: 37
Frame Time: 0.0333332
-0.3 17.41 -26.75 -2.95 2.05 1.48 0 0 0 -20.98 -11.33 -21.13 5.11 13.5 41.27 0.43 -7.34 -11.97 0.04 -1.33 -3.65 0 0 0 21.08 -3.31 -5.42 -21.88 -19.91 95.52 -1.26 -16.25 21.63 -1.46 -7.63 21.61 -0.14 -0.57 17.62 -0.37 -0.81 1.62 -0.12 -0.39 -8.14 -1.95 0 -1.15 1.63 0.12 -11.5 0.87 0.08 -3.51 0 0 0 -83.26 7.58 41.94 124.5 -54.99 -89.37 -0 0 -29.18 39.54 9.01 7.37 -7.12 0 -0 11.26 41.34 -1.03 0 0 0 78.89 -12.82 43.02 -59.64 56.21 -34.04 0 0 7.96 -44.02 25.8 -22.81 7.12 -0 -0 -8.29 3.61 -8.89
-0.32 17.23 -24.86 -0.11 1.83 2.65 0 0 0 -25.08 -9.52 -15.54 5.25 13.66 41.88 0.91 -7.55 -17.05 0.22 -3.02 -8.34 0 0 0 15.16 -0.44 -20.28 -25.89 -19.15 107.47 -0.55 -9.73 13.89 -0.1 -2.07 5.69 -3.2 -0.6 17.73 -1.11 -1.5 2.04 0.98 -0.64 -7.69 -2.3 1.15 -1.27 2.25 1.76 -13.96 1.1 0.89 -4.42 0 0 0 -82.49 -5.02 44.37 125.02 -54.82 -89.8 -0 0 -25.16 38.38 9.54 7.48 -7.12 0 -0 10.25 41.85 -0.81 0 0 0 81.65 -14.85 36.09 -53.63 54.36 -29.1 0 0 6.87 -42.15 25.65 -21.39 7.12 -0 -0 -7.27 2.71 -7.66
-0.3 17.36 -22.82 0.8 2.15 3.47 0 0 0 -26.83 -5.15 -7.33 4.28 12.53 37.62 0.81 -7.77 -16.11 0.68 -5.29 -14.74 0 0 0 13.2 2.84 -32.11 -26.17 -19.06 108.33 -0.63 -8.14 14.36 -0.68 -5.26 14.64 -3.57 -1.69 17.14 -1.2 -2.98 2.08 1.42 -1.35 -7.26 -1.5 2 -2.28 0.75 2.76 -13.11 0.43 1.41 -3.9 0 -0 0 -81.6 -11.46 44.6 127.32 -54.02 -91.67 -0 0 -19.33 38.6 7.95 6.3 -7.12 0 -0 10.31 39.91 -1.31 0 -0 0 82.54 -17.99 32.82 -52.45 53.94 -28.14 0 0 6.68 -41.96 25.01 -20.81 7.12 -0 -0 -7.31 1.9 -7.61
-0.34 17.65 -20.7 2.37 3.92 4.5 0 0 0 -27.5 -1.49 1.42 2.96 10.63 31.06 0.05 -8.52 -6.94 1.39 -7.46 -21.1 0 0 0 11.48 4.77 -40.68 -23.73 -19.66 100.97 -0.32 -4.76 10.03 -0.07 -1.68 4.64 -5.14 -3.3 17.37 -0.68 -5.41 0.98 3.46 -2.42 -8.26 -1.11 2.73 -2.18 -0.89 3.57 -11.96 -0.19 1.85 -3.47 -0 -0 0 -80.46 -12.6 44.55 131.31 -52.45 -94.87 -0 0 -19.53 39.56 3.31 2.73 -7.12 0 -0 10.63 34.12 -2.88 -0 -0 0 80.99 -23 33.19 -55.67 55.04 -30.77 0 0 5.06 -42.64 25.76 -21.81 7.12 -0 -0 -7.52 3.03 -7.97
-0.36 18.03 -18.45 2.22 4.02 5.53 0 0 0 -25.37 2.22 9.46 1.54 7.82 22.18 0.17 -3.77 10.02 1.07 -6.58 -18.48 0 0 0 11.96 8.82 -44.8 -18.92 -19.97 86.83 -0.15 -4.48 7.01 -0.02 -0.82 2.24 -4.94 -4.3 15.61 0.08 -6.56 0.57 4.27 -3 -7.54 -0.7 3.25 -2.64 -1.7 4.2 -11.27 -0.51 2.16 -3.12 -0 0 0 -78.39 -13.04 45.03 135.29 -50.62 -97.99 -0 0 -24.17 37.97 6.39 4.97 -7.12 0 -0 9.62 37.91 -1.7 -0 0 0 79.98 -27.14 33.03 -59.22 56.1 -33.7 0 0 3.28 -44.53 24.34 -22.07 7.12 -0 -0 -8.94 2.07 -9.37
-0.35 18.35 -16.15 2.13 2.16 6.03 0 0 0 -24.42 4.85 19.66 0.3 3.54 9.78 2.57 14.08 29.1 0.02 -0.85 -2.33 0 0 0 12.01 12.93 -44.87 -12.77 -18.7 68.4 -0.02 -3.95 3.63 -0 0.16 -0.43 -4.89 -4.49 14.27 0.9 -6.69 0.03 5.03 -3.06 -7.28 -1.07 3.53 -3.56 -1.91 4.6 -9.23 -0.46 2.37 -2.27 0 -0 0 -76.87 -11.04 45.96 138.08 -49.17 -100.12 -0 0 -26.59 38.16 4.96 3.88 -7.12 0 -0 9.64 36.13 -2.13 0 -0 0 78.57 -31.32 32.26 -61.71 56.75 -35.77 0 0 2.15 -46.2 24.86 -23.68 7.12 -0 -0 -9.76 3.39 -10.47
-0.3 18.64 -13.85 3.4 0.83 6.63 0 0 0 -25.29 6.15 29.45 0 0 0 3.49 17.99 34.3 0.54 -4.7 -13.04 0 0 0 10.62 15.35 -41.68 -6.58 -14.97 47.27 -0 -3.54 2.66 -0.04 1.22 -3.37 -5.03 -4.39 13.13 0.57 -6.56 -0.35 4.64 -3 -7.09 0.01 3.4 -3.99 -2.12 4.41 -8.38 -0.68 2.23 -1.89 0 0 0 -75 -8.76 47.85 139.1 -48.6 -100.89 -0 0 -24.45 37 4.61 3.47 -7.12 0 -0 8.64 35.63 -2.01 0 0 0 79.38 -34.43 30.07 -65.27 57.56 -38.76 0 0 2.84 -47.12 24.35 -23.94 7.12 -0 -0 -10.41 3.16 -11.15
-0.27 18.7 -11.64 5.88 0.24 6.56 0 0 0 -30.73 2.88 26.16 1.02 6.43 18.04 2.12 13.7 26.46 0.52 -4.61 -12.8 0 0 0 7.94 18 -36.24 -2.72 -10.22 29.7 0.24 -9.36 0.23 -0.1 2.09 -5.75 -6.29 -4.24 12.79 -0.2 -6.57 -0.05 4.47 -3.01 -6.53 0.28 3.2 -4.51 -2 4.13 -9.16 -0.69 2.08 -2.05 -0 0 0 -74.46 -5.77 49.19 138.74 -48.8 -100.62 -0 0 -21.25 36.21 4.25 3.11 -7.12 0 -0 7.95 35.15 -1.94 -0 0 0 80.91 -34.15 27.75 -67.84 58.06 -40.93 0 0 3.43 -52.2 12.5 -15.59 7.12 -0 -0 -16.37 -10.7 -13.63
-0.25 18.58 -9.46 5.7 -0.84 6.24 0 0 0 -31.59 2.02 19.64 4.58 12.89 38.95 2.8 10.83 30.16 0.19 -2.8 -7.71 0 0 0 9.98 18.98 -31.07 -1.33 -7.3 20.6 0.6 -13.74 -2.82 -0.29 3.44 -9.5 -5.81 -3.99 12.17 0.29 -6.07 0.63 4.55 -2.83 -5.5 -0.83 3.12 -4.49 -1.88 4.03 -10.76 -0.49 2.08 -2.62 0 0 0 -76.55 -1.51 49.51 135.35 -50.6 -98.03 -0 0 -22.71 37.27 4.98 3.78 -7.12 0 -0 8.89 36.11 -1.96 0 0 0 80.22 -30.72 27.88 -67.74 58.04 -40.85 0 0 2.51 -47.54 23.91 -23.89 7.12 -0 -0 -10.76 2.8 -11.47
-0.21 18.28 -7.3 3.38 -1.9 4.7 0 0 0 -28.07 3.65 12.35 10.64 17.75 61.61 3.4 11.08 33.37 0.26 -3.26 -9.01 0 0 0 17.63 13.3 -25.76 -1.12 -6.73 18.93 0.08 -7.75 3.6 -0 0.1 -0.26 -3.12 -3.71 13.28 1.14 -5.3 1.06 3.91 -2.5 -5.91 -2.07 2.87 -4.39 -1.27 3.77 -10.23 -0.09 1.97 -2.5 0 -0 0 -79 3.88 48.46 128.14 -53.72 -92.33 -0 0 -24.44 38.38 9.64 7.55 -7.12 0 -0 10.26 41.98 -0.77 0 -0 0 78.33 -27.05 30.39 -70.47 58.51 -43.17 0 0 2.05 -46.28 24.74 -23.64 7.12 -0 -0 -9.84 3.28 -10.53
-0.26 17.87 -5.22 0.34 -3.69 3 0 0 0 -19.94 7.57 3.01 18.24 19.93 84.85 2.86 9.58 30.52 0.01 -0.51 -1.4 0 0 0 23.9 13.18 -21.88 -2.59 -9.99 28.95 -0.04 -2.26 -5.36 -0.44 -4.27 11.83 -0.24 -2.43 15.43 1.33 -3.16 1.3 2.23 -1.51 -7.17 -0.47 2.21 -2.91 -1.45 2.84 -9.62 -0.42 1.46 -2.52 0 -0 0 -79.29 9.44 48.31 118.42 -56.72 -84.34 -0 0 -25.58 39.02 8.16 6.56 -7.12 0 -0 10.7 40.2 -1.28 0 -0 0 79.48 -21.79 31.22 -77.95 59.44 -49.59 0 0 1.46 -46.58 25.46 -24.43 7.12 -0 -0 -9.82 4.28 -10.68
-0.29 17.42 -3.27 -2.63 -5.15 2.11 0 0 0 -11.45 9.25 -8.21 24.94 19.4 104.59 2.16 1.63 27.37 0.15 -2.53 -6.98 0 0 0 28.87 15.5 -18.1 -4.68 -13.02 39.43 -0.4 -4.73 -14.67 -0.21 -2.96 8.17 2.35 -1.89 17.4 2.01 -1.9 2.35 1.26 -0.96 -7.23 0.44 2.5 -3.55 -2.45 3.14 -10.86 -0.9 1.61 -2.79 -0 0 0 -81.5 14.19 44.23 110.36 -58.37 -77.54 -0 0 -24.55 39.29 8.3 6.73 -7.12 0 -0 10.96 40.41 -1.26 -0 0 0 79.05 -11.81 34.35 -85.52 59.92 -56.12 0 0 2 -47.61 24.47 -24.41 7.12 -0 -0 -10.66 3.52 -11.49
-0.31 17.26 -1.33 -4.38 -3.98 3.01 0 0 0 -6.89 6.08 -21.93 28.55 18.15 115.77 1.43 -4.54 24.62 0 -0.3 -0.83 0 0 0 31.58 11.75 -12.6 -4.84 -13.21 40.15 -0.84 -4.64 -19.57 -0 0.03 -0.09 4.33 -2.08 17.41 2.43 -1.74 2.33 0.55 -0.93 -7.31 0.67 2.51 -2.03 -2.74 3.09 -12.86 -1.1 1.6 -3.76 -0 0 0 -83.7 19.8 40.94 105.03 -59.13 -72.98 -0 0 -28.64 44.28 14.7 13.9 -7.12 0 -0 16.71 49.36 1.84 -0 0 0 78.83 -2.09 37.2 -90.51 60 -60.44 0 0 2.83 -48.95 25.27 -26.11 7.12 -0 -0 -11.18 5.13 -12.37
-0.31 17.32 0.71 -4.73 -2.53 3.31 0 0 0 -6.9 0.73 -33.99 28.95 17.96 117.06 0.68 -6.26 19.06 0.37 -3.89 -10.76 0 0 0 32.64 7.08 -4.72 -4.14 -12.34 36.94 -1.03 -3.58 -20.74 -0.49 4.49 -12.45 5.08 -1.32 17.25 2.47 -0.59 2 -0.09 -0.4 -7.55 1.21 1.42 -3.43 -3.12 1.64 -10.36 -1.23 0.85 -2.66 0 -0 0 -83.6 23.65 42.18 104.84 -59.15 -72.81 -0 0 -35.87 39.97 4.77 3.98 -7.12 0 -0 11.15 36 -2.51 0 -0 0 78.45 2.82 37.58 -100.11 59.61 -68.74 0 0 3.29 -49.49 26.36 -27.47 7.12 -0 -0 -11.18 6.74 -12.64
-0.32 17.6 2.88 -5.95 -6.03 4.16 0 0 0 -6.67 0.15 -41.58 26.55 18.94 109.49 0.26 -6.67 14.27 0.32 -3.65 -10.08 0 0 0 33.2 5.63 5.6 -2.81 -10.38 30.22 -0.34 -1.54 -11.69 -0.81 5.75 -16.06 5.86 1.22 16.52 2.01 2.87 0.95 -1.81 1.2 -8.08 0.79 0.27 -3.28 -1.4 0.27 -7.31 -0.57 0.14 -1.71 0 0 0 -81.8 28.13 43.73 108.14 -58.72 -75.64 -0 0 -36.34 42.55 11.14 10.05 -7.12 0 -0 14.34 44.46 -0.2 0 0 0 78.7 3.21 38.24 -110.87 58.29 -77.97 0 0 1.84 -48.23 25.12 -25.43 7.12 -0 -0 -10.83 4.61 -11.87
-0.25 17.92 5.15 -5.4 -4.04 4.45 0 0 0 -8.3 -7.18 -44.65 22.07 19.9 96.07 0.07 -5.7 9.94 0.37 -3.9 -10.8 0 0 0 30.85 0.68 14.46 -1.41 -7.51 21.25 -0.07 -2.98 4.77 -0.06 1.55 -4.26 6.8 1.29 14.49 1.27 2.9 0.87 -3.07 1.22 -6.94 -0.6 -0.31 -5.51 0.41 -0.37 -5.1 0.22 -0.18 -0.65 -0 -0 0 -82.25 31.08 41.73 111.44 -58.19 -78.46 -0 0 -31.78 42.41 11.05 9.93 -7.12 0 -0 14.19 44.32 -0.24 -0 -0 0 78.04 3.87 40.32 -117.33 56.98 -83.43 0 0 0.53 -46.51 24.71 -23.78 7.12 -0 -0 -9.98 3.34 -10.7
-0.26 18.24 7.55 -5 -2.16 3.73 0 0 0 -9 -12.33 -43.43 15.62 19.53 77.08 -0.1 -7.41 7.93 0.5 -4.53 -12.57 0 0 0 29.41 -2.07 29.14 -0.05 -1.43 3.95 -1.95 -16.52 25.97 -0.58 -4.87 13.53 6.99 1.23 12.61 0.68 2.65 1.05 -3.68 1.14 -5.68 -1.37 -0.82 -6.02 1.22 -1 -4.01 0.58 -0.48 -0.22 -0 -0 0 -83.32 34.26 38.87 114.53 -57.6 -81.07 -0 0 -29.28 40.91 8.39 7.21 -7.12 0 -0 12.43 40.71 -1.34 -0 -0 0 77.09 2.56 43.06 -120.58 56.15 -86.14 0 0 1.06 -49.66 27.89 -28.84 7.12 -0 -0 -10.84 8.67 -12.55
-0.28 18.48 9.87 -5.17 -0.9 4.78 0 0 0 -8.4 -15.94 -41.38 8.79 16.67 55.37 -0.05 -7.21 9.15 0.59 -4.92 -13.69 0 0 0 30.37 -0.94 34.5 -0.01 -0.63 1.73 -4.25 -14.9 37.53 -2.06 -8.99 25.77 7.23 1.37 11.01 0.09 2.74 0.18 -4.4 1.15 -5.66 -0.96 -1.09 -5.81 1.3 -1.38 -3.07 0.53 -0.68 0.03 -0 0 0 -83.52 36.43 37.11 118.38 -56.73 -84.31 -0 0 -30.3 40.54 8.38 7.11 -7.12 0 -0 12.09 40.65 -1.32 -0 0 0 76.85 0.3 45.97 -122.09 55.73 -87.39 0 0 1.52 -47.57 26.72 -26.19 7.12 -0 -0 -10.03 6.25 -11.23
-0.34 18.5 12.05 -6.93 -3.06 4.71 0 0 0 -6.56 -14.93 -36.39 3.77 11.84 35.17 0.15 -3.61 9.49 0.58 -4.87 -13.54 0 0 0 35.35 4.68 30.03 -1.68 -8.17 23.24 -2.76 -9.84 29.97 -1.49 -7.71 21.83 7.37 2.26 12.06 0.41 4.05 0.17 -4.4 1.77 -6.11 -1.03 -1.04 -6.73 1.12 -1.3 -3.72 0.48 -0.63 -0.02 0 0 0 -84.65 34.53 35.69 120.59 -56.15 -86.15 -0 0 -31.75 46.41 12.6 12.9 -7.12 0 -0 18.46 47.06 0.97 0 0 0 76.79 -1.49 48.09 -119.88 56.34 -85.56 0 0 2.31 -48.38 26.23 -26.45 7.12 -0 -0 -10.61 6.04 -11.86
-0.38 18.33 14.24 -6.38 1.27 3.94 0 0 0 -9.41 -15.74 -31.42 1.8 8.44 24.06 0.15 -1.39 8.04 1.21 -6.98 -19.67 0 0 0 35.44 0.89 23.35 -4.94 -13.32 40.58 -2.58 -10.97 28.93 -0.9 -6.05 16.94 6.77 0.73 11.15 0.31 1.82 1.15 -3.76 0.77 -4.84 -1.15 -0.88 -5.58 1.42 -1.06 -6.85 0.62 -0.51 -1.17 0 0 0 -85.49 29.65 35.14 120.56 -56.16 -86.13 -0 0 -31.39 42.54 10.45 9.45 -7.12 0 -0 14.22 43.57 -0.51 0 0 0 77.16 -3.14 48.8 -113.11 57.88 -79.87 0 0 0.84 -47.72 24.24 -24.3 7.12 -0 -0 -10.78 3.29 -11.58
-0.4 18.01 16.39 -4.48 0.69 2.66 0 0 0 -15.16 -9.92 -27.34 1.49 7.71 21.85 0.13 -3.97 9.55 0.68 -5.26 -14.65 0 0 0 31.1 -0.33 15.59 -10.42 -17.64 60.9 -2.51 -14.12 28.79 -1.34 -7.32 20.67 4.08 0.8 12.71 -0.42 1.6 1.17 -3.03 0.68 -5.77 -0.84 -0.57 -4.57 1.69 -0.65 -7.03 0.66 -0.32 -1.4 -0 0 0 -84.51 24.45 36.79 121.1 -56.01 -86.58 -0 0 -32.46 41.74 11.21 9.84 -7.12 0 -0 13.57 44.42 -0.2 -0 0 0 77.97 -6.42 47.75 -100.76 59.56 -69.3 0 -0 -0.05 -47.46 25.58 -25.2 7.12 -0 -0 -10.28 4.81 -11.28
-0.41 17.64 18.53 -3.38 2.63 1.27 0 0 0 -18.41 -9.16 -24.82 3.3 11.16 32.83 -0.26 -9.96 -1.04 0 0.25 0.69 0 0 0 26.13 -4.23 6.23 -16.45 -19.7 79.58 -1.32 -19.26 22.99 -1.25 -7.08 19.94 2.37 -0.19 13.77 -0.6 0.06 1.6 -1.99 -0.03 -6.03 -1.4 -0.33 -5.22 2.72 -0.29 -5.6 1.07 -0.13 -0.85 0 0 0 -83.6 16.52 39.66 123.59 -55.27 -88.63 -0 0 -34.6 38.78 9.33 7.42 -7.12 0 -0 10.6 41.64 -0.89 0 0 0 78.9 -8.93 45.72 -86.86 59.96 -57.28 0 0 1.07 -48.98 25.29 -26.16 7.12 -0 -0 -11.2 5.17 -12.39
-0.43 17.41 20.46 1.83 1.48 0.88 0 0 0 -24.97 -9.08 -19.88 4.61 12.93 39.11 0.31 -8.99 -10.94 0.1 -2.07 -5.69 0 0 0 16.79 -2.26 -5.61 -22.29 -19.87 96.71 -1.29 -19.05 22.77 -1.77 -8.36 23.83 -3.8 0.52 15.95 -2.03 -0.11 2.12 0.02 0.02 -6.67 -2.38 -0.66 -4.66 4.25 -0.57 -8.29 1.75 -0.28 -1.79 0 -0 0 -82.11 4.49 43.09 125.33 -54.72 -90.05 -0 0 -34.26 41.26 11.14 9.62 -7.12 0 -0 13.11 44.26 -0.24 0 -0 0 81.57 -12.45 40.16 -77.69 59.42 -49.36 0 0 4.49 -49.79 25.37 -26.88 7.12 -0 -0 -11.62 5.66 -12.97
-0.4 17.38 22.37 0.73 0.41 1.98 0 0 0 -24.62 -7.38 -13.85 4.65 12.98 39.28 0.67 -8.7 -14.89 0.3 -3.54 -9.78 0 0 0 16.84 2.11 -19.07 -25.1 -19.37 105.05 -1.18 -16.38 21.1 -2.07 -9.01 25.82 -2.42 0.15 15.67 -1.84 -0.34 2.07 -0.51 -0.13 -6.57 -2.28 -0.25 -3.74 3.69 -0.01 -10.47 1.58 -0.02 -2.69 -0 -0 0 -81.16 -6.69 45.17 125.67 -54.6 -90.33 -0 0 -30.88 40.32 9.28 7.8 -7.12 0 -0 12 41.77 -0.97 -0 -0 0 83.27 -16.62 36.3 -73.51 58.95 -45.77 0 0 2.79 -51.59 24.65 -27.75 7.12 -0 -0 -12.81 5.67 -14.36
-0.39 17.6 24.36 2.12 -0.27 2.76 0 0 0 -27.15 -4.86 -5.17 3.69 11.74 34.81 0.43 -7.86 -12.12 1.11 -6.7 -18.84 0 0 0 14.39 6.29 -29.89 -24.96 -19.4 104.63 -0.72 -12.2 16.25 -0.74 -5.5 15.33 -3.68 -0.81 15.5 -2.09 -1.85 1.76 0.25 -0.83 -6.77 -2.06 0.69 -5.55 3.02 1.17 -8.54 1.3 0.6 -1.77 -0 0 0 -81.01 -12.38 43.62 129.82 -53.07 -93.68 -0 0 -27.86 37.9 8.81 6.8 -7.12 0 -0 9.76 40.9 -1 -0 0 0 82.85 -20.04 36.84 -75.45 59.19 -47.44 0 -0 -2.5 -52.15 24.55 -28.13 7.12 -0 -0 -13.14 5.84 -14.79
-0.41 18 26.45 2.65 1.56 3.27 0 0 0 -27.59 -3.04 4.29 2.4 9.65 27.87 -0.07 -5.96 -1.9 1.73 -8.27 -23.54 0 0 0 13.5 7.47 -36.78 -21.98 -19.91 95.78 -0.51 -9.59 13.46 -0.77 -5.61 15.66 -4.5 -2.59 15.31 -1.36 -4.3 0.99 2 -1.96 -7.3 -1.61 1.55 -4.79 1.23 2.18 -7.79 0.65 1.11 -1.65 0 0 0 -81.57 -14.27 43.03 134.91 -50.81 -97.69 -0 0 -25.23 39.34 6.77 5.52 -7.12 0 -0 10.84 38.5 -1.76 0 0 0 80.54 -24.25 38.4 -77.97 59.45 -49.6 0 -0 -2.46 -52.62 25.12 -29.05 7.12 -0 -0 -13.24 6.81 -15.1
-0.47 18.42 28.64 2.03 1.5 4.13 0 0 0 -26.21 -1.24 11.89 1.31 7.25 20.46 0.58 0.31 14.26 1.26 -7.11 -20.04 0 0 0 14.3 10.62 -40.5 -17.08 -19.79 81.42 -0.13 -8.92 8.52 -0.59 -4.93 13.71 -4.56 -3.4 14.19 -0.41 -5.28 0.26 3.18 -2.41 -7.31 -1.57 2.03 -4.74 0.51 2.78 -7.07 0.42 1.42 -1.42 -0 -0 0 -81.5 -15.19 43.63 139.03 -48.63 -100.83 -0 0 -27.06 39.82 4.56 3.8 -7.12 0 -0 10.99 35.73 -2.54 -0 -0 0 78.87 -28.61 38.66 -80.79 59.68 -52.03 0 -0 -2.13 -51.34 24.8 -27.66 7.12 -0 -0 -12.63 5.72 -14.16
-0.48 18.75 30.84 1.44 -0.6 5.18 0 0 0 -25.41 1.73 19.93 0.35 3.82 10.57 2.59 11.51 28.99 0.09 -1.94 -5.35 0 0 0 14.32 14.71 -41.6 -11.17 -18.02 63.33 0.01 -9.29 6.31 -0.42 -4.18 11.57 -4.03 -3.25 12.68 0.19 -4.91 -0.48 3.37 -2.24 -7.27 -1.18 2.28 -5.22 -0.44 3.07 -5.27 0.08 1.56 -0.76 -0 -0 0 -81 -14.99 46.19 142.8 -46.32 -103.61 -0 0 -26.99 41.06 8.89 7.66 -7.12 0 -0 12.63 41.36 -1.15 -0 -0 0 78.48 -32.96 37.45 -84 59.86 -54.81 0 -0 -3.06 -50.66 24.58 -26.91 7.12 -0 -0 -12.32 5.11 -13.67
-0.46 19 33.07 2.05 -2.5 5.49 0 0 0 -25.73 5 29.47 0 -0 -0 4.45 13.59 38.38 0.04 -1.27 -3.48 0 0 0 13.06 17.62 -38.71 -5.61 -14.03 43.38 -0.03 -8.78 6.75 -0.02 -0.85 2.35 -3.54 -2.98 13.14 -0.15 -4.57 -1.97 2.78 -2.02 -9.24 -1.02 2.42 -4.76 -0.37 3.26 -3.32 0.09 1.64 -0.24 0 -0 0 -79.96 -11.78 49.13 145.22 -44.65 -105.34 -0 0 -23.06 39.22 8.79 7.11 -7.12 0 -0 10.95 41.02 -1.09 0 -0 0 79.05 -38.3 36.2 -86.2 59.95 -56.71 0 -0 -4.73 -51.21 25.52 -28.19 7.12 -0 -0 -12.35 6.57 -14
-0.46 19.02 35.25 4.27 -3.65 5.01 0 0 0 -30.55 4.36 28.33 0.52 4.63 12.85 3.24 8.06 32.67 0.38 -3.98 -11.03 0 0 0 9.59 21.33 -34.03 -2.28 -9.43 27.14 0.21 -12.94 5.99 -0 0.27 -0.73 -4.84 -2.75 12.02 -0.93 -4.45 -1.27 2.55 -1.97 -7.82 -1.63 2.45 -5.62 0.16 3.35 -3.84 0.35 1.69 -0.28 0 -0 0 -79.28 -10.09 50.46 145.1 -44.74 -105.26 -0 0 -17.55 40.13 3.23 2.72 -7.12 0 -0 11.08 34.04 -3.03 0 -0 0 80 -38.49 35.26 -89.25 60 -59.35 0 -0 -5.92 -51.58 24.7 -27.78 7.12 -0 -0 -12.79 5.73 -14.35
-0.42 18.89 37.39 4.23 -4.65 4.02 0 0 0 -32.54 3.88 22.57 3.44 11.38 33.57 2.84 6.12 30.65 0.29 -3.46 -9.57 0 0 0 12.63 17.64 -30.26 -1.12 -6.71 18.87 0.65 -16.53 3.08 -0 -0.31 0.86 -3.75 -2.48 10.89 -1.04 -3.83 0.05 1.62 -1.79 -5.88 -2.28 2.35 -6.38 0.17 3.26 -4.94 0.46 1.66 -0.51 -0 -0 0 -79.57 -6.64 50.7 143.03 -46.17 -103.78 -0 0 -14.89 39.25 3.15 2.57 -7.12 0 -0 10.35 33.9 -2.86 -0 -0 0 80.37 -35.86 35.08 -91.61 59.99 -61.4 0 -0 -6.42 -51.71 23.8 -27.07 7.12 -0 -0 -13.11 4.65 -14.5
-0.42 18.55 39.5 2.35 -6.99 2.63 0 0 0 -30.05 7.06 14.33 9.11 16.88 56.47 2.97 7.42 31.24 0.23 -3.11 -8.58 0 0 0 18.84 14.23 -23.81 -0.7 -5.34 14.87 0.17 -15.12 8.67 -0.25 3.2 -8.84 -1.69 -1.72 10.7 -0.61 -2.53 0.82 0.69 -1.21 -5.1 -2.47 2.34 -4.18 -0.28 3.16 -6.83 0.32 1.64 -1.45 -0 0 0 -80.34 -0.83 48.99 138.52 -48.92 -100.45 -0 0 -16.42 38.59 2.66 2.12 -7.12 0 -0 9.76 33.27 -2.84 -0 0 0 79.11 -32.11 37.1 -94.17 59.93 -63.61 0 -0 -7.04 -51.59 23.85 -27.02 7.12 -0 -0 -13.03 4.65 -14.41
-0.46 18.04 41.58 1.32 -6.93 0.3 0 0 0 -25.25 9.81 6.96 16.41 19.69 79.45 2.23 12.1 26.95 0.19 -2.8 -7.71 0 0 0 22.42 9.24 -19.76 -1.48 -7.68 21.74 -0.09 0.13 5.61 -0.62 -5.05 14.04 -0.54 -1.6 12.32 -0.41 -2.22 1.34 0.24 -1.09 -5.49 -2.39 2.22 -4.3 0.34 3.05 -5.48 0.51 1.56 -1.01 0 0 0 -81.08 5.44 46.27 131.79 -52.25 -95.25 -0 0 -20.27 38.96 5.07 4.08 -7.12 0 -0 10.33 36.31 -2.24 0 0 0 78.02 -26.95 39.26 -98.27 59.74 -67.16 0 -0 -6.97 -50.54 24.48 -26.72 7.12 -0 -0 -12.28 4.91 -13.59
-0.55 17.57 43.56 -0.57 -6.26 -1.54 0 0 0 -18.03 10.58 -1.64 23.3 19.74 99.69 1.79 10.6 24.07 0.04 -1.25 -3.44 0 0 0 25.92 9.29 -15.17 -3.08 -10.82 31.69 -0.21 -1.43 -9.32 -0.31 -3.58 9.89 0.8 -1.39 14.77 0.22 -1.7 1.46 0.12 -0.85 -6.75 -1.64 2.22 -3.23 -0.25 2.98 -5.34 0.19 1.52 -1.12 0 -0 0 -82.08 11.48 43.3 122.83 -55.51 -88 -0 0 -22.52 38.72 7.11 5.67 -7.12 0 -0 10.33 38.87 -1.58 0 -0 0 78.14 -20.33 39.88 -103.74 59.27 -71.87 0 -0 -5.12 -50.11 24.09 -26.03 7.12 -0 -0 -12.15 4.22 -13.3
-0.57 17.28 45.37 -6.71 -6.1 0 0 0 0 -7 8.84 -15.39 28.07 18.36 114.24 1.82 2.2 24.9 0.08 -1.84 -5.05 0 0 0 32.86 8.44 -11.69 -3.94 -12.08 36.03 -0.66 -1.26 -15.9 -0 0.37 -1.02 6.34 -1.47 15.48 2.26 -0.69 1.45 -1.03 -0.5 -7.19 -1.2 2.47 -3.16 -1.47 3.23 -7.76 -0.28 1.67 -1.88 0 0 0 -84.23 15.59 39.12 112.3 -58.04 -79.18 -0 0 -26.75 38.63 8.82 6.99 -7.12 0 -0 10.42 40.99 -1.04 0 0 0 77.91 -10.46 40.42 -108.36 58.69 -75.83 0 -0 -5.58 -49.05 24.07 -25.17 7.12 -0 -0 -11.57 3.68 -12.54
-0.6 17.23 47.17 -5.87 -5.01 0.51 0 0 0 -8.5 3.4 -28.11 29.25 17.81 118.02 1.33 -2.92 23.03 0.21 -2.92 -8.04 0 0 0 32.03 7.23 -6.44 -4.26 -12.49 37.5 -0.84 -0.7 -17.64 -0.24 3.15 -8.69 4.92 -0.53 14.45 2.39 0.23 1.6 -0.29 0.01 -6.41 -1.27 1.45 -1.21 -2.02 1.77 -9.54 -0.47 0.98 -2.81 0 0 0 -85.82 19.59 37.58 106.85 -58.9 -74.54 -0 0 -33.73 39.43 5.86 4.8 -7.12 0 -0 10.82 37.35 -2.07 0 0 0 78.14 -2.74 39.04 -115 57.5 -81.47 0 -0 -4.95 -47.51 23.84 -23.81 7.12 -0 -0 -10.76 2.69 -11.45
-0.58 17.46 49.08 -7.61 -5.66 0.67 0 0 0 -7.12 -0.96 -36.96 27.8 18.47 113.38 0.8 -6.71 20.59 0.15 -2.46 -6.77 0 0 0 33.94 5.6 2.03 -3.53 -11.51 34.03 -0.4 -0.85 -12.33 -0.64 5.1 -14.2 6.64 0.72 15.14 2.48 2.23 1.65 -1.57 0.94 -6.59 -0.6 0.87 -3.97 -1.26 1.11 -8.04 -0.3 0.59 -1.83 -0 0 0 -85.12 22.09 38.27 106.88 -58.9 -74.56 -0 0 -34.41 54.2 33.09 37.12 -7.12 0 -0 44.44 74.17 32.11 -0 0 0 79.33 2.43 37.25 -123.78 55.22 -88.78 0 -0 -3.02 -47.43 24.2 -24.05 7.12 -0 -0 -10.62 3.11 -11.38
