HIERARCHY
ROOT Hips
{
	OFFSET 0.00000 0.00000 0.00000
	CHANNELS 6 Xposition Yposition Zposition Zrotation Yrotation Xrotation 
	JOINT LHipJoint
	{
		OFFSET 0 0 0
		CHANNELS 3 Zrotation Yrotation Xrotation
		JOINT LeftUpLeg
		{
			OFFSET 1.57338 -1.94743 0.52196
			CHANNELS 3 Zrotation Yrotation Xrotation
			JOINT LeftLeg
			{
				OFFSET 2.60333 -7.15259 0.00000
				CHANNELS 3 Zrotation Yrotation Xrotation
				JOINT LeftFoot
				{
					OFFSET 2.77855 -7.63400 0.00000
					CHANNELS 3 Zrotation Yrotation Xrotation
					JOINT LeftToeBase
					{
						OFFSET 0.19847 -0.54529 2.28466
						CHANNELS 3 Zrotation Yrotation Xrotation
						End Site
						{
							OFFSET 0.00000 -0.00000 1.17993
						}
					}
				}
			}
		}
	}
	JOINT RHipJoint
	{
		OFFSET 0 0 0
		CHANNELS 3 Zrotation Yrotation Xrotation
		JOINT RightUpLeg
		{
			OFFSET -1.61527 -1.94743 0.52196
			CHANNELS 3 Zrotation Yrotation Xrotation
			JOINT RightLeg
			{
				OFFSET -2.53829 -6.97390 0.00000
				CHANNELS 3 Zrotation Yrotation Xrotation
				JOINT RightFoot
				{
					OFFSET -2.80762 -7.71387 0.00000
					CHANNELS 3 Zrotation Yrotation Xrotation
					JOINT RightToeBase
					{
						OFFSET -0.30536 -0.83898 2.28801
						CHANNELS 3 Zrotation Yrotation Xrotation
						End Site
						{
							OFFSET -0.00000 -0.00000 1.21323
						}
					}
				}
			}
		}
	}
	JOINT LowerBack
	{
		OFFSET 0 0 0
		CHANNELS 3 Zrotation Yrotation Xrotation
		JOINT Spine
		{
			OFFSET -0.04381 1.99497 -0.19778
			CHANNELS 3 Zrotation Yrotation Xrotation
			JOINT Spine1
			{
				OFFSET -0.01959 2.01295 -0.04372
				CHANNELS 3 Zrotation Yrotation Xrotation
				JOINT Neck
				{
					OFFSET 0 0 0
					CHANNELS 3 Zrotation Yrotation Xrotation
					JOINT Neck1
					{
						OFFSET -0.05459 1.76913 0.09708
						CHANNELS 3 Zrotation Yrotation Xrotation
						JOINT Head
						{
							OFFSET 0.09461 1.77368 -0.11172
							CHANNELS 3 Zrotation Yrotation Xrotation
							End Site
							{
								OFFSET 0.03812 1.78157 -0.04834
							}
						}
					}
				}
				JOINT LeftShoulder
				{
					OFFSET 0 0 0
					CHANNELS 3 Zrotation Yrotation Xrotation
					JOINT LeftArm
					{
						OFFSET 3.50922 1.24034 -0.28866
						CHANNELS 3 Zrotation Yrotation Xrotation
						JOINT LeftForeArm
						{
							OFFSET 5.40188 -0.00000 0.00000
							CHANNELS 3 Zrotation Yrotation Xrotation
							JOINT LeftHand
							{
								OFFSET 3.68559 -0.00000 0.00000
								CHANNELS 3 Zrotation Yrotation Xrotation
								JOINT LeftFingerBase
								{
									OFFSET 0 0 0
									CHANNELS 3 Zrotation Yrotation Xrotation
									JOINT LeftHandIndex1
									{
										OFFSET 0.61753 -0.00000 0.00000
										CHANNELS 3 Zrotation Yrotation Xrotation
										End Site
										{
											OFFSET 0.49787 -0.00000 0.00000
										}
									}
								}
								JOINT LThumb
								{
									OFFSET 0 0 0
									CHANNELS 3 Zrotation Yrotation Xrotation
									End Site
									{
										OFFSET 0.50547 -0.00000 0.50547
									}
								}
							}
						}
					}
				}
				JOINT RightShoulder
				{
					OFFSET 0 0 0
					CHANNELS 3 Zrotation Yrotation Xrotation
					JOINT RightArm
					{
						OFFSET -2.95373 1.39649 -0.27346
						CHANNELS 3 Zrotation Yrotation Xrotation
						JOINT RightForeArm
						{
							OFFSET -6.10670 -0.00000 -0.00000
							CHANNELS 3 Zrotation Yrotation Xrotation
							JOINT RightHand
							{
								OFFSET -3.63052 -0.00000 0.00000
								CHANNELS 3 Zrotation Yrotation Xrotation
								JOINT RightFingerBase
								{
									OFFSET 0 0 0
									CHANNELS 3 Zrotation Yrotation Xrotation
									JOINT RightHandIndex1
									{
										OFFSET -0.58385 -0.00000 0.00000
										CHANNELS 3 Zrotation Yrotation Xrotation
										End Site
										{
											OFFSET -0.47071 -0.00000 0.00000
										}
									}
								}
								JOINT RThumb
								{
									OFFSET 0 0 0
									CHANNELS 3 Zrotation Yrotation Xrotation
									End Site
									{
										OFFSET -0.47790 -0.00000 0.47790
									}
								}
							}
						}
					}
				}
			}
		}
	}
}
MOTION
Frames: 103
Frame Time: 0.0333332
0.32 18.92 -13.13 0.33 -7.37 2.42 0 0 0 -20.24 -7.53 2.38 0.42 4.17 11.55 -0.02 14.03 -19.75 0.05 -1.42 -3.89 0 0 0 20.5 21.65 3.56 -0.72 -5.43 15.13 0.06 -13.18 -17.98 -0.05 1.38 -3.81 -1.53 0.46 1.23 -0.91 0.58 -0.74 -0.09 0.3 -1.46 -10.89 -6.03 -7.76 9.45 -8.2 14.14 4.13 -3.9 6.41 0 0 0 -89.05 0.87 0.5 10.39 -17.35 -1.59 -0 -0 8.63 19.57 24.87 8.51 -7.12 0 -0 -10.82 55.85 -2.9 0 0 0 84.66 -3 25.63 -13.87 22.55 -2.78 0 0 19.49 -24.09 1.3 -0.58 7.12 -0 -0 1.93 -28.56 0.77
0.32 18.92 -13.12 0.32 -7.41 2.43 0 0 0 -20.29 -7.76 2.49 0.43 4.2 11.64 -0.01 14.18 -20.03 0.04 -1.3 -3.57 0 0 0 20.52 21.67 3.62 -0.72 -5.41 15.08 0.05 -13.18 -18.07 -0.05 1.38 -3.79 -1.5 0.47 1.21 -0.94 0.59 -0.73 -0.13 0.3 -1.44 -10.79 -6.02 -7.83 9.42 -8.18 14.07 4.1 -3.88 6.39 -0 -0 0 -88.98 0.89 0.56 10.44 -17.42 -1.6 -0 -0 8.56 19.6 25.06 8.58 -7.12 0 -0 -10.87 56.05 -2.97 -0 -0 0 84.73 -2.88 25.6 -13.88 22.56 -2.78 0 0 19.69 -23.07 0.03 -0.01 7.12 -0 -0 2.76 -29.95 1.01
0.32 18.92 -13.11 0.21 -7.41 2.44 0 0 0 -20.17 -7.78 2.47 0.44 4.24 11.75 0.02 14.08 -20.2 0.03 -1.15 -3.16 0 0 0 20.64 21.64 3.69 -0.71 -5.38 15 0.05 -13.15 -18 -0.04 1.24 -3.41 -1.39 0.49 1.21 -0.92 0.61 -0.75 -0.18 0.32 -1.45 -10.91 -6.03 -7.74 9.5 -8.19 14.05 4.15 -3.9 6.37 0 -0 0 -88.94 0.94 0.79 10.49 -17.5 -1.62 -0 -0 8.28 19.6 25.32 8.66 -7.12 0 -0 -11 56.31 -3.08 0 -0 0 84.75 -2.83 25.83 -13.75 22.38 -2.73 0 0 18.29 -24.46 1.65 -0.75 7.12 -0 -0 1.64 -28.17 0.67
0.32 18.91 -13.09 0.28 -7.36 2.39 0 0 0 -20.28 -7.77 2.66 0.43 4.19 11.62 0.02 14.09 -20.21 0.03 -1.13 -3.12 0 0 0 20.59 21.55 3.75 -0.71 -5.38 15 0.06 -13.16 -17.97 -0.04 1.34 -3.68 -1.38 0.5 1.05 -0.99 0.64 -0.68 -0.26 0.33 -1.29 -10.84 -6.01 -7.68 9.51 -8.19 14.02 4.14 -3.89 6.35 -0 0 0 -88.88 0.89 0.57 10.47 -17.48 -1.61 -0 -0 8.61 19.45 25.49 8.64 -7.12 0 -0 -11.23 56.44 -3.18 -0 0 0 84.87 -2.71 25.62 -13.69 22.3 -2.71 0 0 18.45 -24.74 2.24 -1.03 7.12 -0 -0 1.42 -27.51 0.6
0.32 18.91 -13.08 0.24 -7.37 2.44 0 0 0 -20.25 -7.79 2.71 0.42 4.15 11.5 0 14.17 -20.18 0.04 -1.25 -3.43 0 0 0 20.6 21.5 3.68 -0.72 -5.41 15.07 0.04 -13.04 -18.09 -0.04 1.34 -3.67 -1.36 0.52 0.97 -0.97 0.66 -0.64 -0.25 0.34 -1.2 -10.91 -6.06 -8.02 9.51 -8.23 14.24 4.14 -3.9 6.49 -0 -0 0 -88.93 0.69 0.45 10.36 -17.3 -1.58 -0 -0 8.73 19.72 25.12 8.65 -7.12 0 -0 -10.77 56.13 -2.96 -0 -0 0 84.84 -2.75 25.8 -13.92 22.62 -2.8 0 0 18.33 -24.66 1.86 -0.85 7.12 -0 -0 1.49 -27.93 0.62
0.31 18.91 -13.07 0.18 -7.38 2.49 0 0 0 -20.16 -7.82 2.54 0.44 4.25 11.78 0.03 14.06 -20.33 0.04 -1.24 -3.41 0 0 0 20.71 21.59 3.8 -0.7 -5.36 14.94 0.05 -13.14 -18.08 -0.04 1.29 -3.55 -1.35 0.54 0.94 -1.01 0.69 -0.67 -0.29 0.35 -1.22 -10.76 -6.08 -8.04 9.48 -8.27 14.26 4.1 -3.92 6.49 -0 -0 0 -88.82 0.69 0.45 10.38 -17.33 -1.59 -0 -0 8.79 19.93 25.06 8.73 -7.12 0 -0 -10.53 56.11 -2.89 -0 -0 0 85.01 -2.71 25.59 -14.07 22.83 -2.86 0 0 19.07 -24.38 0.7 -0.32 7.12 -0 -0 1.71 -29.21 0.66
0.31 18.91 -13.06 0.15 -7.26 2.49 0 0 0 -20.11 -7.85 2.52 0.45 4.28 11.87 0.04 13.96 -20.33 0.03 -1.16 -3.19 0 0 0 20.76 21.45 3.83 -0.7 -5.34 14.89 0.05 -13.18 -18.11 -0.04 1.33 -3.65 -1.35 0.51 0.95 -0.99 0.65 -0.71 -0.27 0.33 -1.26 -10.74 -6.08 -8 9.45 -8.27 14.28 4.09 -3.92 6.49 -0 0 0 -88.83 0.71 0.47 10.37 -17.32 -1.58 -0 -0 8.78 19.63 25.32 8.67 -7.12 0 -0 -10.96 56.32 -3.07 -0 0 0 84.98 -2.71 25.99 -13.98 22.71 -2.82 0 0 18.13 -24.8 1.46 -0.67 7.12 -0 -0 1.38 -28.38 0.56
0.31 18.91 -13.05 0.18 -7.16 2.48 0 0 0 -20.14 -7.87 2.56 0.44 4.27 11.83 0.05 13.91 -20.32 0.03 -1.17 -3.21 0 0 0 20.73 21.38 3.83 -0.7 -5.35 14.91 0.04 -13.16 -18.16 -0.04 1.34 -3.7 -1.35 0.5 1.01 -1.03 0.63 -0.76 -0.31 0.32 -1.34 -10.67 -6.07 -7.91 9.46 -8.28 14.27 4.08 -3.92 6.47 0 -0 0 -88.82 0.82 0.78 10.46 -17.45 -1.61 -0 -0 8.58 20.03 26.1 9.11 -7.12 0 -0 -10.93 57.18 -3.29 0 -0 0 85.03 -2.87 26.04 -14.11 22.89 -2.87 0 0 18.12 -24.33 1.49 -0.67 7.12 -0 -0 1.74 -28.34 0.7
0.31 18.91 -13.05 0.15 -7.16 2.5 0 0 0 -20.05 -7.63 2.33 0.46 4.34 12.03 0.08 13.61 -20.24 0.03 -1.19 -3.28 0 0 0 20.75 21.3 3.79 -0.7 -5.35 14.91 0.04 -13.1 -18.12 -0.04 1.32 -3.63 -1.37 0.52 0.94 -1.01 0.66 -0.69 -0.28 0.34 -1.23 -10.62 -6.08 -8.05 9.42 -8.27 14.27 4.06 -3.92 6.49 0 0 0 -88.82 0.6 0.78 10.37 -17.31 -1.58 -0 -0 8.56 19.79 25.75 8.88 -7.12 0 -0 -11.01 56.78 -3.21 0 0 0 85.01 -2.72 25.95 -14.12 22.91 -2.87 0 0 18.33 -24.48 1.54 -0.7 7.12 -0 -0 1.62 -28.29 0.66
0.31 18.91 -13.05 -0.01 -7.14 2.51 0 0 0 -19.87 -7.74 2.32 0.47 4.38 12.15 0.07 13.8 -20.42 0.05 -1.44 -3.95 0 0 0 20.97 21.39 3.88 -0.7 -5.33 14.86 0.05 -13.18 -18.18 -0.04 1.3 -3.57 -1.24 0.52 0.99 -0.96 0.67 -0.66 -0.3 0.34 -1.23 -10.49 -6.04 -8.23 9.31 -8.21 14.36 4 -3.88 6.53 0 -0 0 -88.85 0.59 0.84 10.38 -17.33 -1.59 -0 -0 8.68 20.03 25.75 9 -7.12 0 -0 -10.75 56.84 -3.14 0 -0 0 85.03 -2.54 25.86 -14.04 22.79 -2.84 0 0 18.45 -26.29 3.9 -1.92 7.12 -0 -0 0.26 -25.64 0.12
0.3 18.91 -13.04 0.09 -7.13 2.5 0 0 0 -19.98 -7.67 2.41 0.45 4.31 11.95 0.07 13.8 -20.36 0.05 -1.43 -3.94 0 0 0 20.85 21.41 3.77 -0.71 -5.38 15 0.05 -13.21 -18.17 -0.04 1.36 -3.75 -1.33 0.54 1.02 -1.03 0.68 -0.69 -0.32 0.35 -1.28 -10.37 -5.88 -8.35 9.37 -8.03 14.55 4.02 -3.78 6.59 0 -0 0 -88.84 0.52 0.44 10.29 -17.19 -1.56 -0 -0 9.11 20.05 25.28 8.86 -7.12 0 -0 -10.51 56.37 -2.95 0 -0 0 85.15 -2.48 25.61 -13.92 22.62 -2.8 0 0 18.55 -26.12 3.57 -1.75 7.12 -0 -0 0.38 -26.01 0.18
0.31 18.91 -13.04 0.22 -7.19 2.47 0 0 0 -20.17 -7.68 2.56 0.44 4.28 11.86 0.07 13.84 -20.49 0.05 -1.39 -3.83 0 0 0 20.69 21.3 3.82 -0.71 -5.39 15.02 0.02 -13 -18.27 -0.04 1.27 -3.48 -1.4 0.58 1.1 -1.11 0.74 -0.66 -0.36 0.37 -1.3 -10.17 -5.7 -8.48 9.35 -7.8 14.65 4 -3.66 6.61 -0 0 0 -88.81 0.57 0.82 10.38 -17.33 -1.59 -0 -0 8.79 20.14 25.17 8.87 -7.12 0 -0 -10.36 56.27 -2.89 -0 0 0 85.22 -2.48 25.47 -13.91 22.6 -2.79 0 0 18.59 -26.37 3.68 -1.82 7.12 -0 -0 0.2 -25.87 0.09
0.31 18.91 -13.03 0.16 -7.19 2.49 0 0 0 -20.08 -7.59 2.58 0.44 4.25 11.77 0.07 13.79 -20.38 0.04 -1.31 -3.59 0 0 0 20.77 21.34 3.81 -0.72 -5.41 15.09 0.01 -12.99 -18.37 -0.04 1.32 -3.62 -1.34 0.56 1.22 -1.06 0.71 -0.73 -0.35 0.36 -1.43 -10.15 -5.4 -8.44 9.42 -7.4 14.64 4.06 -3.45 6.56 -0 -0 0 -88.88 0.64 0.64 10.35 -17.28 -1.58 -0 -0 8.91 20.11 24.97 8.79 -7.12 0 -0 -10.3 56.06 -2.82 -0 -0 0 85.16 -2.75 25.56 -14.01 22.75 -2.83 0 0 18.61 -26.49 3.84 -1.91 7.12 -0 -0 0.11 -25.69 0.05
0.31 18.91 -13.03 0.36 -7.14 2.45 0 0 0 -20.32 -7.57 2.73 0.42 4.16 11.51 0.05 13.83 -20.22 0.04 -1.33 -3.65 0 0 0 20.52 21.31 3.66 -0.74 -5.48 15.29 -0 -12.95 -18.44 -0.05 1.4 -3.84 -1.51 0.58 1.37 -1.15 0.72 -0.74 -0.35 0.37 -1.53 -10.08 -5.04 -8.87 9.6 -6.94 15.19 4.15 -3.2 6.77 -0 0 0 -88.83 0.73 1.03 10.4 -17.37 -1.59 -0 -0 8.68 20.23 25.3 8.95 -7.12 0 -0 -10.32 56.41 -2.91 -0 0 0 85.21 -2.84 25.5 -14 22.73 -2.83 0 0 18.61 -26.86 4.16 -2.11 7.12 -0 -0 -0.17 -25.32 -0.08
0.31 18.91 -13.03 0.43 -7.1 2.43 0 0 0 -20.39 -7.48 2.73 0.42 4.14 11.47 0.04 13.82 -20.08 0.06 -1.57 -4.33 0 0 0 20.43 21.24 3.59 -0.75 -5.52 15.4 -0.01 -12.88 -18.43 -0.04 1.29 -3.56 -1.6 0.59 1.49 -1.17 0.74 -0.63 -0.32 0.38 -1.49 -9.93 -4.77 -9.12 9.6 -6.58 15.28 4.16 -3.01 6.8 0 -0 0 -88.83 0.53 0.92 10.38 -17.33 -1.59 -0 -0 8.82 20.18 25.3 8.93 -7.12 0 -0 -10.38 56.41 -2.93 0 -0 0 85.21 -2.78 25.44 -14.1 22.88 -2.87 0 0 18.68 -26.88 4.04 -2.04 7.12 -0 -0 -0.19 -25.45 -0.09
0.32 18.91 -13.02 0.37 -7.05 2.4 0 0 0 -20.32 -7.43 2.75 0.42 4.16 11.54 0.07 13.66 -20.16 0.04 -1.29 -3.56 0 0 0 20.53 21.24 3.68 -0.74 -5.51 15.38 -0.01 -12.94 -18.53 -0.05 1.38 -3.79 -1.41 0.62 1.57 -1.21 0.78 -0.5 -0.47 0.4 -1.4 -9.68 -4.51 -9.57 9.52 -6.22 15.52 4.12 -2.82 6.9 -0 0 0 -88.75 0.46 1.32 10.47 -17.47 -1.61 -0 -0 8.6 20.18 25.34 8.94 -7.12 0 -0 -10.4 56.45 -2.94 -0 0 0 85.33 -2.66 24.82 -14.19 23.01 -2.9 0 0 19.8 -24.07 0.64 -0.29 7.12 -0 -0 1.96 -29.27 0.75
0.32 18.9 -13.02 0.46 -7.01 2.43 0 0 0 -20.45 -7.62 2.76 0.42 4.15 11.5 0.05 13.79 -20.16 0.04 -1.35 -3.72 0 0 0 20.36 21.02 3.58 -0.75 -5.54 15.44 -0.03 -12.73 -18.5 -0.04 1.31 -3.61 -1.46 0.58 1.77 -1.24 0.73 -0.42 -0.47 0.37 -1.42 -9.38 -4.2 -9.89 9.32 -5.78 15.61 4.05 -2.6 6.93 -0 -0 0 -88.74 0.3 1.18 10.42 -17.39 -1.6 -0 -0 8.65 20.23 25.11 8.89 -7.12 0 -0 -10.24 56.22 -2.84 -0 -0 0 85.25 -2.48 25.13 -14.08 22.84 -2.86 0 0 19.16 -24.32 0.97 -0.44 7.12 -0 -0 1.75 -28.91 0.69
0.32 18.9 -13.02 0.43 -7.01 2.48 0 0 0 -20.41 -7.66 2.53 0.44 4.25 11.79 0.07 13.71 -20.27 0.05 -1.43 -3.93 0 0 0 20.35 20.96 3.52 -0.75 -5.53 15.42 -0.05 -12.59 -18.54 -0.04 1.33 -3.66 -1.55 0.6 2.08 -1.11 0.74 -0.54 -0.29 0.38 -1.73 -9.56 -3.93 -9.36 9.4 -5.42 15.35 4.14 -2.44 6.72 -0 -0 0 -88.91 0.63 1.39 10.5 -17.51 -1.62 -0 -0 8.51 19.75 25.41 8.76 -7.12 0 -0 -10.88 56.43 -3.07 -0 -0 0 85.05 -2.84 25.15 -14.18 22.99 -2.9 0 0 19.13 -23.78 0.02 -0.01 7.12 -0 -0 2.2 -29.95 0.81
0.33 18.9 -13.02 0.66 -6.97 2.64 0 0 0 -20.64 -7.67 2.25 0.45 4.29 11.9 0.07 13.6 -20.15 0.05 -1.5 -4.12 0 0 0 20.01 21.2 3.24 -0.76 -5.58 15.57 -0.04 -12.68 -18.54 -0.04 1.28 -3.53 -1.81 0.58 2.32 -1.15 0.7 -0.47 -0.19 0.36 -1.79 -9.42 -3.74 -9.45 9.36 -5.16 15.13 4.13 -2.31 6.64 -0 -0 0 -88.84 0.39 1.74 10.47 -17.48 -1.61 -0 -0 8.17 20 25.66 8.96 -7.12 0 -0 -10.75 56.74 -3.12 -0 -0 0 84.98 -2.62 25.42 -13.99 22.72 -2.82 0 0 18.54 -24.83 1.08 -0.5 7.12 -0 -0 1.35 -28.79 0.54
0.34 18.9 -13.03 0.65 -6.82 3.18 0 0 0 -20.47 -7.56 1.15 0.49 4.47 12.4 0.11 13.03 -19.88 0.06 -1.56 -4.3 0 0 0 19.82 21.59 2.63 -0.78 -5.62 15.69 -0.02 -12.94 -18.63 -0.04 1.23 -3.38 -1.81 0.56 2.3 -1.14 0.66 -0.56 -0.18 0.35 -1.87 -9.34 -3.68 -9.49 9.38 -5.08 15.06 4.13 -2.26 6.61 0 -0 0 -88.85 0.44 1.81 10.57 -17.63 -1.64 -0 -0 8.28 19.59 25.08 8.58 -7.12 0 -0 -10.9 56.06 -2.98 0 -0 0 84.96 -2.59 25.12 -14.08 22.84 -2.86 0 0 19.66 -23.59 0.89 -0.39 7.12 -0 -0 2.32 -29 0.91
0.35 18.91 -13.04 0.26 -6.48 3.84 0 0 0 -19.87 -7.75 -0.34 0.58 4.89 13.6 0.19 12.34 -19.86 0.05 -1.5 -4.12 0 0 0 20.06 22.11 2.22 -0.74 -5.51 15.37 0.05 -13.56 -18.71 -0.03 1.18 -3.26 -1.38 0.43 2.53 -1.02 0.51 -0.76 -0.29 0.27 -2.2 -9.35 -3.51 -9.67 9.37 -4.83 15.22 4.15 -2.14 6.67 0 0 0 -88.82 0.51 1.83 10.6 -17.68 -1.65 -0 -0 8.18 20.09 25.25 8.87 -7.12 0 -0 -10.45 56.34 -2.93 0 0 0 84.88 -3.02 25.44 -14.44 23.36 -3 0 0 19.31 -23.15 -0 0 7.12 -0 -0 2.69 -29.97 0.99
0.35 18.92 -13.08 0.05 -5.86 4.82 0 0 0 -19.32 -8.08 -2.33 0.69 5.3 14.78 0.28 11.28 -19.6 0.05 -1.41 -3.87 0 0 0 19.96 22.55 1.13 -0.76 -5.55 15.49 0.1 -14.15 -18.92 -0.03 1.13 -3.1 -1.2 0.31 2.59 -0.91 0.35 -0.79 -0.28 0.18 -2.27 -9.25 -3.58 -9.95 9.25 -4.88 14.89 4.08 -2.16 6.61 0 0 0 -88.76 0.05 2.08 10.55 -17.59 -1.64 -0 -0 8.21 19.87 24.28 8.45 -7.12 0 -0 -10.24 55.32 -2.61 0 0 0 84.82 -2.56 25.27 -14.25 23.09 -2.92 0 0 18.55 -23.88 0.69 -0.31 7.12 -0 -0 2.11 -29.22 0.81
0.38 18.92 -13.12 0.03 -6.34 5.72 0 0 0 -19.2 -7.91 -4 0.75 5.54 15.45 0.31 10.99 -19.53 0.14 -2.43 -6.7 0 0 0 19.36 23.12 -0.4 -0.8 -5.7 15.92 0.09 -13.84 -18.56 -0.04 1.26 -3.45 -1.06 0.49 2.96 -0.97 0.59 -0.85 -0.43 0.3 -2.53 -9.13 -3.54 -10.12 9.31 -4.81 14.29 4.08 -2.11 6.45 0 -0 0 -88.64 -0.29 2.47 10.63 -17.72 -1.66 -0 -0 8.11 19.65 25.02 8.59 -7.12 0 -0 -10.8 56.01 -2.94 0 -0 0 84.77 -2.51 25.33 -14.57 23.55 -3.05 0 0 18.94 -23.27 0.05 -0.02 7.12 -0 -0 2.6 -29.93 0.96
0.4 18.91 -13.17 0.01 -6.63 6.18 0 0 0 -19.15 -7.84 -5.55 0.88 5.99 16.75 0.36 10.61 -19.67 0.15 -2.53 -6.98 0 0 0 18.91 23.63 -1.2 -0.82 -5.78 16.16 0.04 -13.41 -18.59 -0.02 0.88 -2.42 -0.92 0.68 3.79 -1.06 0.83 -0.57 -0.62 0.42 -2.71 -8.93 -3.55 -10.15 9.37 -4.79 13.13 4.06 -2.09 6.08 -0 -0 0 -88.44 -0.59 3.74 11.17 -18.55 -1.83 -0 -0 7.59 19.33 24.85 8.39 -7.12 0 -0 -11.05 55.77 -2.95 -0 -0 0 84.64 -2.4 25.82 -15.15 24.35 -3.29 0 0 18.56 -23.64 -0.02 0.01 7.12 -0 -0 2.31 -29.99 0.85
0.44 18.89 -13.23 -0.28 -7.25 6.74 0 0 0 -18.82 -7.79 -7.38 1.07 6.58 18.48 0.45 10.15 -20.14 0.13 -2.29 -6.31 0 0 0 18.65 24.43 -2.32 -0.87 -5.96 16.67 0 -12.94 -18.38 -0.02 0.84 -2.3 -0.46 0.93 4.9 -1.06 1.18 -0.18 -0.92 0.59 -2.92 -9.14 -3.49 -10.92 9.73 -4.62 12.47 4.21 -1.98 6 -0 0 0 -88.23 -1.02 5.95 11.79 -19.49 -2.03 -0 -0 5.16 20.47 23.95 8.61 -7.12 0 -0 -9.47 55.09 -2.36 -0 0 0 84.48 -1.73 25.79 -15.47 24.8 -3.42 0 0 18.66 -23.53 0.38 -0.17 7.12 -0 -0 2.39 -29.56 0.9
0.49 18.87 -13.31 -0.65 -7.92 7.58 0 0 0 -18.35 -7.88 -9.61 1.29 7.19 20.29 0.53 9.8 -20.59 0.11 -2.16 -5.94 0 0 0 18.38 25.93 -3.96 -1 -6.36 17.83 -0.01 -12.97 -18.53 -0.02 0.93 -2.55 -0.07 1.16 6.17 -0.93 1.51 0.07 -1.06 0.75 -3.37 -8.98 -3.35 -11.17 9.37 -4.31 11.44 4.08 -1.84 5.68 0 -0 0 -88.21 -1.13 7.35 12.62 -20.73 -2.32 -0 -0 4.7 19.6 25 8.56 -7.12 0 -0 -10.85 55.99 -2.95 0 -0 0 84.01 -1.19 26.16 -15.93 25.43 -3.62 0 0 18.28 -23.7 0.63 -0.28 7.12 -0 -0 2.24 -29.28 0.86
0.53 18.84 -13.45 -0.08 -7.7 8.9 0 0 0 -18.63 -8.23 -12.83 1.52 7.78 22.06 0.56 8.91 -20.05 0.11 -2.18 -6.01 0 0 0 16.75 27.4 -7.35 -1.32 -7.27 20.51 -0.04 -13.31 -19.39 -0.03 1.04 -2.85 -0.71 1.04 7.69 -0.99 1.28 0.26 -0.77 0.64 -4.04 -8.89 -3.21 -11.77 9.22 -4 10.23 4.03 -1.68 5.37 0 -0 0 -88.13 -1.51 9.06 13.56 -22.1 -2.66 -0 -0 3.27 19.78 24.8 8.58 -7.12 0 -0 -10.57 55.82 -2.83 0 -0 0 83.5 -0.43 26.66 -16.54 26.25 -3.88 0 0 17.82 -23.94 0.77 -0.34 7.12 -0 -0 2.05 -29.13 0.79
0.58 18.79 -13.58 0.49 -8.15 10.03 0 0 0 -19.04 -8.65 -15.65 1.77 8.36 23.81 0.58 8.61 -19.99 0.13 -2.36 -6.5 0 0 0 14.98 28.98 -10.88 -1.75 -8.31 23.67 -0.14 -13.09 -20.25 -0.03 1.18 -3.24 -1.28 1.14 9.37 -1.17 1.31 0.55 -0.67 0.66 -4.68 -8.45 -2.98 -11.69 8.8 -3.6 8.4 3.85 -1.51 4.74 0 -0 0 -87.8 -1.74 10.86 14.33 -23.21 -2.96 -0 -0 2.39 20.43 23.81 8.55 -7.12 0 -0 -9.45 54.95 -2.32 0 -0 0 82.82 0.09 27.9 -17.56 27.58 -4.34 0 0 16.35 -23.38 -0.32 0.14 7.12 -0 -0 2.52 -30.32 0.9
0.61 18.73 -13.72 1.15 -8.39 10.89 0 0 0 -19.5 -8.9 -18.32 2.04 8.94 25.62 0.63 7.87 -19.9 0.14 -2.4 -6.6 0 0 0 13.18 30.29 -14.16 -2.2 -9.27 26.63 -0.23 -13 -21.06 -0.03 1.2 -3.3 -2.17 1.12 11.2 -1.27 1.14 1.01 -0.28 0.59 -5.24 -8.43 -2.71 -11.71 8.84 -3.15 6.75 3.89 -1.29 4.2 -0 0 0 -87.35 -2.05 12.72 15.03 -24.18 -3.24 -0 -0 1.14 20.88 23.52 8.66 -7.12 0 -0 -8.87 54.74 -2.13 -0 0 0 82.15 1.22 28.77 -17.85 27.97 -4.48 0 0 15.44 -23.9 0.92 -0.41 7.12 -0 -0 2.09 -28.97 0.81
0.66 18.66 -13.84 1.7 -8.1 11.99 0 0 0 -19.76 -9.51 -21.21 2.35 9.56 27.56 0.69 6.93 -19.73 0.15 -2.48 -6.82 0 0 0 11.29 30.95 -17.61 -2.64 -10.1 29.29 -0.39 -12.46 -22.05 -0.02 0.93 -2.56 -2.64 1 12.7 -1.33 0.87 1.42 -0.06 0.47 -5.65 -8.25 -2.52 -11.61 8.67 -2.84 5.26 3.82 -1.15 3.7 -0 0 0 -86.79 -2.7 14.56 15.18 -24.4 -3.3 -0 -0 0.88 20.88 23.67 8.71 -7.12 0 -0 -8.93 54.89 -2.18 -0 0 0 81.56 2.2 28.92 -18.19 28.41 -4.64 0 0 14.96 -24.31 0.67 -0.3 7.12 -0 -0 1.76 -29.24 0.68
0.7 18.59 -13.94 2.07 -7.51 13.03 0 0 0 -19.91 -9.66 -24.04 2.66 10.13 29.39 0.73 5.68 -19.2 0.18 -2.71 -7.47 0 0 0 9.7 31.31 -20.6 -3.02 -10.73 31.38 -0.51 -12.14 -22.8 -0.03 1.03 -2.83 -2.67 0.75 14.24 -1.43 0.48 1.74 -0.1 0.28 -6.15 -7.96 -2.37 -11.83 8.52 -2.61 4.49 3.74 -1.04 3.48 -0 -0 0 -85.93 -3.33 15.94 15.09 -24.27 -3.26 -0 -0 0.57 21.52 23.32 8.87 -7.12 0 -0 -8.13 54.66 -1.94 -0 -0 0 81.28 2.86 28.75 -18.56 28.87 -4.82 0 0 14.35 -24.23 0.8 -0.36 7.12 -0 -0 1.83 -29.1 0.71
0.72 18.52 -14.02 2.16 -6.87 13.98 0 0 0 -19.67 -10.06 -26.54 2.98 10.67 31.16 0.79 4.54 -19.03 0.2 -2.85 -7.87 0 0 0 8.62 31.38 -23.28 -3.38 -11.29 33.25 -0.62 -11.73 -23.35 -0.01 0.5 -1.36 -2.67 0.59 15.53 -1.29 0.23 2.12 0.09 0.16 -6.46 -7.96 -2.32 -11.76 8.43 -2.49 3.56 3.72 -0.99 3.17 0 0 0 -85.4 -4.16 16.47 14.73 -23.77 -3.12 -0 -0 0.92 21.37 23.12 8.73 -7.12 0 -0 -8.21 54.42 -1.91 0 0 0 80.92 3.48 28.11 -18.55 28.86 -4.81 0 0 13.9 -24.2 0.42 -0.19 7.12 -0 -0 1.86 -29.52 0.7
0.75 18.45 -14.07 2.66 -6.05 14.65 0 0 0 -19.98 -10.56 -28.34 3.24 11.07 32.53 0.82 3.6 -18.79 0.12 -2.24 -6.18 0 0 0 7.35 31.17 -25.37 -3.74 -11.8 35.03 -0.75 -11.4 -24.15 -0 0.34 -0.95 -2.88 0.43 16.79 -1.21 -0.06 2.32 0.36 0.03 -6.92 -8.16 -2.31 -11.47 8.5 -2.46 3.17 3.77 -0.98 3.01 0 -0 0 -85.01 -4.09 16.92 14.53 -23.49 -3.04 -0 -0 0.58 22.04 22.49 8.8 -7.12 0 -0 -7.29 53.91 -1.6 0 -0 0 80.52 3.31 27.42 -18.55 28.85 -4.81 0 0 13.13 -24.51 -0.52 0.24 7.12 -0 -0 1.63 -30.55 0.58
0.78 18.4 -14.08 2.92 -5.68 15.29 0 0 0 -20.03 -11.32 -29.63 3.45 11.39 33.62 0.86 3.28 -19.02 0.08 -1.77 -4.87 0 0 0 6.46 30.98 -27.14 -4.02 -12.19 36.4 -0.82 -11.09 -24.48 -0.01 0.69 -1.9 -2.82 0.37 17.76 -1.25 -0.16 2.53 0.3 -0.02 -7.23 -8.07 -2.34 -11.33 8.51 -2.5 2.77 3.76 -1 2.87 0 -0 0 -84.44 -3.57 17.01 14.29 -23.15 -2.94 -0 -0 0.13 22.87 21.88 8.93 -7.12 0 -0 -6.22 53.42 -1.29 0 -0 0 80.54 2.8 26.23 -18.23 28.45 -4.66 0 0 12.82 -25.45 0.32 -0.15 7.12 -0 -0 0.88 -29.62 0.33
0.79 18.36 -14.07 3.57 -5.37 15.89 0 0 0 -20.6 -11.88 -30.53 3.55 11.54 34.13 0.88 3.01 -19.02 0.07 -1.77 -4.86 0 0 0 5.26 30.44 -28.8 -4.29 -12.54 37.67 -0.89 -10.71 -24.73 -0.01 0.72 -1.99 -3.16 0.38 18.62 -1.39 -0.26 2.6 0.36 -0.06 -7.62 -8.26 -2.4 -11.06 8.77 -2.57 2.35 3.87 -1.03 2.72 -0 -0 0 -83.92 -2.25 16.58 14.09 -22.87 -2.86 -0 -0 0.33 22.45 21.66 8.67 -7.12 0 -0 -6.58 53.12 -1.32 -0 -0 0 80.43 1.54 25.77 -18.2 28.42 -4.65 0 0 11.85 -25.93 0.3 -0.15 7.12 -0 -0 0.5 -29.64 0.19
0.81 18.35 -14.02 3.75 -5.48 16.71 0 0 0 -20.72 -12.24 -31.33 3.59 11.6 34.33 0.9 3.01 -19.3 0.08 -1.77 -4.87 0 0 0 4.51 30.18 -30.11 -4.4 -12.68 38.18 -0.93 -10.31 -24.71 -0.02 0.8 -2.21 -3.36 0.56 19.08 -1.37 -0.08 2.69 0.45 0.04 -7.77 -8.11 -2.47 -11.48 8.66 -2.63 2.09 3.8 -1.06 2.71 0 0 0 -83.56 -0.48 15.74 13.38 -21.84 -2.59 -0 -0 0.38 24.04 20.48 8.87 -7.12 0 -0 -4.6 52.17 -0.81 0 0 0 80.25 0.03 25.55 -18.04 28.21 -4.57 0 0 10.71 -27.04 1.39 -0.71 7.12 -0 -0 -0.36 -28.41 -0.15
0.82 18.34 -13.95 3.82 -5.67 17.59 0 0 0 -20.8 -11.99 -32.27 3.62 11.64 34.47 0.94 2.45 -19.32 0.12 -2.25 -6.19 0 0 0 3.92 29.97 -31.24 -4.46 -12.74 38.41 -0.97 -9.9 -24.67 -0.02 0.85 -2.33 -3.46 0.68 19.51 -1.36 0.04 2.72 0.48 0.1 -7.98 -8.18 -2.51 -11.71 8.8 -2.64 1.44 3.86 -1.06 2.55 0 -0 0 -83.24 1.96 13.47 12.43 -20.44 -2.25 -0 -0 1.77 24.62 20.3 9.03 -7.12 0 -0 -3.96 52.08 -0.69 0 -0 0 79.97 -2.16 25.72 -17.6 27.64 -4.36 0 0 10.62 -27.04 0.95 -0.49 7.12 -0 -0 -0.37 -28.91 -0.14
0.83 18.32 -13.89 3.68 -5.3 19.04 0 0 0 -20.39 -12.09 -34.06 3.74 11.81 35.05 0.96 1.67 -19.15 0.17 -2.67 -7.36 0 0 0 3.36 29.72 -32.97 -4.53 -12.83 38.73 -1.02 -9.78 -25 -0.03 1.14 -3.15 -3.19 0.51 19.48 -1.31 -0.12 2.56 0.43 0.02 -8.13 -7.87 -2.44 -11.97 8.6 -2.52 0.76 3.75 -1 2.37 -0 0 0 -82.61 5.05 11.26 11.35 -18.83 -1.89 -0 -0 3.28 24.73 20.5 9.16 -7.12 0 -0 -3.9 52.31 -0.7 -0 0 0 79.69 -4.24 25.98 -16.5 26.2 -3.87 0 0 10.7 -27.78 1.34 -0.71 7.12 -0 -0 -0.94 -28.46 -0.38
0.83 18.3 -13.79 3.58 -5.31 19.77 0 0 0 -20.23 -12.09 -34.95 3.86 11.98 35.65 0.99 1.37 -19.33 0.21 -2.94 -8.11 0 0 0 3.11 29.7 -33.79 -4.62 -12.94 39.14 -1.11 -9.34 -25.35 -0.03 1.1 -3.02 -3.09 0.54 20.03 -1.29 -0.08 2.69 0.39 0.04 -8.29 -7.71 -2.51 -12.29 8.48 -2.57 -0.22 3.68 -1.02 2.13 0 0 0 -82.12 8.06 8.05 10.25 -17.13 -1.55 -0 -0 5.99 24.65 20.45 9.11 -7.12 0 -0 -3.98 52.24 -0.71 0 0 0 79.43 -6.45 25.64 -15.5 24.84 -3.43 0 0 10.71 -28.02 2.12 -1.13 7.12 -0 -0 -1.1 -27.58 -0.47
0.83 18.26 -13.7 3.64 -5 20.41 0 0 0 -20.09 -12.43 -35.9 4.08 12.27 36.7 1.06 0.89 -19.77 0.21 -2.92 -8.05 0 0 0 2.84 29.45 -34.71 -4.83 -13.19 40.09 -1.22 -9.14 -26.04 -0.04 1.22 -3.34 -2.97 0.49 20.73 -1.31 -0.16 2.79 0.31 -0 -8.55 -7.8 -2.59 -12.35 8.81 -2.6 -1.32 3.8 -1.04 1.82 0 -0 0 -81.61 11.16 4.51 9.33 -15.68 -1.29 -0 -0 9.15 23.28 22.09 9.19 -7.12 0 -0 -5.87 53.73 -1.26 0 -0 0 79.4 -8.89 24.13 -14.3 23.16 -2.94 0 0 12.69 -28.92 3.61 -1.99 7.12 -0 -0 -1.74 -25.86 -0.81
0.81 18.16 -13.62 3.8 -4.65 21.17 0 0 0 -19.84 -13.06 -37.46 4.49 12.79 38.57 1.18 0.09 -20.58 0.16 -2.58 -7.12 0 0 0 2.22 29.19 -36.44 -5.23 -13.64 41.83 -1.43 -8.26 -26.96 -0.02 0.84 -2.3 -3.05 0.5 21.22 -1.24 -0.16 3.09 0.44 -0 -8.49 -8.03 -2.78 -12.54 9.01 -2.75 -2.65 3.9 -1.11 1.47 0 0 0 -81.33 13.45 0.81 8.59 -14.51 -1.1 -0 -0 11.97 22.62 22.66 9.12 -7.12 0 -0 -6.75 54.19 -1.53 0 0 0 79.39 -10.83 21.95 -13.34 21.79 -2.58 0 0 14.52 -28.55 2.04 -1.11 7.12 -0 -0 -1.52 -27.66 -0.64
0.79 18.01 -13.58 4.33 -3.74 22.24 0 0 0 -19.7 -13.99 -39.75 5.03 13.42 40.96 1.3 -1.2 -21.24 0.13 -2.36 -6.5 0 0 0 1.25 28.1 -39.32 -5.92 -14.35 44.65 -1.71 -7 -28.1 -0.02 0.81 -2.24 -3.1 0.32 21.79 -1.28 -0.43 3.23 0.5 -0.13 -8.63 -8.05 -3.03 -13.29 9.16 -3.01 -3.3 3.93 -1.22 1.42 0 0 0 -80.86 14.88 -2.77 8.01 -13.57 -0.95 -0 -0 13.56 22.48 23.18 9.25 -7.12 0 -0 -7.08 54.7 -1.69 0 0 0 79.52 -12.17 20.36 -12.23 20.14 -2.18 0 0 15.43 -28.4 2.05 -1.11 7.12 -0 -0 -1.4 -27.65 -0.59
0.76 17.83 -13.53 5.08 -3 23.1 0 0 0 -19.78 -14.92 -41.9 5.69 14.12 43.71 1.47 -2.57 -22.21 0.11 -2.17 -5.96 0 0 0 0.22 26.79 -42.23 -6.76 -15.13 47.96 -1.99 -5.87 -29.29 -0.04 1.26 -3.46 -3.37 0.23 22.39 -1.36 -0.64 3.25 0.62 -0.22 -8.93 -8.05 -3.22 -13.04 9.23 -3.22 -4.29 3.95 -1.34 1.11 -0 0 0 -80.69 16.45 -4.4 7.99 -13.53 -0.95 -0 -0 12.85 22.93 23.5 9.57 -7.12 0 -0 -6.73 55.12 -1.68 -0 0 0 79.69 -13.52 18.64 -11.4 18.9 -1.9 0 0 17.91 -27.55 1.83 -0.96 7.12 -0 -0 -0.75 -27.91 -0.31
0.73 17.61 -13.47 5.52 -2.47 23.45 0 0 0 -19.63 -15.65 -43.81 6.54 14.93 47.12 1.69 -3.76 -23.66 0.13 -2.32 -6.4 0 0 0 -0.31 25.65 -44.87 -7.8 -15.97 51.84 -2.29 -4.77 -30.58 -0.08 1.77 -4.87 -3.37 0.25 23.3 -1.39 -0.65 3.48 0.6 -0.22 -9.15 -8.21 -3.43 -13.24 9.36 -3.44 -4.89 4.01 -1.44 0.99 0 -0 0 -80.98 16.7 -6.62 8.11 -13.73 -0.98 -0 -0 12.8 23.28 24.76 10.21 -7.12 0 -0 -6.86 56.51 -1.94 0 -0 0 80.05 -13.76 16.22 -10.47 17.48 -1.61 0 0 20.72 -26.52 1.96 -0.98 7.12 -0 -0 0.05 -27.79 0.02
0.7 17.39 -13.4 6.22 -2.14 23.66 0 0 0 -19.85 -16.09 -45.45 7.38 15.65 50.31 1.9 -5.11 -24.96 0.11 -2.17 -5.98 0 0 0 -1.1 24.74 -47.32 -8.96 -16.78 55.95 -2.6 -3.98 -32.07 -0.12 2.22 -6.1 -3.73 0.35 24.2 -1.51 -0.65 3.57 0.67 -0.2 -9.52 -8.26 -3.57 -13.14 9.46 -3.6 -5.4 4.05 -1.52 0.84 -0 -0 0 -81.12 15.95 -7.03 8.02 -13.58 -0.96 -0 -0 12.65 23.54 24.79 10.35 -7.12 0 -0 -6.59 56.59 -1.88 -0 -0 0 80.57 -13.26 14.35 -9.35 15.71 -1.29 0 0 21.71 -28.14 3.05 -1.63 7.12 -0 -0 -1.17 -26.52 -0.52
0.71 17.17 -13.21 7.49 -1.43 23.28 0 0 0 -21.15 -16.74 -45.52 8.16 16.23 53.13 2.2 -6.26 -26.81 0.15 -2.48 -6.82 0 0 0 -1.84 22.97 -47.95 -9.98 -17.4 59.44 -3 -2.85 -33.86 -0.24 3.15 -8.68 -3.81 0.18 24.52 -1.75 -0.93 3.9 0.54 -0.34 -9.31 -8.1 -3.61 -13.38 9.23 -3.65 -5.58 3.94 -1.55 0.82 -0 -0 0 -81.51 14.17 -6.01 7.87 -13.35 -0.92 -0 -0 12.98 22.85 24.67 9.98 -7.12 0 -0 -7.27 56.32 -2.03 -0 -0 0 80.82 -11.68 11.15 -8.17 13.83 -0.99 0 0 26.11 -26.08 1.76 -0.86 7.12 -0 -0 0.38 -28.02 0.16
0.68 16.93 -13.04 7.12 -0.79 23.06 0 0 0 -20.35 -16.79 -46.63 9.18 16.93 56.73 2.46 -7.28 -28.33 0.2 -2.89 -7.97 0 0 0 -1.09 22.68 -48.96 -11.17 -18.02 63.33 -3.41 -2.35 -35.81 -0.27 3.35 -9.25 -3.28 0.19 24.66 -1.46 -0.74 3.98 0.5 -0.26 -9.3 -7.96 -3.61 -13.77 9.01 -3.64 -5.56 3.85 -1.54 0.87 0 0 0 -82.19 11.57 -4.24 7.79 -13.22 -0.9 -0 -0 13.46 23.16 24.04 9.89 -7.12 0 -0 -6.7 55.74 -1.77 0 0 0 81.03 -9.37 8.06 -7.02 11.96 -0.74 0 0 29.38 -27.56 3.04 -1.59 7.12 -0 -0 -0.73 -26.55 -0.32
0.72 16.66 -12.88 8.08 -0.17 22.82 0 0 0 -21.04 -18.03 -47.36 10.4 17.63 60.83 2.76 -8.15 -30.01 0.22 -3.01 -8.3 0 0 0 -1.85 21.07 -50.43 -12.52 -18.6 67.64 -3.68 -2.47 -37.26 -0.49 4.5 -12.49 -2.99 -0.08 25.25 -1.6 -1.06 3.77 0.29 -0.41 -9.85 -8.05 -3.59 -14.11 8.88 -3.55 -5.84 3.83 -1.49 0.83 -0 -0 0 -83.28 8.97 0.75 8.61 -14.54 -1.1 -0 -0 10.12 22.94 24.26 9.87 -7.12 0 -0 -7.01 55.92 -1.88 -0 -0 0 80.94 -6.82 7.93 -6.59 11.25 -0.65 0 0 28.75 -29.02 2.15 -1.19 7.12 -0 -0 -1.87 -27.52 -0.8
0.7 16.35 -12.69 7.94 0.3 22.27 0 0 0 -20.23 -18.78 -48.39 11.89 18.34 65.65 2.89 -9.07 -30.67 0.33 -3.69 -10.19 0 0 0 -1.42 20.44 -51.59 -14.14 -19.16 72.63 -3.93 -1.89 -38.28 -0.71 5.37 -14.98 -2.72 -0.05 25.51 -1.32 -0.94 3.72 0.4 -0.35 -10.05 -8.27 -3.61 -14.4 9.06 -3.49 -6.49 3.93 -1.45 0.68 0 0 0 -84.32 5.45 7.06 9.58 -16.09 -1.36 -0 -0 5.73 22.54 24.97 9.94 -7.12 0 -0 -7.73 56.57 -2.2 0 0 0 80.93 -3.59 9.69 -7.17 12.2 -0.77 0 0 24.82 -29.41 1.67 -0.94 7.12 -0 -0 -2.19 -28.06 -0.9
0.71 16.05 -12.49 8.24 0.77 21.44 0 0 0 -19.89 -19.99 -49.17 13.62 19 71.05 2.95 -9.17 -31.01 0.61 -5.01 -13.95 0 0 0 -1.76 19.26 -53.16 -16.04 -19.62 78.36 -3.94 -0.66 -37.9 -0.92 6.12 -17.12 -2.62 -0.14 26.05 -1.26 -1.04 3.64 0.45 -0.4 -10.42 -8.12 -3.54 -14.81 8.83 -3.35 -7.32 3.85 -1.37 0.47 0 -0 0 -85.36 1.12 13.26 10.78 -17.95 -1.71 -0 -0 1.79 22.6 23.95 9.59 -7.12 0 -0 -7.25 55.53 -1.88 0 -0 0 80.91 0.22 14.36 -8.67 14.63 -1.12 0 0 16.34 -30.75 0.54 -0.32 7.12 -0 -0 -3.28 -29.35 -1.25
0.73 15.76 -12.25 8.75 0.75 20.09 0 0 0 -20.54 -20.36 -49.17 15.29 19.46 76.1 3.06 -7.49 -31.72 1.21 -6.97 -19.63 0 0 0 -2.45 18.16 -54.01 -17.96 -19.9 84.03 -3.61 0.33 -35.98 -1.23 7.05 -19.85 -2.78 -0.09 26.3 -1.46 -1.04 3.79 0.32 -0.4 -10.37 -7.93 -3.5 -14.96 8.47 -3.28 -8.56 4.08 -1.35 0.13 0 0 0 -85.96 -4.82 20.22 11.6 -19.2 -1.97 -0 0 -1.63 24.05 23.28 10 -7.12 0 -0 -5.47 55.12 -1.36 0 0 0 81.08 5.24 18.24 -11.11 18.46 -1.81 0 0 8.24 -29.87 -1.67 0.96 7.12 -0 -0 -2.65 -31.9 -0.85
0.75 15.49 -11.95 9.81 0.69 18.97 0 0 0 -22.1 -20.53 -47.97 16.36 19.68 79.31 3 -9.43 -31.29 0.37 -3.92 -10.86 0 0 0 -3.66 16.6 -54.48 -19.67 -20 89.03 -3.49 2.08 -34.91 -1.82 8.48 -24.18 -3.63 -0.01 25.36 -1.77 -1.16 3.66 0.5 -0.44 -10.02 -7.87 -3.41 -15.55 8.35 -3.12 -8.45 4.03 -1.26 0.25 0 -0 0 -86.55 -11.16 27.57 13.98 -22.7 -2.82 -0 0 -8.27 24.8 24.58 10.88 -7.12 0 -0 -5.15 56.65 -1.47 0 -0 0 81.32 10.6 22.26 -13.7 22.3 -2.71 0 0 1.07 -33.58 -0.9 0.6 7.12 -0 -0 -5.58 -31.04 -1.91
0.73 15.29 -11.6 8.52 1.29 17.33 0 0 0 -21.08 -19.96 -45.78 17.23 19.81 81.86 3.32 -9.89 -32.94 0.58 -4.88 -13.57 0 0 0 -1.39 16.5 -52.57 -20.68 -19.99 91.98 -3.39 1.64 -34.51 -2.17 9.21 -26.45 -2.67 0.09 24.14 -1.33 -0.71 3.37 0.28 -0.25 -9.72 -7.67 -3.49 -16.97 8.12 -3.19 -7.26 3.55 -1.27 0.76 -0 -0 0 -87.26 -17.47 32.64 20.2 -30.88 -5.63 -0 0 -15.01 24.89 24.56 10.91 -7.12 0 -0 -5.05 56.65 -1.44 -0 -0 0 81.58 16.05 22.92 -18.02 28.19 -4.56 0 -0 -0.51 -31.59 -2.45 1.51 7.12 -0 -0 -4.06 -32.84 -1.21
0.72 15.26 -11.12 7.67 0.9 14.36 0 0 0 -21.84 -18.09 -40.41 17.34 19.83 82.21 3.65 -9.62 -34.68 0.84 -5.85 -16.35 0 0 0 0.93 17.69 -46.6 -20.67 -19.99 91.96 -3.46 1.99 -34.81 -2.47 9.78 -28.26 -2.68 0.72 23.42 -1.06 0.16 3.32 0.32 0.15 -9.41 -7.34 -3.68 -18.52 7.24 -3.46 -5.99 3.18 -1.39 1.35 0 -0 0 -85.57 -25.98 38.22 30 -40.89 -11.41 -0 0 -19.54 29.97 26.06 14.22 -7.12 0 -0 0.14 59.42 0.05 0 -0 0 79.98 21.71 24.7 -24.83 36.03 -8.19 0 -0 -2.17 -33.51 0.65 -0.43 7.12 -0 -0 -5.42 -29.18 -2.1
0.63 15.4 -10.68 6.8 2.09 12.84 0 0 0 -21.6 -16.57 -36.02 16.57 19.72 79.92 3.59 -9.68 -34.34 1.23 -7.03 -19.81 0 0 0 4.17 17.49 -41.23 -19.79 -20 89.39 -3.36 1.8 -34.3 -2.34 9.53 -27.47 -2.8 0.38 22.37 -0.5 -0.22 2.57 1.12 -0 -9.68 -7.71 -3.49 -19.65 7.39 -3.05 -5.66 3.31 -1.15 1.59 0 0 0 -79.5 -36.26 37.81 41.99 -49.21 -19.93 -0 0 -18.49 30.6 22.37 12.69 -7.12 0 -0 1.83 55.53 0.47 0 0 0 75.97 30.55 26 -32.28 42.77 -12.93 0 0 0.72 -33.32 1.81 -1.19 7.12 -0 -0 -5.2 -27.8 -2.18
0.57 15.83 -9.98 5.76 0.5 9.85 0 0 0 -22.17 -9.88 -28.16 14.3 19.2 73.11 3.24 -10.92 -32.54 1.24 -7.05 -19.87 0 0 0 8.26 17.82 -31.38 -17.46 -19.84 82.55 -3.11 1.38 -33.06 -2.19 9.25 -26.59 -3.52 0.65 21.58 -0.3 -0.01 2.17 1.69 0.13 -9.7 -7.42 -2.92 -21.08 7.4 -2.32 -4.36 3.31 -0.76 2.13 0 -0 0 -67.13 -45.39 28.88 55.91 -55.12 -30.96 -0 0 -18.27 32 22.21 13.29 -7.12 0 -0 3.41 55.66 0.89 0 -0 0 70.57 39.63 25.56 -42.08 49.26 -20 0 0 3.36 -34.12 0.84 -0.57 7.12 -0 -0 -5.88 -28.95 -2.31
0.56 16.52 -9.03 5.38 -1.05 8.15 0 0 0 -22.58 -3.46 -19.77 10.99 17.93 62.74 2.18 -11.63 -26.63 1.39 -7.45 -21.05 0 0 0 10.63 15.87 -21.58 -13.97 -19.11 72.12 -2.37 2.18 -28.55 -1.8 8.44 -24.07 -3.94 0.84 18.26 -0.36 0.26 1.14 1.79 0.28 -9.03 -7.43 -2.82 -21.66 7.8 -2.23 -2.57 3.44 -0.69 2.77 0 0 0 -53.3 -49.84 15.53 67.06 -57.92 -40.28 -0 0 -15.58 33.25 20.27 12.8 -7.12 0 -0 5.07 53.74 1.09 0 0 0 62.63 46.14 21.8 -51.93 53.74 -27.72 0 0 6.48 -34.17 1.66 -1.13 7.12 -0 -0 -5.86 -27.95 -2.44
0.57 17.51 -7.77 5.45 -2.15 6.4 0 0 0 -22.92 1.28 -9.37 7.14 15.45 49.4 0.55 -7.44 -13.41 1.71 -8.24 -23.44 0 0 0 12.14 13.67 -9.81 -9.6 -17.18 58.15 -0.92 0.93 -17.83 -2.03 8.92 -25.54 -4.08 0.79 14.04 -0.3 0.33 -1.08 1.92 0.35 -9.09 -7.67 -2.26 -21.07 7.62 -1.69 2.1 3.48 -0.44 4.08 -0 -0 0 -44.96 -48.21 6.97 71.78 -58.71 -44.29 -0 0 -13.09 33.98 16.87 11.07 -7.12 0 -0 6.12 49.97 0.75 -0 -0 0 54.86 47.84 19.61 -56.59 55.33 -31.52 0 0 4.2 -35.79 3.26 -2.35 7.12 -0 -0 -6.94 -25.95 -3.23
0.58 18.78 -6.28 3.84 -1.04 6.35 0 0 0 -21.23 0.42 0.14 3.77 11.84 35.18 0.21 2.84 8.08 1.44 -7.58 -21.44 0 0 0 16.06 14.24 1.81 -5.18 -13.58 41.6 0.18 -8.32 0.72 -1.62 8.01 -22.76 -1.87 0.27 5.82 0.29 0.21 -3.54 1.33 0.2 -6.97 -7.38 -1.96 -18.44 6.89 -1.67 7.33 3.22 -0.53 5.31 0 0 0 -45.18 -45.23 6.86 71.03 -58.6 -43.65 -0 0 -10.67 34.49 15.34 10.3 -7.12 0 -0 6.7 48.28 0.54 0 0 0 49.63 45.37 18.85 -56.2 55.21 -31.2 0 0 5.99 -36.92 5.33 -3.99 7.12 -0 -0 -7.54 -23.34 -3.97
0.57 20.02 -4.92 2.1 -0.85 6.77 0 0 0 -20.17 -3.91 6.13 2.03 8.94 25.59 2.52 14.82 28.91 0 -0.36 -0.98 0 0 0 20.1 19.27 9.66 -2.92 -10.57 30.84 -1.47 -18.63 23.7 -0.02 1.02 -2.79 0.9 0.55 -1.81 0.05 0.75 -5.31 -0.46 0.34 -4.44 -6.61 -2.09 -16.51 7.21 -2.44 12.31 3.16 -0.87 6.63 -0 0 0 -48.76 -42.02 9.53 69.55 -58.36 -42.39 -0 0 -8.08 32.9 13.51 8.59 -7.12 0 -0 5.21 45.88 0.11 -0 0 0 48.68 41.23 18.46 -54.23 54.57 -29.59 0 0 8.47 -34.36 5.25 -3.58 7.12 -0 -0 -5.68 -23.63 -2.94
0.57 21.01 -3.98 1.76 -0.67 6.28 0 0 0 -19.73 -3.98 4.41 2.44 9.73 28.11 2.8 12.68 30.25 0.09 1.88 5.18 0 0 0 21.11 20.36 8.41 -3.44 -11.38 33.56 -2.61 -14.51 29.34 -0.01 -0.61 1.67 1.62 0.63 -4.36 -0.07 0.81 -5.51 -0.97 0.35 -3.21 -6.44 -2.16 -15.89 7.38 -2.67 13.21 3.17 -0.97 6.83 -0 0 0 -53.14 -37.51 10.11 69.17 -58.3 -42.07 -0 0 -6.4 31.38 14.4 8.63 -7.12 0 -0 3.7 46.69 0.15 -0 0 0 48.79 38.2 17.68 -50.76 53.3 -26.79 0 0 11.69 -30.44 4.43 -2.6 7.12 -0 -0 -2.84 -24.84 -1.38
0.52 21.83 -3.27 3.01 -0.73 2.46 0 0 0 -20.69 -1.16 3.11 3.23 11.06 32.5 2.33 15.89 28.02 0.08 1.79 4.93 0 0 0 19.9 17.05 5.71 -4.93 -13.3 40.5 -1.45 -22.97 25.22 -0.09 -1.97 5.41 -0.1 0.52 -0.3 -0.32 0.68 -4.13 -0.3 0.34 -4.08 -6.14 -2.2 -16.11 7.04 -2.69 12.38 3 -0.99 6.59 0 -0 0 -58.18 -32.76 9.19 66.42 -57.79 -39.73 -0 0 -4.91 29.11 15.32 8.37 -7.12 0 -0 1.43 47.38 0.08 0 -0 0 50.17 35.19 17.08 -47.26 51.83 -24 0 0 14.67 -29.16 2.67 -1.49 7.12 -0 -0 -1.96 -26.93 -0.86
0.51 22.49 -2.61 3.66 -0.7 -1.05 0 0 0 -20.84 0.8 2 3.54 11.53 34.08 2.71 14.47 29.88 0.04 1.28 3.51 0 0 0 18.63 14.67 3.67 -5.62 -14.05 43.46 -1.19 -24.83 24.64 -0.17 -2.69 7.41 -0.77 0.56 4.36 -0.52 0.68 -2.6 -0.17 0.35 -5.14 -5.55 -2.17 -16.56 6.48 -2.66 12.13 2.72 -0.99 6.57 -0 -0 0 -62.91 -28.05 8.6 59.27 -56.11 -33.73 -0 0 -2.77 29.14 17.51 9.53 -7.12 0 -0 1.17 49.84 0.14 -0 -0 0 51.98 32.29 16.5 -42.08 49.25 -20 0 0 17.37 -26.61 2.19 -1.1 7.12 -0 -0 -0.02 -27.53 -0.01
0.5 22.98 -1.87 4.5 -0.5 -2.71 0 0 0 -21.42 1.41 0.27 3.25 11.09 32.57 2.92 11.38 30.83 0 -0.16 -0.43 0 0 0 16.98 14.12 1.74 -5.25 -13.66 41.89 -1.5 -21.39 24.84 -0.02 -0.93 2.54 -1.52 0.49 5.98 -0.76 0.51 -1.41 0.02 0.28 -4.83 -5.53 -2.11 -16.28 6.51 -2.59 11.92 2.74 -0.96 6.45 0 0 0 -66.98 -24.34 7.8 48.6 -52.42 -25.06 -0 0 -0.57 26.71 19.04 9.32 -7.12 0 -0 -1.54 51.1 -0.23 0 0 0 54.11 29.17 17.29 -36.73 46.01 -16.05 0 0 19.56 -25.8 1.68 -0.81 7.12 -0 -0 0.61 -28.12 0.25
0.48 23.26 -1.21 3.27 -0.97 -1.87 0 0 0 -20 0.06 -4.61 2.92 10.56 30.8 2.5 10.04 28.43 0.02 -0.82 -2.25 0 0 0 17.53 15.89 -2.19 -4.45 -12.74 38.4 -1.19 -18 21.74 -0 0.2 -0.55 -0.49 0.55 6.62 -0.31 0.67 -1.33 -0.12 0.34 -5.09 -5.34 -2.02 -16.08 6.07 -2.46 12.08 2.57 -0.93 6.45 -0 -0 0 -70.17 -20.43 8.54 38.79 -47.34 -17.54 -0 0 -2.17 27.11 20.28 10.06 -7.12 0 -0 -1.41 52.52 -0.26 -0 -0 0 56.31 26.13 18.51 -31.58 42.21 -12.46 0 0 20.96 -24.95 2.09 -0.97 7.12 -0 -0 1.26 -27.68 0.53
0.48 23.33 -0.5 3.12 -0.59 -1.97 0 0 0 -19.9 -2.77 -7.37 2.48 9.8 28.34 1.79 10.6 24.07 0.01 -0.57 -1.57 0 0 0 17.06 16.8 -4.25 -3.47 -11.42 33.71 -0.55 -17.59 17.05 -0 0 -0.01 -0.36 0.36 7.58 -0.19 0.44 -0.61 -0.05 0.23 -4.89 -5.35 -1.9 -15.88 6.11 -2.28 11.23 2.6 -0.84 6.14 0 -0 0 -72.19 -17.21 10.88 30.54 -41.35 -11.76 -0 0 -6.7 24.57 22.23 9.81 -7.12 0 -0 -4.58 54.12 -1.03 0 -0 0 58.19 23.13 20.12 -27.46 38.62 -9.79 0 0 20.24 -25.1 2.16 -1.01 7.12 -0 -0 1.14 -27.6 0.48
0.48 23.23 0.22 2.73 -0.26 -2.37 0 0 0 -19.19 -6.13 -9.09 1.97 8.8 25.16 1.18 12.19 19.95 0.01 -0.63 -1.74 0 0 0 16.78 18.12 -5.09 -2.45 -9.74 28.14 0.19 -19.5 12.01 -0.03 1.03 -2.83 -0.04 0.21 9.04 -0.04 0.27 0.07 -0.06 0.13 -5 -5 -1.84 -15.82 5.69 -2.19 10.65 2.42 -0.82 5.93 0 -0 0 -73.84 -14.19 14.43 23.67 -34.81 -7.52 -0 0 -8.82 23.82 23.34 9.92 -7.12 0 -0 -5.73 55.14 -1.43 0 -0 0 60.02 19.78 22.37 -24.08 35.25 -7.75 0 0 17.5 -25.69 1.55 -0.74 7.12 -0 -0 0.69 -28.26 0.28
0.46 22.93 0.94 2.35 -0.02 -2.78 0 0 0 -18.03 -9.87 -10.58 1.48 7.68 21.74 0.73 13.32 16.67 0.04 -1.35 -3.71 0 0 0 16.4 19.71 -5.76 -1.64 -8.06 22.91 0.86 -21.88 7.79 -0.03 1.05 -2.88 0.1 0.05 10.52 0.11 0.08 0.81 0.04 0.04 -5.06 -5.18 -1.82 -16.15 6 -2.13 10.28 2.54 -0.77 5.87 -0 0 0 -75.49 -11.35 16.16 18.51 -28.8 -4.79 -0 0 -2.68 20.1 25.36 8.9 -7.12 0 -0 -10.5 56.45 -2.97 -0 0 0 61.93 16.92 24.32 -20.9 31.71 -5.99 0 0 14.8 -25.07 1.44 -0.67 7.12 -0 -0 1.16 -28.39 0.47
0.45 22.42 1.69 2.77 -0.16 -3.09 0 0 0 -17.55 -12.35 -12.32 1.07 6.56 18.43 0.41 16.72 15.44 0.01 -0.58 -1.59 0 0 0 14.9 21.1 -6.94 -1.06 -6.54 18.35 1.48 -24.43 4.49 -0.05 1.47 -4.05 -0.53 0.07 11.52 -0.06 0.02 1.42 0.23 0.02 -4.97 -4.82 -1.79 -15.8 5.88 -2.15 9.57 2.44 -0.78 5.58 0 0 0 -77.24 -7.93 18.07 14.94 -24.07 -3.2 -0 -0 2.24 18.94 22.37 7.44 -7.12 0 -0 -10.38 53.19 -2.11 0 0 0 63.95 13.85 26.51 -18.47 28.75 -4.77 0 0 13.44 -22.91 -1.63 0.69 7.12 -0 -0 2.94 -31.74 0.96
0.44 21.69 2.48 3.73 -0.64 -3.62 0 0 0 -17.6 -13.59 -13.45 0.72 5.43 15.13 0.15 20.69 15.72 0.01 0.46 1.27 0 0 0 12.73 23.01 -8.12 -0.74 -5.49 15.3 2.18 -27.92 2.68 -0.05 1.51 -4.15 -1.52 0.33 11.97 -0.49 0.21 1.82 0.32 0.13 -4.8 -4.75 -1.93 -15.12 6.01 -2.39 9.54 2.45 -0.9 5.47 0 0 0 -78.75 -3.56 20.1 12.95 -21.21 -2.43 -0 -0 5.07 19.63 21.78 7.54 -7.12 0 -0 -9.47 52.72 -1.81 0 0 0 66.16 9.94 28.63 -16.55 26.26 -3.89 0 0 14.27 -24.43 0.79 -0.36 7.12 -0 -0 1.67 -29.11 0.65
0.45 20.73 3.33 4.2 -1.33 -4.9 0 0 0 -17.82 -12.02 -14.37 0.65 5.16 14.38 0.16 22.24 16.88 0.03 1.12 3.07 0 0 0 11.55 23.85 -9.12 -0.69 -5.3 14.78 2.32 -29.07 3.54 -0.02 0.95 -2.61 -1.6 0.55 11.95 -0.75 0.49 2.27 0.04 0.26 -4.33 -4.1 -1.68 -13.39 4.99 -2.1 9.01 2.05 -0.84 4.99 0 -0 0 -80.54 1.39 20.42 12.16 -20.05 -2.16 -0 -0 5.53 19.34 21.51 7.33 -7.12 0 -0 -9.66 52.39 -1.77 0 -0 0 68.37 6 30.27 -15.05 24.21 -3.25 0 0 14.32 -23.98 0.74 -0.33 7.12 -0 -0 2.03 -29.17 0.78
0.47 19.52 4.27 3.66 -2.53 -7.19 0 0 0 -17.68 -8.1 -16.31 1.27 7.16 20.18 0.48 21.22 18.44 0.01 0.73 2 0 0 0 12.81 22.12 -11.15 -1.25 -7.09 19.99 1.38 -25.5 7.24 -0.07 1.77 -4.86 -0.5 0.73 11.49 -0.65 0.88 2.85 -0.52 0.44 -3.46 -5.36 -1.69 -12.59 5.96 -2.08 10.26 2.57 -0.82 5.27 -0 0 0 -82.38 6.79 19.38 12.29 -20.23 -2.2 -0 -0 4.65 18.12 22.73 7.2 -7.12 0 -0 -11.36 53.41 -2.37 -0 0 0 70.33 2.39 31.4 -13.77 22.4 -2.74 0 0 14.13 -23.67 1.52 -0.67 7.12 -0 -0 2.25 -28.31 0.91
0.48 18.02 5.15 4.05 -3.22 -10.49 0 0 0 -18.65 -3.15 -20.57 4.13 12.33 36.91 0.01 2.05 1.96 0.17 -2.67 -7.35 0 0 0 13.83 18.29 -16.76 -4.35 -12.61 37.93 0.18 -8.48 -7.48 -0.19 2.81 -7.74 -0.75 0.81 12.72 -0.78 0.94 3.21 -0.53 0.47 -3.76 -5.46 -1.34 -10.96 6.12 -1.68 10.12 2.67 -0.64 4.93 -0 -0 0 -84.15 12.28 17.25 12.86 -21.08 -2.4 -0 -0 2.55 17.65 23.33 7.18 -7.12 0 -0 -12.09 53.92 -2.68 -0 -0 0 72.44 -0.62 30.71 -12.64 20.75 -2.32 0 0 15.92 -21.52 2.25 -0.89 7.12 -0 -0 3.9 -27.55 1.66
0.45 16.73 5.74 8.07 -2.2 -16.39 0 0 0 -22.59 -3.46 -22.78 8.77 16.66 55.29 0.3 -3.29 -9.67 0.07 -1.75 -4.82 0 0 0 10.15 18.64 -21.63 -10.22 -17.53 60.22 -0.83 -3.05 -18.61 -0.02 0.81 -2.22 -5.22 1.19 17.93 -1.89 0.51 4.96 0.84 0.28 -4.73 -6.1 -1.47 -9.96 6.99 -1.82 7.96 3.03 -0.7 4.12 -0 0 0 -86.31 13.93 13.46 12.72 -20.87 -2.35 -0 -0 0.6 19.71 24.49 8.45 -7.12 0 -0 -10.49 55.49 -2.72 -0 0 0 75.64 -0.89 26.82 -11.32 18.78 -1.88 0 0 19.36 -24.08 0.67 -0.3 7.12 -0 -0 1.95 -29.24 0.75
0.42 15.83 6.28 9.57 -1.83 -20.87 0 0 0 -23.2 -2.43 -23.94 12.81 18.71 68.54 0.63 -6.63 -14.23 0.09 -1.9 -5.24 0 0 0 9.35 17.07 -23.47 -14.56 -19.27 73.89 -1.67 -1.86 -25.18 -0.05 1.4 -3.84 -6.75 1.81 19.83 -2.01 1.01 7.55 1.46 0.43 -2.98 -6.98 -2 -9.05 6.87 -2.34 5.34 3.1 -1.01 3.22 -0 -0 0 -87.89 7.99 1.57 7.54 -12.81 -0.85 -0 -0 11.33 20.23 24.75 8.77 -7.12 0 -0 -10.07 55.87 -2.7 -0 -0 0 78.79 0.97 16.91 -8.74 14.74 -1.13 0 0 24.31 -28.19 -1.78 0.95 7.12 -0 -0 -1.3 -32 -0.41
0.4 15.32 6.78 8.23 -2.94 -20.39 0 0 0 -20.9 0.33 -25.73 14.24 19.18 72.93 1.64 -8.38 -22.96 0.05 -1.38 -3.8 0 0 0 10.92 15.88 -25.01 -16.16 -19.64 78.72 -2.7 0.2 -31.09 -0.02 0.83 -2.27 -4.83 1.71 16.86 -1.8 1.47 7.93 0.58 0.64 -1.05 -6.65 -1.96 -8.95 6.62 -2.39 7.28 2.97 -1.04 3.79 0 -0 0 -89.17 5.5 -16.47 6.03 -10.32 -0.54 -0 -0 30.29 22.61 27.37 10.84 -7.12 0 -0 -8.78 59.05 -3.03 0 -0 0 82.54 1.85 0.77 -6.25 10.67 -0.58 0 0 38.26 -28.42 -1.4 0.76 7.12 -0 -0 -1.48 -31.57 -0.49
0.37 14.93 7.09 7.92 -3.3 -19.62 0 0 0 -19.74 0.02 -28.08 16 19.61 78.22 2.08 -9.71 -25.91 0.11 -2.11 -5.81 0 0 0 10.68 15.76 -27.61 -17.85 -19.89 83.7 -2.98 0.72 -32.56 -0.18 2.77 -7.64 -4.24 1.37 16.87 -1.97 1.07 7.17 0.13 0.48 -1.83 -7.08 -1.58 -9.32 7.12 -1.91 8.75 3.23 -0.78 4.27 -0 -0 0 -89.4 6.49 -8.91 7.14 -12.14 -0.76 -0 -0 19.94 21.62 27.28 10.29 -7.12 0 -0 -9.82 58.73 -3.32 -0 -0 0 84.91 0.89 3.39 -5.87 10.04 -0.52 0 0 37.59 -23.96 0.02 -0.01 7.12 -0 -0 2.05 -29.96 0.75
0.29 14.79 7.32 7.99 -3.1 -19.82 0 0 0 -19.76 -0.86 -27.59 16.62 19.72 80.08 2.36 -9.77 -27.6 0.1 -2 -5.51 0 0 0 10.84 14.81 -27.61 -18.54 -19.95 85.72 -3.45 1.55 -34.86 -0.1 2.08 -5.74 -5.09 1.47 17.84 -1.85 1.01 7.6 0.73 0.43 -1.89 -7.35 -1.75 -9.69 7.39 -2.01 6.65 3.34 -0.82 3.71 0 -0 0 -89.25 5.58 -1.01 8.79 -14.82 -1.14 -0 -0 10.28 18.33 25.25 8.04 -7.12 0 -0 -12.29 55.97 -3.34 0 -0 0 85.9 -0.67 16.01 -7.94 13.46 -0.94 0 0 25.79 -19.35 1.75 -0.62 7.12 -0 -0 5.59 -28.11 2.31
0.22 14.82 7.52 7.55 -3.68 -19.06 0 0 0 -19.3 -1.68 -27.22 16.65 19.73 80.17 2.61 -8.81 -29.12 0.11 -2.18 -6.02 0 0 0 11.86 14.9 -27.3 -18.48 -19.94 85.54 -3.59 1.29 -35.63 -0.17 2.68 -7.39 -4.99 1.59 17.79 -1.81 1.19 7.68 0.69 0.52 -1.79 -7.84 -2.07 -9.27 8.16 -2.36 4.41 3.63 -0.98 3.01 0 0 0 -88.24 4.21 4.65 9.89 -16.57 -1.44 -0 -0 5.71 20.73 21.68 7.96 -7.12 0 -0 -8.32 52.82 -1.61 0 0 0 86.73 -0.88 21.04 -8.45 14.28 -1.06 0 0 21.3 -21.98 2.15 -0.87 7.12 -0 -0 3.55 -27.66 1.5
0.15 14.96 7.66 7.53 -4.03 -18.33 0 0 0 -19.7 -2.94 -26.26 16.26 19.66 79.01 2.78 -7.26 -30.18 0.15 -2.52 -6.94 0 0 0 12.32 15.09 -26.75 -17.99 -19.9 84.13 -3.59 0.76 -35.78 -0.22 3.01 -8.29 -5.35 1.73 18.12 -1.86 1.29 7.59 0.81 0.56 -2.06 -7.83 -2.45 -9.47 8.32 -2.84 3.7 3.65 -1.21 2.87 0 0 0 -87.46 2.06 5.16 10.08 -16.86 -1.5 -0 -0 6.89 24.14 22.02 9.54 -7.12 0 -0 -4.96 53.82 -1.08 0 0 0 87.5 -0.38 21.05 -8.22 13.91 -1.01 0 0 22.48 -26.53 0.17 -0.09 7.12 -0 -0 0.03 -29.78 0.01
0.09 15.19 7.8 7 -4.73 -16.93 0 0 0 -19.45 -4.01 -25.5 15.53 19.51 76.83 2.8 -5.99 -30.46 0.13 -2.31 -6.37 0 0 0 13.33 15.36 -26.28 -17.16 -19.81 81.67 -3.55 0.61 -35.59 -0.19 2.82 -7.78 -5.05 1.71 17.42 -1.74 1.35 7.32 0.77 0.6 -1.98 -7.71 -2.66 -9.82 8.19 -3.12 4.12 3.57 -1.34 3.07 -0 0 0 -86.7 -0.1 5.23 9.93 -16.64 -1.46 -0 -0 6.65 24.83 23.54 10.47 -7.12 0 -0 -4.74 55.56 -1.23 -0 0 0 87.77 0.48 18.4 -7.64 12.97 -0.87 0 0 25.69 -27.26 0.74 -0.38 7.12 -0 -0 -0.54 -29.15 -0.21
0.06 15.48 7.94 6.69 -5.72 -15.43 0 0 0 -19.39 -4.41 -24.59 14.54 19.27 73.85 2.78 -4.93 -30.46 0.12 -2.19 -6.04 0 0 0 14.07 15.84 -25.32 -16.03 -19.62 78.33 -3.46 0.49 -35.18 -0.24 3.15 -8.69 -4.63 1.6 16.21 -1.8 1.34 6.95 0.49 0.6 -1.75 -7.97 -2.85 -9.84 8.46 -3.41 5.09 3.68 -1.48 3.4 0 -0 0 -85.78 -1.6 5.66 9.62 -16.14 -1.37 -0 -0 5.87 25.23 22.41 10.18 -7.12 0 -0 -3.95 54.45 -0.92 0 -0 0 87.29 1.44 20.22 -7.44 12.64 -0.82 0 0 23.76 -23.78 -0.37 0.16 7.12 -0 -0 2.2 -30.38 0.79
0.03 15.8 8.09 6.59 -6.42 -14.33 0 0 0 -19.7 -4.56 -22.91 13.28 18.88 70.01 2.69 -4.3 -30.04 0.09 -1.89 -5.19 0 0 0 14.46 15.72 -23.81 -14.76 -19.33 74.5 -3.43 1.29 -34.81 -0.18 2.76 -7.61 -4.35 1.33 15.41 -1.97 1.06 6.49 0.22 0.47 -1.79 -7.87 -2.9 -9.7 8.42 -3.54 5.8 3.64 -1.54 3.6 0 0 0 -84.89 -2.17 6.31 9.64 -16.18 -1.37 -0 -0 5.62 24.17 23.36 10.09 -7.12 0 -0 -5.38 55.24 -1.35 0 0 0 86.71 2.21 22 -7.32 12.45 -0.8 0 0 23.87 -21.63 -0.35 0.14 7.12 -0 -0 3.9 -30.34 1.4
0.01 16.15 8.25 6.16 -7.04 -13.38 0 0 0 -19.68 -4.58 -20.91 11.98 18.38 65.91 2.58 -3.42 -29.6 0.06 -1.57 -4.33 0 0 0 15.18 15.39 -21.9 -13.33 -18.9 70.13 -3.37 2.35 -34.23 -0.06 1.55 -4.27 -3.87 1.05 14.77 -1.91 0.77 6.07 0.06 0.34 -1.88 -8.19 -3.14 -9.96 8.56 -3.87 6.81 3.72 -1.69 3.99 0 0 0 -84.66 -2.28 6.33 9.82 -16.45 -1.42 -0 -0 5.55 24.79 23.79 10.55 -7.12 0 -0 -4.87 55.81 -1.29 0 0 0 85.96 2.62 23.69 -7.74 13.12 -0.89 0 0 23.2 -21.28 0.26 -0.1 7.12 -0 -0 4.15 -29.68 1.56
-0.01 16.48 8.42 6.06 -7.46 -12.18 0 0 0 -20.05 -4.57 -19.25 10.66 17.77 61.68 2.4 -1.85 -28.84 0.05 -1.41 -3.88 0 0 0 15.44 15.15 -20.34 -11.96 -18.38 65.87 -2.98 1.53 -32.31 -0.12 2.19 -6.02 -3.81 0.81 13.77 -1.9 0.5 5.55 0.09 0.21 -1.89 -8.5 -3.61 -9.74 8.43 -4.49 7.14 3.68 -2.02 4.11 0 -0 0 -84.6 -2.27 6.4 9.81 -16.45 -1.42 -0 -0 5.48 25.13 23.94 10.78 -7.12 0 -0 -4.55 56.05 -1.24 0 -0 0 85.21 3.01 25.09 -8.35 14.11 -1.03 0 0 20.65 -21.82 -0.18 0.07 7.12 -0 -0 3.75 -30.16 1.36
-0.02 16.82 8.59 5.66 -8.05 -11.14 0 0 0 -20.15 -4.56 -17.23 9.34 17.02 57.25 2.2 -0.08 -28.06 0.04 -1.36 -3.74 0 0 0 16.22 15.32 -18.14 -10.52 -17.69 61.22 -2.74 1.28 -31.01 -0.03 1.17 -3.21 -3.35 0.57 12.95 -1.81 0.27 4.96 -0.04 0.11 -2.06 -8.76 -4.12 -9.69 8.52 -5.19 7.84 3.7 -2.36 4.38 -0 0 0 -84.83 -1.92 6.04 9.83 -16.47 -1.43 -0 -0 5.6 25.48 22.9 10.5 -7.12 0 -0 -3.83 55.01 -0.94 -0 0 0 84.89 3.29 22.79 -8.76 14.78 -1.14 0 0 20.54 -22.69 -0.71 0.3 7.12 -0 -0 3.08 -30.74 1.07
-0.03 17.13 8.76 5.13 -8.74 -9.95 0 0 0 -19.97 -4.47 -15.42 8.12 16.21 53.01 2.03 1.13 -27.35 0.03 -1.12 -3.08 0 0 0 17.25 16.18 -15.96 -9.19 -16.93 56.74 -2.42 0.19 -29.4 -0.01 0.54 -1.48 -2.84 0.41 11.86 -1.64 0.16 4.42 -0.13 0.06 -2.03 -8.64 -4.65 -9.55 8.09 -5.9 8.14 3.5 -2.73 4.49 0 0 0 -85.31 -1.53 5.94 9.94 -16.65 -1.46 -0 -0 5.77 25.44 23.92 10.92 -7.12 0 -0 -4.22 56.09 -1.15 0 0 0 84.31 3.65 22.39 -9.21 15.5 -1.26 0 0 18.01 -22.94 -2.2 0.93 7.12 -0 -0 2.95 -32.36 0.91
-0.03 17.41 8.93 4.81 -9.11 -8.72 0 0 0 -20.1 -4.56 -13.74 6.99 15.33 48.85 1.8 2.66 -26.39 0.05 -1.41 -3.88 0 0 0 17.79 16.73 -14.06 -8.01 -16.13 52.61 -2.18 -0.56 -28.19 -0 0.19 -0.51 -2.54 0.2 10.85 -1.51 -0.06 3.72 -0.13 -0.04 -2.2 -8.8 -5.08 -9.28 7.93 -6.48 8.57 3.43 -3.04 4.63 0 -0 0 -85.89 -1.04 5.58 9.8 -16.43 -1.42 -0 -0 5.97 25.38 23.36 10.65 -7.12 0 -0 -4.09 55.48 -1.05 0 -0 0 83.8 3.9 21.22 -9.31 15.66 -1.28 0 0 17.58 -24.28 -1.75 0.79 7.12 -0 -0 1.85 -31.9 0.59
-0.02 17.65 9.1 4.65 -9.52 -7.75 0 0 0 -20.27 -4.2 -11.77 5.89 14.32 44.54 1.66 3.36 -25.73 0.04 -1.33 -3.67 0 0 0 18.17 17.08 -12.03 -6.94 -15.28 48.66 -1.97 -1.42 -27.09 -0 0.12 -0.34 -2.38 0.05 9.84 -1.41 -0.22 3.19 -0.09 -0.11 -2.19 -9.17 -5.49 -9.36 8.06 -7.03 9.18 3.48 -3.31 4.9 -0 -0 0 -86.46 -0.64 5.39 9.62 -16.14 -1.37 -0 -0 6.15 25 23.8 10.66 -7.12 0 -0 -4.65 55.87 -1.24 -0 -0 0 83.2 3.86 21.53 -9.48 15.93 -1.33 0 0 15.61 -23.3 -2.07 0.89 7.12 -0 -0 2.64 -32.22 0.83
-0.02 17.89 9.27 4.5 -10 -6.76 0 0 0 -20.36 -3.55 -10.03 4.9 13.27 40.4 1.45 4.13 -24.59 0.06 -1.57 -4.31 0 0 0 18.44 17.47 -10.12 -5.91 -14.35 44.64 -1.74 -2.23 -25.8 -0 -0.38 1.04 -2.29 -0.07 9 -1.31 -0.34 2.56 -0.02 -0.17 -2.38 -9.2 -5.73 -9.22 7.82 -7.36 9.46 3.38 -3.49 4.98 0 0 0 -87.06 -0.01 4.97 9.45 -15.87 -1.32 -0 -0 6.59 23.96 23.89 10.2 -7.12 0 -0 -5.79 55.75 -1.53 0 0 0 82.72 3.94 21.04 -9.52 15.98 -1.34 0 0 16.59 -23.89 -0.38 0.17 7.12 -0 -0 2.12 -30.39 0.76
-0.01 18.08 9.44 4.21 -10.35 -5.78 0 0 0 -20.23 -2.69 -8.62 4.06 12.24 36.59 1.23 5.04 -23.33 0.11 -2.12 -5.83 0 0 0 18.79 17.56 -8.43 -5.02 -13.4 40.9 -1.54 -3.11 -24.75 -0 -0.31 0.85 -1.87 -0.15 8.31 -1.3 -0.41 1.9 -0.25 -0.2 -2.69 -9.24 -6.14 -9.4 7.71 -7.92 10.04 3.29 -3.76 5.24 0 -0 0 -87.46 0.55 4 9.31 -15.65 -1.28 -0 -0 7.71 23.91 23.1 9.87 -7.12 0 -0 -5.56 54.91 -1.36 0 -0 0 82.48 3.82 20.94 -9.46 15.89 -1.32 0 0 16.29 -23.55 -1.67 0.73 7.12 -0 -0 2.43 -31.8 0.79
0 18.24 9.6 4.39 -10.5 -4.98 0 0 0 -20.67 -2.08 -6.97 3.24 11.07 32.52 1.07 5.79 -22.45 0.11 -2.18 -6 0 0 0 18.48 17.51 -7.09 -4.35 -12.61 37.94 -1.42 -3.68 -24.11 -0 -0.22 0.6 -1.99 -0.24 7.42 -1.3 -0.51 1.5 -0.17 -0.25 -2.6 -9.6 -6.4 -9.3 7.91 -8.25 10.01 3.38 -3.93 5.26 0 -0 0 -87.91 0.99 4.08 9.33 -15.68 -1.29 -0 -0 7.64 23.62 23.61 9.93 -7.12 0 -0 -6.05 55.38 -1.55 0 -0 0 82.17 3.73 20.41 -9.47 15.9 -1.33 0 0 16.86 -24.95 -0.92 0.43 7.12 -0 -0 1.29 -30.99 0.44
0.02 18.38 9.75 4.38 -10.51 -4.23 0 0 0 -21 -2.07 -5.37 2.64 10.09 29.26 0.96 6.57 -21.97 0.09 -1.97 -5.41 0 0 0 18.47 17.71 -5.67 -3.78 -11.86 35.25 -1.31 -4.48 -23.67 -0 -0.21 0.58 -1.88 -0.33 6.68 -1.33 -0.62 1.16 -0.26 -0.3 -2.54 -9.65 -6.62 -9.25 7.84 -8.53 9.8 3.35 -4.07 5.22 -0 -0 0 -88.13 1.22 3.89 9.26 -15.57 -1.27 -0 -0 7.79 23.48 23.83 9.95 -7.12 0 -0 -6.28 55.58 -1.64 -0 -0 0 81.93 3.35 20.17 -9.61 16.13 -1.37 0 0 16.63 -25.16 -0.38 0.18 7.12 -0 -0 1.11 -30.4 0.4
0.03 18.48 9.88 3.94 -10.33 -3.44 0 0 0 -20.82 -2.48 -4.23 2.25 9.36 26.94 0.83 7.54 -21.58 0.09 -1.98 -5.44 0 0 0 19 18.02 -4.37 -3.29 -11.15 32.79 -1.17 -5.73 -23.22 -0 -0.44 1.22 -1.51 -0.45 6.08 -1.17 -0.73 0.82 -0.29 -0.36 -2.56 -9.56 -6.89 -9.35 7.6 -8.87 9.82 3.22 -4.25 5.25 0 0 0 -88.37 1.44 3.87 9.23 -15.52 -1.26 -0 -0 7.51 23.61 23.88 10.04 -7.12 0 -0 -6.16 55.67 -1.62 0 0 0 81.76 2.79 19.65 -9.75 16.35 -1.4 0 0 16.66 -26.58 1.04 -0.52 7.12 -0 -0 -0 -28.82 -0
0.04 18.56 9.99 3.45 -10.17 -2.63 0 0 0 -20.54 -2.93 -3.29 1.9 8.66 24.75 0.69 8.61 -21.08 0.09 -1.94 -5.34 0 0 0 19.59 18.38 -3.42 -2.92 -10.57 30.83 -1.06 -6.89 -23.09 -0 -0.19 0.52 -1.19 -0.49 5.61 -0.97 -0.76 0.5 -0.27 -0.37 -2.63 -9.87 -7.08 -9.3 7.93 -9.12 9.79 3.35 -4.36 5.29 -0 0 0 -88.51 1.67 4.25 9.24 -15.55 -1.26 -0 -0 7.11 23.79 23.28 9.88 -7.12 0 -0 -5.75 55.07 -1.42 -0 0 0 81.65 2.49 18.63 -9.65 16.18 -1.37 0 0 17.98 -25.65 0.7 -0.34 7.12 -0 -0 0.72 -29.2 0.28
0.04 18.62 10.1 3.27 -9.95 -2.15 0 0 0 -20.62 -3.45 -1.92 1.59 7.96 22.61 0.58 9.6 -20.93 0.09 -1.91 -5.27 0 0 0 19.96 18.82 -2.28 -2.61 -10.04 29.11 -0.91 -8.33 -22.84 -0 -0.27 0.74 -1.24 -0.5 5.21 -0.89 -0.77 0.32 -0.17 -0.38 -2.58 -9.98 -7.26 -9.03 8.18 -9.39 9.56 3.43 -4.49 5.21 0 0 0 -88.55 1.69 4.08 9.15 -15.4 -1.24 -0 -0 7.51 23.27 23.63 9.78 -7.12 0 -0 -6.43 55.33 -1.63 0 0 0 81.72 2.12 17.98 -9.57 16.06 -1.35 0 0 18.65 -25.85 0.03 -0.02 7.12 -0 -0 0.56 -29.94 0.21
0.05 18.67 10.21 3.35 -9.84 -1.88 0 0 0 -20.99 -3.8 -0.62 1.35 7.35 20.77 0.5 10.48 -20.98 0.09 -1.92 -5.29 0 0 0 19.97 18.91 -1.44 -2.42 -9.69 27.99 -0.85 -9.11 -22.95 -0 0.07 -0.19 -1.45 -0.43 4.94 -0.95 -0.69 0.17 -0.11 -0.33 -2.59 -10.08 -7.57 -8.85 8.26 -9.84 9.69 3.43 -4.72 5.27 -0 -0 0 -88.37 1.77 3.96 9.05 -15.24 -1.21 -0 -0 7.44 22.73 23.56 9.51 -7.12 0 -0 -6.96 55.15 -1.74 -0 -0 0 81.82 1.37 17.79 -9.58 16.07 -1.36 0 0 17.84 -25.42 0.49 -0.23 7.12 -0 -0 0.9 -29.44 0.34
0.06 18.7 10.29 3.31 -9.53 -1.55 0 0 0 -21.17 -4.26 0.36 1.16 6.85 19.26 0.41 11.18 -20.87 0.09 -1.98 -5.45 0 0 0 19.94 18.62 -1.1 -2.29 -9.44 27.17 -0.79 -9.51 -22.81 -0 0.19 -0.52 -1.59 -0.48 4.71 -0.88 -0.76 0.04 0.04 -0.36 -2.59 -10.11 -7.79 -8.83 7.88 -10.1 9.93 3.29 -4.87 5.35 -0 -0 0 -88.47 2.12 3.66 9.31 -15.66 -1.28 -0 -0 7.31 22.27 23.62 9.32 -7.12 0 -0 -7.47 55.12 -1.86 -0 -0 0 81.84 1.04 17.42 -9.24 15.54 -1.26 0 0 19 -25.95 1.82 -0.89 7.12 -0 -0 0.48 -27.95 0.2
0.07 18.72 10.36 2.98 -9.42 -1.17 0 0 0 -20.96 -4.66 0.87 1.08 6.6 18.55 0.42 11.39 -21.1 0.07 -1.75 -4.81 0 0 0 20.2 18.52 -0.82 -2.18 -9.24 26.54 -0.81 -9.42 -22.92 -0 -0.28 0.76 -1.25 -0.48 4.37 -0.9 -0.73 0 -0.17 -0.35 -2.44 -9.98 -7.97 -8.89 7.85 -10.37 10.06 3.23 -4.99 5.42 0 0 0 -88.04 2.43 4.47 9.49 -15.94 -1.33 -0 -0 6.2 22.24 22.95 9.06 -7.12 0 -0 -7.25 54.42 -1.68 0 0 0 82.2 0.54 17.66 -9.32 15.67 -1.28 0 0 18.69 -25.64 0.92 -0.44 7.12 -0 -0 0.73 -28.96 0.28
0.08 18.72 10.42 2.78 -9.17 -0.98 0 0 0 -20.86 -5.31 1.49 1 6.38 17.88 0.4 11.73 -21.32 0.05 -1.51 -4.16 0 0 0 20.46 18.55 -0.5 -2.13 -9.13 26.19 -0.8 -9.71 -23.11 -0 -0.19 0.53 -1.19 -0.54 4.31 -0.91 -0.81 -0.04 -0.21 -0.39 -2.46 -10.11 -8.03 -8.65 7.96 -10.44 9.82 3.29 -5.03 5.32 0 0 0 -87.74 2.56 3.94 9.46 -15.89 -1.32 -0 -0 6.17 22.41 22.23 8.87 -7.12 0 -0 -6.81 53.7 -1.46 0 0 0 82.44 0.01 18.72 -9.34 15.7 -1.29 0 0 17.45 -24.37 -0.12 0.05 7.12 -0 -0 1.74 -30.1 0.63
0.08 18.72 10.47 2.99 -9 -1 0 0 0 -21.18 -5.43 2.21 0.92 6.12 17.12 0.41 11.7 -21.39 0.04 -1.25 -3.44 0 0 0 20.34 18.63 -0.08 -2.11 -9.09 26.07 -0.79 -10.05 -23.32 -0 -0.4 1.09 -1.6 -0.59 4.34 -0.92 -0.9 -0.1 0.01 -0.43 -2.53 -10.38 -8.06 -8.63 8.05 -10.48 9.99 3.36 -5.06 5.4 -0 -0 0 -87.75 2.95 3 9.5 -15.95 -1.33 -0 -0 6.68 22.51 23.38 9.34 -7.12 0 -0 -7.12 54.92 -1.74 -0 -0 0 82.58 -0.63 18.81 -9.59 16.1 -1.36 0 0 18.84 -19.73 -1.51 0.54 7.12 -0 -0 5.48 -31.55 1.81
0.08 18.73 10.52 2.99 -8.71 -1.15 0 0 0 -21.25 -5.31 2.78 0.87 5.95 16.63 0.38 11.73 -21.14 0.06 -1.54 -4.25 0 0 0 20.48 18.56 0.55 -2.05 -8.96 25.68 -0.78 -10.49 -23.57 -0 -0.18 0.49 -1.73 -0.7 4.46 -1 -1.05 -0.01 0.01 -0.51 -2.5 -10.27 -8.16 -8.29 7.95 -10.62 9.46 3.31 -5.13 5.17 0 0 0 -87.43 3.25 3.08 9.47 -15.91 -1.33 -0 -0 5.83 23.24 23.24 9.62 -7.12 0 -0 -6.31 54.92 -1.54 0 0 0 82.94 -1.15 19.84 -9.46 15.89 -1.32 0 0 17.45 -21.24 -0.36 0.14 7.12 -0 -0 4.21 -30.35 1.51
0.1 18.74 10.56 2.68 -8.62 -1.05 0 0 0 -21.03 -5.5 2.86 0.87 5.94 16.61 0.36 12.02 -21.25 0.07 -1.69 -4.64 0 0 0 20.82 18.45 1.08 -1.94 -8.73 24.97 -0.76 -10.62 -23.5 -0 -0.22 0.6 -1.47 -0.77 4.45 -0.96 -1.13 -0.03 -0.09 -0.55 -2.52 -10.26 -8.12 -8.57 7.89 -10.55 9.75 3.29 -5.1 5.3 0 0 0 -87.38 3.6 2.1 9.45 -15.87 -1.32 -0 -0 6.67 22.62 23.46 9.42 -7.12 0 -0 -7.04 55.02 -1.74 0 0 0 83.2 -1.53 19.33 -9.61 16.13 -1.37 0 0 19.74 -19.73 -0.38 0.14 7.12 -0 -0 5.41 -30.36 1.94
