HIERARCHY
ROOT Hips
{
	OFFSET 0.00000 0.00000 0.00000
	CHANNELS 6 Xposition Yposition Zposition Zrotation Yrotation Xrotation 
	JOINT LHipJoint
	{
		OFFSET 0 0 0
		CHANNELS 3 Zrotation Yrotation Xrotation
		JOINT LeftUpLeg
		{
			OFFSET 3.13874 -1.57224 1.49786
			CHANNELS 3 Zrotation Yrotation Xrotation
			JOINT LeftLeg
			{
				OFFSET 2.10955 -5.79594 0.00000
				CHANNELS 3 Zrotation Yrotation Xrotation
				JOINT LeftFoot
				{
					OFFSET 2.41843 -6.64458 0.00000
					CHANNELS 3 Zrotation Yrotation Xrotation
					JOINT LeftToeBase
					{
						OFFSET 0.04713 -0.12948 1.66229
						CHANNELS 3 Zrotation Yrotation Xrotation
						End Site
						{
							OFFSET 0.00000 -0.00000 0.85167
						}
					}
				}
			}
		}
	}
	JOINT RHipJoint
	{
		OFFSET 0 0 0
		CHANNELS 3 Zrotation Yrotation Xrotation
		JOINT RightUpLeg
		{
			OFFSET -3.13988 -1.57224 1.49786
			CHANNELS 3 Zrotation Yrotation Xrotation
			JOINT RightLeg
			{
				OFFSET -2.15006 -5.90725 0.00000
				CHANNELS 3 Zrotation Yrotation Xrotation
				JOINT RightFoot
				{
					OFFSET -2.34496 -6.44273 0.00000
					CHANNELS 3 Zrotation Yrotation Xrotation
					JOINT RightToeBase
					{
						OFFSET -0.08699 -0.23900 1.55223
						CHANNELS 3 Zrotation Yrotation Xrotation
						End Site
						{
							OFFSET -0.00000 -0.00000 0.80281
						}
					}
				}
			}
		}
	}
	JOINT LowerBack
	{
		OFFSET 0 0 0
		CHANNELS 3 Zrotation Yrotation Xrotation
		JOINT Spine
		{
			OFFSET 0.01292 1.96517 -0.16495
			CHANNELS 3 Zrotation Yrotation Xrotation
			JOINT Spine1
			{
				OFFSET 0.02122 1.88666 0.19706
				CHANNELS 3 Zrotation Yrotation Xrotation
				JOINT Neck
				{
					OFFSET 0 0 0
					CHANNELS 3 Zrotation Yrotation Xrotation
					JOINT Neck1
					{
						OFFSET -0.01683 1.81591 0.07903
						CHANNELS 3 Zrotation Yrotation Xrotation
						JOINT Head
						{
							OFFSET 0.00815 1.74013 -0.47700
							CHANNELS 3 Zrotation Yrotation Xrotation
							End Site
							{
								OFFSET -0.00204 1.83225 -0.16933
							}
						}
					}
				}
				JOINT LeftShoulder
				{
					OFFSET 0 0 0
					CHANNELS 3 Zrotation Yrotation Xrotation
					JOINT LeftArm
					{
						OFFSET 3.38482 1.41533 0.19802
						CHANNELS 3 Zrotation Yrotation Xrotation
						JOINT LeftForeArm
						{
							OFFSET 4.32712 -0.00000 0.00000
							CHANNELS 3 Zrotation Yrotation Xrotation
							JOINT LeftHand
							{
								OFFSET 3.28587 -0.00000 -0.00000
								CHANNELS 3 Zrotation Yrotation Xrotation
								JOINT LeftFingerBase
								{
									OFFSET 0 0 0
									CHANNELS 3 Zrotation Yrotation Xrotation
									JOINT LeftHandIndex1
									{
										OFFSET 0.43316 -0.00000 -0.00000
										CHANNELS 3 Zrotation Yrotation Xrotation
										End Site
										{
											OFFSET 0.34922 -0.00000 -0.00000
										}
									}
								}
								JOINT LThumb
								{
									OFFSET 0 0 0
									CHANNELS 3 Zrotation Yrotation Xrotation
									End Site
									{
										OFFSET 0.35456 -0.00000 0.35456
									}
								}
							}
						}
					}
				}
				JOINT RightShoulder
				{
					OFFSET 0 0 0
					CHANNELS 3 Zrotation Yrotation Xrotation
					JOINT RightArm
					{
						OFFSET -3.09725 1.62858 -0.14144
						CHANNELS 3 Zrotation Yrotation Xrotation
						JOINT RightForeArm
						{
							OFFSET -4.29104 -0.00000 0.00000
							CHANNELS 3 Zrotation Yrotation Xrotation
							JOINT RightHand
							{
								OFFSET -3.22720 -0.00000 -0.00000
								CHANNELS 3 Zrotation Yrotation Xrotation
								JOINT RightFingerBase
								{
									OFFSET 0 0 0
									CHANNELS 3 Zrotation Yrotation Xrotation
									JOINT RightHandIndex1
									{
										OFFSET -0.54362 -0.00000 -0.00000
										CHANNELS 3 Zrotation Yrotation Xrotation
										End Site
										{
											OFFSET -0.43828 -0.00000 -0.00000
										}
									}
								}
								JOINT RThumb
								{
									OFFSET 0 0 0
									CHANNELS 3 Zrotation Yrotation Xrotation
									End Site
									{
										OFFSET -0.44497 -0.00000 0.44497
									}
								}
							}
						}
					}
				}
			}
		}
	}
}
MOTION
Frames: 142
Frame Time: 0.0333332
3.13 15.98 5.47 178.85 -48.82 -169.52 0 0 0 -39.17 -38.98 19.74 0.06 -1.63 -4.48 6.67 -6.96 -48.12 0.87 -5.95 -16.63 0 0 0 13.42 18.78 -2.1 -0.14 -2.39 6.58 -1.43 -7.19 -26.24 -0.09 -1.96 5.39 -0.23 3.47 7.49 -1.39 4.12 -9.93 -2.21 1.68 -15.12 4.02 3.63 -20.09 2.15 1.31 37.95 0.35 0.84 17.36 0 -0 0 -78.7 12.56 25.96 20.64 -31.41 -5.86 -0 -0 7.08 41.36 34.7 26.62 -7.12 0 -0 14.3 72.23 9.31 0 -0 0 74.86 -18.07 38.4 -20.26 30.95 -5.66 0 -0 -8.03 -31.48 -22.33 13.1 7.12 -0 -0 -2.81 -55.67 0.74
3.12 15.98 5.48 179.4 -47.15 -169.76 0 0 0 -38.67 -38.75 19.51 0.06 -1.59 -4.36 7.02 -7.8 -49.37 0.8 -5.72 -15.97 0 0 0 13.49 18.81 -3.54 -0.17 -2.66 7.34 -1.35 -4.95 -24.25 -0.02 -1.02 2.8 0.47 4.04 8 -1.51 5.01 -9.99 -2.95 1.99 -15.42 3.3 3.06 -19.39 2.44 0.92 35.83 0.5 0.67 16.05 -0 0 0 -78.3 15.46 21.26 19.24 -29.72 -5.15 -0 -0 5.8 34.71 31.75 20.03 -7.12 0 -0 4.18 66.91 2.21 -0 0 0 74.44 -15.73 42.53 -22.37 33.4 -6.79 0 -0 -8.54 -27.82 -21.43 10.91 7.12 -0 -0 0.94 -53.91 -0.21
3.12 15.98 5.46 179.37 -45.77 -169.68 0 0 0 -39.37 -39.69 20.49 0.05 -1.51 -4.16 7.67 -8.99 -51.67 0.66 -5.18 -14.43 0 0 0 13.32 19.14 -4.2 -0.19 -2.77 7.64 -1.32 -3.74 -23.31 -0 -0.37 1.01 0.64 4.55 8.35 -1.49 5.72 -10.07 -3.21 2.3 -15.7 3.07 2.84 -19.46 1.98 0.81 36.17 0.33 0.52 16.24 0 0 0 -78.05 17.31 15.4 16.61 -26.34 -3.91 -0 -0 7.29 26.56 30.65 14.3 -7.12 0 -0 -6.02 63.41 -2.69 0 0 0 73.98 -13.67 45.53 -23.23 34.33 -7.26 0 -0 -7.74 -29.12 -22.48 12.02 7.12 -0 -0 -0.18 -55.33 0.05
3.12 15.99 5.44 179.17 -45.16 -169.5 0 0 0 -39.93 -40.03 21.12 0.05 -1.5 -4.12 7.98 -9.79 -52.73 0.59 -4.91 -13.66 0 0 0 13.16 18.89 -4.43 -0.18 -2.74 7.56 -1.34 -2.36 -22.8 -0 -0.42 1.14 0.72 4.65 8.53 -1.36 5.9 -10.07 -3.17 2.38 -15.81 2.52 2.66 -19.41 1.85 0.75 36.47 0.35 0.38 16.36 -0 -0 0 -78.27 18.27 9.37 13.85 -22.52 -2.77 -0 -0 10.57 28.26 28.02 14.17 -7.12 0 -0 -2.62 61.1 -1.03 -0 -0 0 73.53 -12.08 48 -23.65 34.79 -7.5 0 -0 -6.85 -28.57 -20.89 10.99 7.12 -0 -0 0.03 -53.47 -0.01
3.14 16.01 5.4 179.4 -45.44 -169.51 0 0 0 -38.72 -39.2 19.81 0.05 -1.44 -3.97 7.59 -10.15 -51.28 0.54 -4.72 -13.11 0 0 0 13.65 19.42 -4.05 -0.17 -2.65 7.29 -1.35 -3.27 -23.37 -0.01 -0.56 1.54 0.83 4.39 8.79 -0.92 5.62 -10.22 -2.71 2.25 -16.22 1.13 1.87 -19.34 1.85 0.09 36.34 0.46 -0.1 16.26 -0 -0 0 -78.88 18.83 5.36 12.44 -20.46 -2.25 -0 -0 15.26 27.01 30.62 14.56 -7.12 0 -0 -5.45 63.5 -2.45 -0 -0 0 73.15 -11.87 49.06 -23.82 34.97 -7.6 0 -0 -6.55 -27.23 -21.47 10.67 7.12 -0 -0 1.57 -53.83 -0.34
3.15 16.02 5.35 179.56 -46.32 -169.55 0 0 0 -39.05 -40.31 20.78 0.05 -1.45 -3.98 7.84 -9.18 -52.28 0.71 -5.38 -14.98 0 0 0 14.19 19.46 -3.2 -0.14 -2.43 6.68 -1.46 -4.21 -24.69 -0.03 -1.03 2.84 -0.25 3.37 8.23 0.74 4.25 -10.07 0.1 1.88 -15.96 -0.48 0.18 -15.76 -2.43 0.14 30.11 -0.92 -0.73 12.62 -0 -0 0 -82.75 19.4 2.88 12.97 -21.24 -2.44 -0 -0 15.1 26.34 31.18 14.38 -7.12 0 -0 -6.62 63.89 -3.04 -0 -0 0 70.33 -11.91 52.22 -23.57 34.71 -7.46 0 -0 -8.68 -29.27 -23.46 12.58 7.12 -0 -0 -0.11 -56.44 0.03
3.16 16.04 5.28 179.84 -47.39 -169.84 0 0 0 -38.82 -40.6 21.21 0.05 -1.47 -4.04 7.64 -10.5 -51.45 0.51 -4.58 -12.71 0 0 0 15.03 19.46 -2.05 -0.11 -2.18 6.01 -1.61 -4.84 -26.1 -0.07 -1.68 4.62 -1.05 2.51 8.15 1.88 3.08 -10.06 2.09 1.52 -16.01 -5.25 -2.61 -14.85 -1.38 -2.91 28.76 -0.12 -2.45 11.97 0 0 0 -85.36 19.27 6.34 15 -24.14 -3.23 -0 -0 11.03 26.97 29.58 14.1 -7.12 0 -0 -4.92 62.41 -2.08 0 0 0 68.37 -12.72 54.57 -21.93 32.9 -6.55 0 -0 -10.18 -28.42 -22.47 11.69 7.12 -0 -0 0.57 -55.16 -0.14
3.18 16.07 5.2 180.32 -48.48 -170.37 0 0 0 -37.51 -39.21 20.27 0.06 -1.51 -4.17 7.01 -8.34 -49.27 0.74 -5.48 -15.29 0 0 0 16.21 19.66 -0.37 -0.08 -1.8 4.95 -1.75 -6.83 -28.24 -0.17 -2.65 7.29 -1.33 1.85 7.92 2.56 2.19 -10.08 3.22 1.18 -15.9 -7.65 -4.21 -14.56 -1.04 -4.77 28.84 0.13 -3.51 12.09 -0 -0 0 -86.93 18.74 11.99 17.99 -28.14 -4.54 -0 -0 6.41 27.44 31.13 15.03 -7.12 0 -0 -5.23 64.15 -2.43 -0 -0 0 67.48 -13.28 55.83 -18.88 29.27 -4.97 0 -0 -9.88 -26.18 -21.68 10.3 7.12 -0 -0 2.73 -53.85 -0.59
3.19 16.07 5.1 180.75 -49.25 -171.14 0 0 0 -37.3 -38.88 20.82 0.05 -1.44 -3.97 6.9 -7.94 -48.9 0.85 -5.88 -16.44 0 0 0 17.58 20.05 1.87 -0.04 -1.32 3.64 -1.88 -8.19 -29.93 -0.24 -3.16 8.71 -1.48 1.59 7.8 2.78 1.85 -10.01 3.62 1.06 -15.72 -8.54 -5.39 -14.88 -1.63 -5.99 28.53 -0.14 -4.2 12.1 0 0 0 -87.52 17.01 16.71 19.91 -30.54 -5.49 -0 -0 4.85 26.68 30.69 14.39 -7.12 0 -0 -5.9 63.48 -2.65 0 0 0 67.83 -14.47 53.78 -16.32 25.96 -3.79 0 -0 -8.95 -25.32 -22.79 10.39 7.12 -0 -0 3.97 -54.87 -0.96
3.21 16.07 5.01 181.22 -49.76 -171.98 0 0 0 -36.32 -37.56 20.39 0.05 -1.37 -3.77 6.41 -8.72 -46.9 0.67 -5.23 -14.57 0 0 0 18.76 20.02 3.26 -0.03 -1.12 3.07 -1.96 -9.77 -31.46 -0.35 -3.83 10.59 -1.9 1.41 8.06 3 1.54 -10.19 4.19 0.99 -16.13 -9.5 -6.49 -14.56 -1.7 -7.33 28.24 -0.2 -4.9 12.03 -0 -0 0 -88.1 15.55 19.51 20.56 -31.32 -5.82 -0 -0 3.01 24.06 34.82 14.3 -7.12 0 -0 -12.26 66.89 -6.51 -0 -0 0 68.09 -16.19 51.39 -15.07 24.25 -3.26 0 -0 -8.88 -24.43 -23.79 10.38 7.12 -0 -0 5.25 -55.74 -1.39
3.22 16.08 4.91 181.61 -50.04 -172.75 0 0 0 -36.93 -38.16 22.3 0.05 -1.43 -3.94 6.72 -9.9 -48 0.58 -4.86 -13.52 0 0 0 19.73 19.56 4.31 -0.02 -0.98 2.69 -2 -9.84 -31.76 -0.39 -4 11.07 -1.98 1.28 7.86 2.87 1.35 -10.17 4.13 0.89 -15.95 -9.79 -6.94 -14.53 -0.75 -8.24 28.6 0.04 -5.23 12.27 -0 0 0 -87.67 14.73 21.84 21.05 -31.89 -6.08 -0 -0 4.52 26.39 32.78 15.04 -7.12 0 -0 -7.64 65.54 -3.8 -0 0 0 68.49 -17.56 49.68 -15.37 24.65 -3.38 0 -0 -9.3 -24.11 -23.89 10.27 7.12 -0 -0 5.63 -55.78 -1.49
3.23 16.07 4.82 182.32 -50.08 -173.67 0 0 0 -36.93 -38.43 23.47 0.05 -1.38 -3.8 6.89 -10.51 -48.63 0.55 -4.73 -13.14 0 0 0 20.62 18.67 4.35 -0.03 -1.08 2.98 -1.99 -9.79 -31.66 -0.37 -3.89 10.76 -1.63 1.27 7.91 2.65 1.36 -10.26 3.68 0.84 -16.06 -9.29 -7.05 -14.47 -0.22 -8.74 29.02 0.07 -5.35 12.44 0 -0 0 -86.83 15.07 22.9 21.05 -31.89 -6.08 -0 -0 4.82 25.37 33.25 14.57 -7.12 0 -0 -9.27 65.72 -4.66 0 -0 0 69.04 -18.62 47.56 -16.4 26.06 -3.82 0 -0 -9.09 -24.59 -23.09 10.18 7.12 -0 -0 4.83 -55.03 -1.19
3.26 16.06 4.75 182.29 -49.54 -173.69 0 0 0 -36.89 -38.35 23.73 0.04 -1.33 -3.65 7.08 -10.26 -49.38 0.64 -5.11 -14.23 0 0 0 20.57 17.8 3.38 -0.05 -1.38 3.8 -1.96 -8.91 -30.88 -0.34 -3.74 10.33 -1.65 1.47 7.81 2.31 1.57 -10.41 3.25 0.91 -16.18 -9.04 -7.05 -14.08 0.41 -9.08 29.01 0.23 -5.41 12.39 -0 -0 0 -85.96 15.83 22.84 20.44 -31.17 -5.76 -0 -0 3.42 23.41 35.97 14.27 -7.12 0 -0 -14.23 67.82 -7.87 -0 -0 0 69.65 -18.97 45.49 -17.25 27.19 -4.2 0 -0 -10.22 -25.59 -22.73 10.48 7.12 -0 -0 3.66 -54.85 -0.89
3.28 16.06 4.69 182.22 -48.89 -173.75 0 0 0 -37.44 -38.76 24.79 0.04 -1.32 -3.62 7.55 -9.85 -51.16 0.72 -5.42 -15.11 0 0 0 20.58 17.12 2.62 -0.07 -1.65 4.53 -1.97 -6.81 -29.67 -0.26 -3.31 9.14 -1.35 1.68 7.83 1.88 1.85 -10.45 2.54 0.97 -16.23 -8.89 -7.02 -13.78 0.94 -9.31 29.2 0.37 -5.45 12.43 0 -0 0 -85.49 16.38 20.04 19.17 -29.62 -5.11 -0 -0 5.88 26.47 32.03 14.79 -7.12 0 -0 -7.01 64.8 -3.37 0 -0 0 70.32 -18.45 44.52 -17.42 27.41 -4.28 0 -0 -11.06 -25.88 -21.74 10.19 7.12 -0 -0 3.06 -53.85 -0.67
3.31 16.05 4.63 181.8 -48.3 -173.4 0 0 0 -38.14 -39.22 25.66 0.04 -1.3 -3.57 7.93 -10.01 -52.55 0.83 -5.8 -16.21 0 0 0 20.35 16.68 2.14 -0.07 -1.71 4.7 -1.89 -6.08 -28.74 -0.16 -2.55 7.03 -1.33 1.92 7.78 1.5 2.14 -10.39 2.03 1.07 -16.12 -8.65 -7.16 -13.86 0.97 -9.59 29.23 0.3 -5.54 12.46 -0 0 0 -85.05 16.63 17.71 17.64 -27.69 -4.38 -0 -0 6.59 26.56 31.52 14.64 -7.12 0 -0 -6.56 64.3 -3.07 -0 0 0 70.56 -17.91 44.98 -17.94 28.08 -4.52 0 -0 -10.72 -26.34 -22.31 10.64 7.12 -0 -0 2.75 -54.56 -0.65
3.33 16.05 4.57 181.84 -47.69 -173.24 0 0 0 -37.7 -39.08 25.37 0.04 -1.24 -3.41 8.01 -11.13 -52.76 0.72 -5.43 -15.15 0 0 0 20.36 16.47 1.1 -0.1 -2.04 5.62 -1.95 -4.32 -28.22 -0.25 -3.19 8.8 -0.68 2.15 7.7 1.12 2.51 -10.34 1.17 1.14 -15.96 -8.85 -7.2 -13.77 1.58 -9.74 29 0.54 -5.54 12.41 0 -0 0 -84.52 18.3 16.78 18.14 -28.34 -4.62 -0 -0 5.83 26.38 30.42 14.1 -7.12 0 -0 -6.1 63.12 -2.69 0 -0 0 70.94 -17.72 45.46 -18.77 29.14 -4.92 0 -0 -10.26 -26.15 -21.24 10.08 7.12 -0 -0 2.64 -53.37 -0.54
3.36 16.03 4.53 181.64 -46.83 -172.82 0 0 0 -37.51 -39.02 25.17 0.04 -1.23 -3.38 8.26 -11.89 -53.6 0.71 -5.39 -15.02 0 0 0 19.94 15.81 -0.91 -0.17 -2.69 7.41 -1.92 -1.83 -26.91 -0.34 -3.75 10.38 0.08 2.51 7.75 0.65 3.08 -10.26 0.09 1.28 -15.84 -9 -7.2 -14.18 1.95 -9.77 29.13 0.68 -5.51 12.57 0 0 0 -84.22 21.31 15.83 21.29 -32.17 -6.2 -0 -0 3.66 26.44 31.12 14.41 -7.12 0 -0 -6.46 63.86 -2.96 0 0 0 71.02 -17.61 47.02 -19.86 30.48 -5.46 0 -0 -9.72 -26.64 -21.46 10.4 7.12 -0 -0 2.19 -53.71 -0.47
3.35 16.01 4.5 180.66 -45.24 -172 0 0 0 -37.31 -37.6 23.8 0.03 -1.12 -3.07 8.15 -11.26 -53.26 0.82 -5.76 -16.1 0 0 0 18.59 15.03 -3.56 -0.32 -3.65 10.1 -1.8 2.76 -24.63 -0.37 -3.92 10.86 0.61 3.2 7.77 0.09 4.05 -10.01 -1.03 1.65 -15.46 -9.45 -7.26 -14.65 2.18 -9.68 28.95 0.84 -5.45 12.64 -0 0 0 -84.61 23.84 10.27 23.77 -34.92 -7.58 -0 -0 0.69 27.04 28.95 13.88 -7.12 0 -0 -4.51 61.77 -1.84 -0 0 0 70.44 -17.3 47.76 -21.5 32.41 -6.32 0 -0 -5.21 -27.08 -19.61 9.74 7.12 -0 -0 1.3 -51.78 -0.22
3.33 15.99 4.48 178.59 -42.51 -170.08 0 0 0 -35.27 -32.16 17.83 0.01 -0.76 -2.08 6.91 -10.81 -48.66 1.15 -6.81 -19.16 0 0 0 15.8 13.87 -8.36 -0.68 -5.29 14.73 -1.4 7.43 -21.19 -0.35 -3.78 10.45 0.65 4.28 7.72 -0.89 5.43 -9.75 -2.41 2.24 -14.97 -9.74 -7.34 -15.21 2 -9.43 28.14 0.86 -5.33 12.42 0 -0 0 -84.81 27.34 -1.55 25.09 -36.3 -8.34 -0 0 -4.45 29.95 29.03 15.62 -7.12 0 -0 -1.02 62.62 -0.44 0 -0 0 68.84 -17.04 49.36 -26.24 37.44 -9.03 0 -0 -5.91 -30.17 -19.46 10.96 7.12 -0 -0 -1.92 -52.21 0.34
3.37 15.93 4.42 176.01 -40.03 -168.31 0 0 0 -32.06 -21.43 8.34 0 0.41 1.12 3.76 -14.64 -35.22 0.76 -5.55 -15.49 0 0 0 13.31 13.53 -12.04 -1.17 -6.87 19.32 -1.05 11.01 -18.71 -0.41 -4.13 11.44 0.86 5.48 9.08 -2.72 6.89 -9.64 -4.99 2.74 -15.39 -9.41 -6.83 -16.41 1.76 -8.37 27.58 0.87 -4.78 12.33 -0 0 0 -82.35 29.92 -16.81 26.06 -37.26 -8.92 -0 0 -16.6 36.45 28.16 19.22 -7.12 0 -0 7.69 63.47 3.46 -0 0 0 68.07 -16.99 47.52 -32.01 42.55 -12.74 0 -0 -4.21 -31.8 -14.02 8.54 7.12 -0 -0 -4.13 -46.31 0.13
3.5 15.94 4.21 175.23 -42.58 -168.44 0 0 0 -29.05 -14.78 0.64 0.25 3.22 8.9 1.18 -18.91 -21.97 0.48 -4.42 -12.27 0 0 0 14.29 13.1 -10.88 -1.38 -7.44 21.02 -1.12 11.49 -19.39 -0.95 -6.21 17.38 -1.35 4.87 9.86 -1.73 5.87 -9.16 -2.51 2.6 -15.74 -8.6 -5.47 -16.91 -0.06 -5.94 26.75 0.46 -3.81 11.86 0 0 0 -81.33 28.48 -21.61 32.42 -42.88 -13.02 -0 0 -23.44 41.29 27.41 22.02 -7.12 0 -0 14.59 64.02 6.8 0 0 0 63.31 -23.16 39.43 -38.4 47.09 -17.26 0 -0 -12.99 -37.53 -16 11.96 7.12 -0 -0 -9.79 -49.61 1.12
3.82 15.97 3.78 181.62 -56.19 -172.8 0 0 0 -19.43 -14.22 -11.17 1.42 7.54 21.33 -0.58 -18.52 -7.02 0.29 -3.46 -9.55 0 0 0 21.45 10.6 -8.79 -1.56 -7.89 22.39 -1.3 5.91 -20.43 -1.13 -6.75 18.98 -3.06 0.71 9.59 2.73 0.48 -9.35 4.75 0.65 -15.99 -6.22 -3.57 -16.1 -2.45 -3.34 26.34 -0.38 -2.72 11.31 0 -0 0 -80.85 18.73 -12.43 45.04 -50.79 -22.27 -0 0 -20.4 45.3 29.96 26.78 -7.12 0 -0 21.39 68.19 12.12 0 -0 0 56.21 -34.47 30.18 -39.72 47.9 -18.23 0 -0 -23.56 -37.48 -14.67 10.99 7.12 -0 -0 -9.69 -47.99 0.72
4.13 15.89 3.29 202.02 -72.09 -192.74 0 0 0 -10.95 -13.33 -22 2.84 10.43 30.39 -0.68 -16.64 -2.72 0.32 -3.65 -10.09 0 0 0 28.76 11.25 -5.25 -2.02 -8.91 25.51 -0.33 10.44 -11.78 -0.01 -0.56 1.54 -3.36 -4.56 12.66 7.11 -6.42 -9.88 12.06 -2.05 -17.32 -4.13 -1.89 -11.52 -2.82 -1.82 24.52 -0.54 -1.84 9.68 0 -0 0 -80.08 0.18 -0.58 52.25 -53.86 -27.98 -0 0 -12.23 44.14 25.4 22.6 -7.12 0 -0 18.56 62.52 8.05 0 -0 0 51.35 -43.94 22.04 -30.96 41.7 -12.04 0 -0 -34.04 -38.55 -15.07 11.71 7.12 -0 -0 -10.79 -48.68 0.99
4.31 15.67 2.92 241.77 -78.47 -231.05 0 0 0 -7.42 -10.87 -31.92 3.9 12.03 35.84 -0.51 -19.28 -8.62 0.47 -4.4 -12.21 0 0 0 33.85 13.42 -3.29 -1.92 -8.7 24.85 0.78 18.42 -4 -0.23 3.07 -8.48 -4.43 -7.66 14.31 10.07 -10.73 -10.59 17.21 -3.76 -17.17 -1.48 -1.08 -10.32 -3.63 -1.12 24.23 -1.17 -1.36 9.3 -0 -0 0 -81.96 -22.81 9.55 46.83 -51.63 -23.66 -0 0 -5.79 48.89 26.33 26.94 -7.12 0 -0 26.39 65.09 13.25 -0 -0 0 49.26 -49.1 14.04 -22.16 33.15 -6.67 0 -0 -37.01 -43.15 -20.02 17.79 7.12 -0 -0 -16.36 -55.76 4.4
4.37 15.4 2.81 256.93 -76 -244.09 0 0 0 -0.99 -11.92 -37.84 4.85 13.21 40.17 -0.49 -21.58 -11.1 0.23 -3.08 -8.5 0 0 0 38.28 11.82 -3.86 -1.41 -7.5 21.22 0.36 17.98 -8.96 -0.1 1.99 -5.49 -2.51 -8.03 14.27 11.11 -10.78 -10.93 17.5 -3.91 -17.75 1.75 -0.06 -12.3 -3.83 -0.26 25.76 -1.74 -0.7 10.23 -0 0 0 -87.15 -34.74 19.21 41.96 -49.19 -19.91 -0 0 -2.34 52.84 26.49 30.48 -7.12 0 -0 33.82 66.53 18.44 -0 0 0 47.2 -48.88 10.95 -21.53 32.44 -6.33 0 -0 -38.72 -45.4 -20.03 19.15 7.12 -0 -0 -19.15 -56.37 5.48
4.34 15.33 3.12 230.5 -71.36 -216.36 0 0 0 0.67 -13.72 -38.06 5.89 14.33 44.56 -0.5 -24.13 -13.41 0.12 -2.21 -6.09 0 0 0 36.28 14.56 -8.44 -2.15 -9.18 26.35 0.6 17.81 -5.86 -0.42 4.15 -11.51 -0.91 -5.59 13.7 10.34 -7.1 -10.53 14.63 -2.45 -18.27 3.23 1.57 -11.88 -4.41 1.91 24.99 -1.92 0.4 9.96 -0 0 0 -86.75 -29.05 20.8 49.05 -52.6 -25.41 -0 -0 4.18 54.98 25.85 31.89 -7.12 0 -0 37.61 66.45 20.67 -0 0 0 41.48 -37.42 20.27 -28.08 39.19 -10.17 0 -0 -40.39 -44.22 -17.32 16.16 7.12 -0 -0 -17.16 -52.68 3.32
4.18 15.37 3.73 199.4 -59.63 -184.69 0 0 0 -2.94 -23.57 -32.41 7.03 15.35 48.98 -0.69 -23.72 -11.47 0.25 -3.2 -8.83 0 0 0 27.08 17.09 -18.99 -4.15 -12.35 36.99 0.27 13.75 -5.98 -1.21 6.98 -19.65 0.13 -0.97 12.79 5.78 -0.89 -9.86 7.06 -0.04 -18.63 5.61 3.37 -11.71 -5.88 4.35 23.79 -2.53 1.63 9.7 0 -0 0 -78.46 -15.71 5.53 58.32 -55.85 -32.95 -0 0 -3.37 58.4 30.43 39.47 -7.12 0 -0 52.6 72.31 36.85 0 -0 0 42.21 -17.74 25.79 -36.71 46 -16.03 0 -0 -34.94 -43.15 -15.76 14.28 7.12 -0 -0 -15.69 -50.46 2.16
3.75 15.21 4.28 182.46 -40.76 -169.66 0 0 0 -13.08 -31.92 -24.05 8.17 16.24 53.16 -1.56 -24.55 -3.61 0.23 -3.09 -8.54 0 0 0 18.1 11.58 -29.39 -5.55 -13.97 43.13 -1.18 2.1 -19.97 -1.49 7.72 -21.87 1.34 4.86 13.98 -2.28 6.32 -9.99 -5.26 2.25 -19.12 7.44 4.52 -12.13 -4.48 5.25 23.12 -2.21 2.4 9.63 -0 -0 0 -68.06 1.71 -13.62 67.7 -58.03 -40.81 -0 0 -9.07 58.54 30.13 39.36 -7.12 0 -0 52.45 72.04 36.45 -0 -0 0 49.12 2.77 28.9 -41.78 49.09 -19.77 0 -0 -29.3 -41.53 -12.79 11.09 7.12 -0 -0 -13.57 -46.39 0.47
3.37 14.88 4.57 175.53 -25.07 -165.55 0 0 0 -24.86 -26.2 -17.8 7.05 15.37 49.04 -2.41 -34.14 -10.97 0.17 -2.66 -7.33 0 0 0 12.85 9.3 -34.03 -4.9 -13.27 40.37 -2.66 -3.3 -32.14 -0.74 5.48 -15.28 1.23 9.65 16.7 -8.2 11.64 -10.53 -13.78 3.96 -19.33 5.7 4.57 -11.89 -1.63 5.09 21.63 -0.96 2.51 8.93 -0 0 0 -61.75 15.09 -30.04 63.06 -57.07 -36.9 -0 0 -11.52 59.33 29.96 40.1 -7.12 0 -0 54.54 72.02 38.11 -0 0 0 52.7 18.78 30.4 -44.11 50.33 -21.55 0 -0 -23.81 -41.26 -10.88 9.4 7.12 -0 -0 -13.07 -43.92 -0.35
3.25 14.53 4.74 175.15 -21.35 -166.21 0 0 0 -27.07 -21.79 -18.53 7.35 15.62 50.18 0.3 -33.19 -25.03 1.77 -8.38 -23.88 0 0 0 10.84 9.03 -38.77 -6.35 -14.76 46.39 -2.57 1.18 -30.03 -0.53 4.68 -13 2.23 10.51 19.45 -8.64 13.08 -9.91 -15.72 4.4 -19.57 5.16 4.96 -12.13 -2.96 6.1 20.07 -1.2 2.84 8.5 -0 -0 0 -60.69 22.19 -38.28 58.43 -55.88 -33.04 -0 0 -12.93 62.31 31.49 44.87 -7.12 0 -0 67.99 73.65 51.47 -0 -0 0 50.8 25.99 28.51 -46.36 51.42 -23.3 0 -0 -21.77 -41.35 -9.4 8.18 7.12 -0 -0 -12.96 -42.05 -0.96
3.36 14.24 4.72 178.03 -29.63 -166.06 0 0 0 -21.42 -25.34 -25.52 9.39 17.06 57.45 0 -33.35 -23.7 1.18 -6.89 -19.39 0 0 0 12.65 9 -40.66 -7.81 -15.98 51.89 -2.7 0.32 -31.06 -1.9 8.66 -24.75 1.92 8.19 16.46 -6.07 10.4 -9.33 -11.5 3.64 -18.61 6.99 5.13 -12.37 -3.35 6.02 20.17 -1.63 2.9 8.65 0 0 0 -60.93 15.59 -36.77 67.5 -58 -40.64 -0 0 -12.09 66.18 31.42 49.73 -7.12 0 -0 82.08 73.22 64.36 0 0 0 49.02 16.95 22.99 -51.53 53.59 -27.4 0 -0 -21.73 -42.01 -10.79 9.57 7.12 -0 -0 -13.77 -43.92 -0.37
3.76 14.18 4.45 187.53 -44.34 -172.14 0 0 0 -9.74 -25.64 -35 11.27 18.07 63.66 1.42 -27.79 -27.27 3.59 -11.59 -34.29 0 0 0 19.21 15.36 -35.82 -8.88 -16.73 55.68 -1.7 2.23 -24.03 -2.85 10.44 -30.41 2.05 3.89 16.15 -1.2 5.48 -9 -4.31 1.93 -19.4 9.31 5.04 -12.77 -3.64 5.38 21.25 -2.18 2.74 9.15 -0 -0 0 -59.36 0.26 -25.42 71.82 -58.71 -44.33 -0 0 -6.86 60.05 29.36 40.4 -7.12 0 -0 55.57 71.55 38.46 -0 -0 0 49.16 -2.02 14.45 -58.65 55.94 -33.22 0 -0 -23.42 -42.81 -11.28 10.27 7.12 -0 -0 -14.61 -44.68 -0.12
4.11 14.16 4.06 207.52 -57.55 -190.64 0 0 0 2.79 -24.53 -43.33 12.17 18.46 66.53 2.49 -23.05 -30.61 3.85 -11.95 -35.56 0 0 0 29.7 21.39 -27.63 -8.88 -16.73 55.68 -1.24 6.4 -19.93 -1.97 8.81 -25.21 1.69 -0.69 18.98 6.41 0.36 -8.09 6.29 0.39 -20.07 10.45 6.24 -11.35 -4.71 7.16 21.44 -2.54 3.56 9.17 0 0 0 -62.34 -17.32 -13.93 68.06 -58.1 -41.12 -0 0 -0.68 60.56 29.5 41.11 -7.12 0 -0 57.44 71.76 40.21 0 0 0 48.75 -20.57 5.02 -63.88 57.26 -37.58 0 -0 -27.55 -42.7 -12.12 10.96 7.12 -0 -0 -14.63 -45.74 0.27
4.29 14 3.84 230.33 -65.86 -211.7 0 0 0 12.29 -27.6 -53.66 13.14 18.83 69.55 0.81 -25.8 -23.06 1.96 -8.78 -25.11 0 0 0 35.55 18.16 -25.02 -8.03 -16.14 52.68 -2.1 9.36 -26.03 -2.45 9.75 -28.16 1.83 -4.22 21.11 10.45 -3.93 -7.83 12.77 -1.16 -20.45 11 6.85 -11.21 -4.35 7.83 20.77 -2.42 3.97 8.99 0 -0 0 -65.96 -32.06 -2.6 59.47 -56.17 -33.9 -0 -0 2.1 61.16 28.76 41.15 -7.12 0 -0 57.81 71.15 39.85 0 -0 0 50.86 -34.02 -3.08 -56.11 55.18 -31.13 0 -0 -31.17 -44.21 -12.83 12.19 7.12 -0 -0 -16.27 -46.93 0.8
4.4 13.79 3.88 230.28 -69.17 -209.49 0 0 0 12.75 -29.07 -60.31 13.84 19.06 71.71 0.41 -26.76 -21.33 1.7 -8.21 -23.34 0 0 0 35.47 11.5 -30.08 -7.74 -15.93 51.64 -3.54 -1.63 -36.26 -2.54 9.91 -28.67 1.66 -4.68 20.81 8.48 -4.77 -8.4 10.8 -1.58 -20.91 11.75 5.51 -12.86 -4.7 5.75 19.99 -2.88 3 8.88 0 -0 0 -67.74 -37.84 8.82 54.69 -54.72 -29.96 -0 -0 3.46 58.1 28.94 37.87 -7.12 0 -0 49.14 70.75 32.58 0 -0 0 54.51 -37.81 -6.25 -48.38 52.32 -24.89 0 -0 -33.79 -45.68 -12.98 12.95 7.12 -0 -0 -17.8 -47.41 1.09
4.42 13.68 4.08 203.41 -64.44 -180.94 0 0 0 5.89 -29.5 -59.6 13.79 19.05 71.55 0.97 -27.34 -24.75 2.03 -8.92 -25.55 0 0 0 29.06 12.82 -40.76 -9.58 -17.17 58.09 -3.61 -8.52 -39.52 -1.1 6.67 -18.73 -2.51 -1.84 18.65 4 -2.74 -9.31 7.08 -0.49 -20.99 11.39 5.68 -13.15 -4.79 6.06 20.35 -2.81 3.11 9.08 0 0 0 -67.2 -30.56 6.52 59.13 -56.07 -33.62 -0 -0 5.46 60.21 28.77 40.06 -7.12 0 -0 54.93 71 37.35 0 0 0 51.6 -28.25 -4.24 -53.69 54.38 -29.15 0 -0 -32.06 -44.97 -11.51 11.27 7.12 -0 -0 -16.77 -45.35 0.15
4.3 13.68 4.42 184.21 -51.27 -164.62 0 0 0 -2.76 -35.55 -49.93 13.66 19.01 71.15 -0.05 -28.84 -20.15 2.19 -9.24 -26.56 0 0 0 22.68 10.78 -47.59 -9.9 -17.36 59.16 -4.71 -11.03 -45.58 -0 0.24 -0.66 -4.74 2.42 19.8 -3.44 0.98 -9.24 -1.61 0.63 -21.99 11.5 5.52 -13.25 -3.49 5.53 19.34 -2.44 3 8.67 -0 -0 0 -59.75 -17.99 -7.37 65.08 -57.52 -38.6 -0 0 -2.41 59.97 29.85 40.73 -7.12 0 -0 56.31 72.01 39.55 -0 -0 0 51.01 -11.11 -0.58 -57.07 55.48 -31.92 0 -0 -27.25 -45.28 -11.47 11.35 7.12 -0 -0 -17.06 -45.35 0.15
4.11 13.67 4.68 178.96 -36.29 -162.74 0 0 0 -10.23 -36.89 -41.07 14.54 19.27 73.84 -0.87 -32.36 -18.34 2.14 -9.14 -26.25 0 0 0 17.79 12.95 -49.3 -9.85 -17.32 58.98 -3.94 -8.94 -41.23 -0.01 0.64 -1.77 -3.37 6.68 22.15 -9.17 5.61 -8.63 -11.04 1.58 -22.04 9.64 5.75 -14.49 -1.21 5.67 18.48 -1.32 3.15 8.49 -0 0 0 -55.18 -1.46 -21.73 67.71 -58.04 -40.82 -0 0 -5.94 61.94 30.33 43.45 -7.12 0 -0 63.8 72.66 46.61 -0 0 0 49.75 8.52 3.37 -52.9 54.1 -28.51 0 -0 -24.17 -45.51 -10.81 10.81 7.12 -0 -0 -17.14 -44.52 -0.21
4.02 13.72 4.71 180.03 -27.51 -164.89 0 0 0 -13.48 -32.32 -34.5 13.64 19 71.1 -0.35 -34.88 -23.14 2.13 -9.13 -26.2 0 0 0 18.9 14.72 -46.44 -9.11 -16.88 56.48 -3.7 -2.32 -37.27 -0 -0.44 1.21 -1.19 9.22 23.37 -10.6 9.43 -8.37 -15.6 2.78 -21.22 7.45 5.67 -14.92 -0.98 6.05 17.72 -0.85 3.21 8.23 0 -0 0 -55.63 10.17 -33.04 62.63 -56.97 -36.54 -0 0 -10.5 64.11 31.62 47.21 -7.12 0 -0 74.94 73.66 57.94 0 -0 0 45.2 18.58 7.18 -49.69 52.87 -25.92 0 -0 -23.43 -43.97 -9.39 8.95 7.12 -0 -0 -15.38 -42.4 -1.01
4.18 13.89 4.58 181 -29.1 -165.8 0 0 0 -13.01 -31.53 -31.47 11.9 18.35 65.67 0.64 -34.72 -27.6 1.09 -6.63 -18.63 0 0 0 20.44 12.08 -44.88 -8.75 -16.64 55.23 -3.11 -0.34 -33.56 -0.04 1.26 -3.47 -2.14 9.13 21.63 -9.63 9.4 -8.28 -13.5 3.16 -20.36 8.09 5.45 -14.47 -1.21 5.65 18.41 -1.08 3.04 8.4 0 0 0 -55.32 8.34 -39.33 68.97 -58.26 -41.89 -0 0 -12.59 69.2 33.13 55.19 -7.12 0 -0 98.42 73.06 81.28 0 0 0 43.88 14.86 6.39 -51.68 53.65 -27.52 0 -0 -21.15 -44.76 -9.89 9.67 7.12 -0 -0 -16.22 -43.18 -0.75
4.5 14.3 4.25 186.06 -39.13 -168.81 0 0 0 -4.3 -32.97 -33.26 10.33 17.59 60.6 -0.5 -32.49 -20.49 1.07 -6.58 -18.48 0 0 0 24.27 11.13 -39.14 -7.56 -15.79 50.97 -2.19 1.29 -27.67 -0.45 4.28 -11.87 -2.85 6.69 18.16 -6.35 6.93 -8.47 -7.94 2.69 -19.38 10.12 5.22 -13.83 -1.03 4.75 20.29 -1.47 2.77 8.95 0 0 0 -51.86 -3.66 -33.48 77.35 -59.39 -49.07 -0 0 -10.04 63.84 31.01 46.37 -7.12 0 -0 72.24 73.23 54.89 0 0 0 47.36 -1.67 -0.28 -58.76 55.97 -33.31 0 -0 -22.73 -44.67 -10.81 10.5 7.12 -0 -0 -16.33 -44.37 -0.26
4.88 14.9 3.68 202.06 -51.5 -182.57 0 0 0 10.77 -24.54 -36.93 7.45 15.7 50.56 -0.58 -23.23 -11.87 1.6 -7.99 -22.68 0 0 0 36.04 10.31 -28.45 -5.03 -13.41 40.94 -1.41 -0.43 -22.6 -2.13 9.13 -26.21 -3.04 2.53 16.1 0.57 2.71 -7.76 1.55 1.58 -18.37 12.56 5.42 -12.68 -1.69 4.59 22.16 -2.13 2.82 9.49 -0 0 0 -50.15 -16.71 -23.82 79.85 -59.61 -51.22 -0 0 -7.63 61.57 31.55 44.02 -7.12 0 -0 65.48 73.69 49.25 -0 0 0 49.57 -18.96 -10.19 -65.56 57.62 -39 0 -0 -26.96 -45.11 -9.83 9.72 7.12 -0 -0 -16.54 -43.15 -0.78
5.05 15.43 3.17 226.99 -60.35 -207.88 0 0 0 19.86 -15.04 -37.75 4.48 12.77 38.51 0.01 -16 -11.34 0.96 -6.24 -17.48 0 0 0 45.84 -3.6 -18.91 -1.84 -8.52 24.31 -0.52 6.78 -13.01 -3.96 12.11 -36.12 -4.15 -2.64 17.17 7.88 -3.75 -7.5 12.6 -0.72 -17.38 15.42 6.68 -9.7 -3.59 6.41 24.28 -3.11 3.7 10.03 -0 0 0 -50.13 -24.8 -15.29 78.51 -59.49 -50.06 -0 0 -6.28 62.77 31.15 45.15 -7.12 0 -0 68.75 73.37 51.84 -0 0 0 44.4 -27.44 -17.39 -61.05 56.58 -35.22 0 -0 -26.99 -46.51 -9.73 10.1 7.12 -0 -0 -17.85 -43.24 -0.8
5.08 15.65 3.1 245 -64.31 -225.02 0 0 0 22.84 -16.46 -37.05 2.53 9.9 28.64 1.08 -17.94 -20.95 0.85 -5.87 -16.42 0 0 0 46.19 -5.21 -13.94 -0.66 -5.18 14.41 1.06 19.24 -0.42 -5.59 14.02 -43.33 -2.43 -5.74 17.62 9.58 -7.54 -9.2 15.1 -2.39 -18.85 16.31 6.72 -7.88 -3.14 6.32 25.35 -3.16 3.77 10.11 0 0 0 -54.35 -33.78 -7.52 73.52 -58.95 -45.78 -0 0 -3.43 63.46 30.12 45.14 -7.12 0 -0 68.56 72.54 50.72 0 0 0 37.87 -33.08 -24.46 -58.46 55.89 -33.06 0 -0 -27.23 -47.59 -9.97 10.73 7.12 -0 -0 -18.95 -43.73 -0.62
5.02 15.57 3.19 236.77 -65.03 -216.16 0 0 0 19.02 -11.81 -38.61 2.84 10.43 30.39 0.19 -21.06 -16.26 0.39 -3.99 -11.05 0 0 0 43.67 -2.56 -10.84 -0.25 -3.21 8.87 0.71 16.76 -2.44 -3.92 12.06 -35.93 -2.71 -5.06 13.44 7.2 -7.02 -9.93 12.1 -2.37 -17.82 14.79 6.31 -8.82 -2.13 5.68 25.15 -2.61 3.45 10.05 0 -0 0 -59.13 -33.1 -2.27 83.09 -59.82 -54.02 -0 0 -4.73 65.27 29.43 46.84 -7.12 0 -0 73.16 71.96 54.27 0 -0 0 31.81 -31.23 -29.78 -65.26 57.56 -38.75 0 -0 -29.41 -48.69 -9.5 10.64 7.12 -0 -0 -19.87 -43.28 -0.88
4.88 15.61 3.51 218.13 -57.85 -198.96 0 0 0 13.93 -4.83 -32.26 2.84 10.43 30.38 -0.73 -23.45 -10.86 0.13 -2.36 -6.49 0 0 0 40.58 4.44 -6.18 -0.15 -2.52 6.96 0.25 12.89 -5.27 -3.24 11.07 -32.52 -1.49 -1.8 11.12 4.6 -2.54 -9.91 6.87 -0.74 -17.34 14.33 6.82 -8.79 -2.97 6.86 23.81 -2.68 3.88 9.66 -0 0 0 -57.76 -20.53 -8.87 100.7 -59.56 -69.25 -0 0 -4.71 64.78 31.68 48.11 -7.12 0 -0 77.59 73.63 60.45 -0 0 0 25.51 -20.08 -27.99 -81.1 59.7 -52.3 0 -0 -29.68 -48.89 -9.96 11.21 7.12 -0 -0 -20.2 -43.96 -0.54
4.49 15.87 4.07 194.66 -44.92 -178.33 0 0 0 -1.4 -7.55 -18.22 1.63 8.04 22.83 -0.73 -27.18 -14.47 0.07 -1.68 -4.61 0 0 0 28.12 14.17 -11.08 -0.97 -6.27 17.58 -0.03 11.27 -8.29 -1.42 7.54 -21.33 -2.47 3.13 8.56 -2.62 3.02 -10.56 -2.22 1.26 -16.72 14.51 7.54 -9.56 -1.29 7.29 23.84 -2.03 4.26 9.83 -0 -0 0 -53.29 -1.26 -22.19 114.68 -57.57 -81.2 -0 0 -9.66 64.62 32.61 48.65 -7.12 0 -0 79.74 74.27 63.28 -0 -0 0 26.02 -6.49 -21.74 -96.33 59.85 -65.48 0 -0 -27.33 -48.73 -9.17 10.3 7.12 -0 -0 -19.8 -42.83 -1.11
4.02 16.12 4.52 182.04 -30.64 -171.63 0 0 0 -16.73 -20.94 -1.04 1.27 7.15 20.15 -1.47 -25.48 -6.31 0.02 0.83 2.28 0 0 0 17.95 16.02 -14.27 -1.69 -8.18 23.28 -0.34 6.2 -10.6 -0.5 4.51 -12.52 -2.72 7.94 9.43 -9.05 8.14 -10.98 -10.8 2.87 -16.83 13.22 7.22 -9.48 1.01 6.57 22.9 -1.14 4.02 9.29 0 0 0 -52.96 16.19 -38.66 118.38 -56.73 -84.31 -0 0 -13.67 65.76 31.73 49.44 -7.12 0 -0 81.44 73.5 64.06 0 0 0 27.26 7.69 -16.07 -101.28 59.51 -69.75 0 -0 -25.44 -47.56 -9.23 9.94 7.12 -0 -0 -18.71 -42.71 -1.1
3.69 16.14 4.82 179.28 -22.35 -171.42 0 0 0 -22.58 -23.27 7.36 0.81 5.75 16.06 -1.03 -18.25 1.9 0.01 0.55 1.5 0 0 0 16.9 12.91 -14.68 -1.42 -7.53 21.3 -0.97 -1.68 -19.3 -0.03 -1.15 3.17 -0.89 10.13 9.75 -10.57 11.15 -11.16 -14.24 3.93 -16.09 11.95 6.71 -9 -0.65 6.77 20.69 -1.52 3.84 8.41 0 0 0 -54.59 25.36 -51.18 112.21 -58.05 -79.11 -0 0 -17.13 72.94 34.18 61.36 -7.12 0 -0 97.36 -72.62 -115.77 0 0 0 24.46 17.5 -10.86 -101.19 59.52 -69.68 0 -0 -24.65 -46.93 -8.63 9.12 7.12 -0 -0 -17.97 -41.79 -1.47
3.48 16.03 5.1 178.07 -22.04 -171.03 0 0 0 -24.29 -19.55 9.18 0.26 3.3 9.13 -0.8 -17.08 -1.01 0.12 -2.26 -6.23 0 0 0 13.72 10.03 -15.94 -1.26 -7.13 20.09 -0.84 -3.59 -18.92 -0.37 3.89 -10.77 -1.1 9.78 8.73 -9.63 10.91 -10.93 -12.67 4.04 -15.43 11.36 6.44 -9.03 -3.05 7.06 20.54 -2.2 3.73 8.43 0 -0 0 -50.95 20.09 -46.94 117.72 -56.89 -83.75 -0 0 -16.86 69.99 33.38 56.5 -7.12 0 -0 84.79 -73.08 -102.19 0 -0 0 21.22 16.94 -6.92 -103.96 59.25 -72.06 0 -0 -23.22 -46.43 -8.14 8.46 7.12 -0 -0 -17.38 -41.06 -1.75
3.51 16.01 5.33 183.75 -31.83 -174.78 0 0 0 -16.49 -15.17 1.41 0.55 4.76 13.22 -0.78 -17.93 -3.12 0.33 -3.69 -10.19 0 0 0 18.34 3.8 -10.74 -0.6 -4.97 13.81 -0.62 -7.05 -19.08 -1.46 7.63 -21.6 0.81 5.76 8.76 -5.48 6.73 -9.96 -8.03 2.4 -15.26 12.01 6.15 -9.74 -5.54 7.02 21.2 -3.14 3.51 8.88 0 -0 0 -45.4 6.37 -35.48 119.46 -56.45 -85.21 -0 0 -13.27 67.46 33.93 53.37 -7.12 0 -0 94.63 74.17 78.39 0 -0 0 22.58 7.24 -8.23 -111.1 58.25 -78.17 0 -0 -20.69 -46.49 -7.91 8.25 7.12 -0 -0 -17.38 -40.75 -1.89
3.67 16.14 5.36 201.67 -46.89 -188.79 0 0 0 -0.48 -12.51 -14.06 2.15 9.18 26.34 -0.83 -16.41 1.62 0.04 -1.27 -3.49 0 0 0 31.61 6.32 2.11 -0.03 -1.11 3.06 -0.73 -10.66 -23.3 -0.03 1.04 -2.85 2.8 -0.62 9.42 3.47 -0.33 -8.82 2.44 -0.37 -15.14 12.24 6.38 -9.91 -9.69 8.2 21.3 -4.49 3.66 9.24 -0 -0 0 -44.61 -9.77 -26.58 117.59 -56.92 -83.65 -0 0 -7.82 64.43 31.81 47.77 -7.12 0 -0 76.66 73.76 59.7 -0 -0 0 22.68 -6.5 -14.53 -116.83 57.1 -83.01 0 -0 -22.86 -47.15 -7.75 8.27 7.12 -0 -0 -17.94 -40.62 -2.01
3.66 16.3 5.53 222.63 -55.77 -207.69 0 0 0 8.87 -23.86 -18.41 2.72 10.23 29.74 -1.16 -19.1 2.59 0.04 -1.31 -3.6 0 0 0 38.04 5.21 7.19 -0.03 1.12 -3.09 0.18 -13.47 -16.85 -0.06 -1.63 4.48 2.6 -4.67 12.99 10.81 -5.34 -9.67 13.09 -2.13 -17.78 11.91 6.64 -9.03 -12.84 9.37 23.04 -5.51 3.77 9.97 0 0 0 -48.21 -24.64 -15.71 110.68 -58.32 -77.81 -0 0 -3.72 65.08 30.81 47.8 -7.12 0 -0 76.27 72.98 58.42 0 0 0 22.75 -20.1 -22.93 -114.31 57.64 -80.89 0 -0 -22.34 -47.01 -6.61 7.04 7.12 -0 -0 -17.53 -39.03 -2.68
3.49 16.38 5.89 220.64 -61.6 -204.23 0 0 0 2.46 -38.52 -20.33 3.67 11.71 34.7 -1.45 -24.02 -4.07 0.04 -1.36 -3.75 0 0 0 28.83 7.5 4.45 -0.02 0.95 -2.62 0.79 -16.51 0.03 -0.33 3.69 -10.2 -2.01 -5.17 11.88 10.64 -7.02 -11.56 15.57 -2.32 -18.24 12.06 5.93 -10.29 -12.79 8.28 23.66 -5.66 3.25 10.28 -0 -0 0 -54.02 -33.9 -2.74 106.76 -58.91 -74.46 -0 0 -0.17 64.62 29.48 46.05 -7.12 0 -0 70.99 72.02 52.33 -0 -0 0 28.95 -28.04 -32.83 -106.45 58.95 -74.2 0 -0 -26.61 -49.75 -8.47 9.87 7.12 -0 -0 -20.55 -42 -1.6
3.31 16.35 6.25 212.21 -56.69 -196.28 0 0 0 -2.68 -36.6 -14.56 2.76 10.29 29.92 -0.94 -24.49 -10.09 0.26 -3.25 -8.98 0 0 0 25.54 11.64 -2.56 -0.23 -3.08 8.49 0.28 -12.98 4.9 -1.27 7.14 -20.13 -0.2 -3.21 9.84 8.12 -4.16 -10.97 10.78 -1.45 -17.5 11.69 5.45 -10.56 -12.48 7.57 23.02 -5.54 2.94 9.96 0 -0 0 -56.1 -29.38 2.71 112.53 -57.99 -79.38 -0 -0 2.06 63.46 29.51 44.6 -7.12 0 -0 67.02 72.04 48.75 0 -0 0 32.72 -19.95 -34.11 -107.5 58.81 -75.09 0 -0 -28.31 -50.34 -8.55 10.17 7.12 -0 -0 -21.13 -42.21 -1.53
3.11 16.36 6.59 188.71 -47.67 -176.65 0 0 0 -19.19 -26.65 -6.82 1.06 6.54 18.35 0.02 -23.74 -16.89 1.07 -6.58 -18.47 0 0 0 11.81 13.68 -13.98 -1.59 -7.96 22.59 0.5 -12.92 -1.08 -0.98 6.29 -17.62 -6.53 0.66 8.03 1.26 -0.61 -11.32 5.33 0.44 -17.4 11.84 4.64 -10.15 -10.44 5.95 23.76 -5.06 2.42 9.86 -0 0 0 -53.46 -16.97 -2.95 119.36 -56.48 -85.12 -0 0 -0.6 63.36 29.89 44.81 -7.12 0 -0 67.62 72.35 49.64 -0 0 0 34.68 -7.83 -26.03 -109.79 58.47 -77.05 0 -0 -21.98 -50.15 -8.45 9.98 7.12 -0 -0 -20.92 -42.03 -1.61
2.82 16.24 6.88 173.48 -35.5 -168.41 0 0 0 -33.12 -11.27 -0.27 0.07 1.73 4.75 0.87 -22.01 -21.42 2.34 -9.54 -27.51 0 0 0 0.29 13.72 -18.89 -2.33 -9.52 27.42 -0.11 -15.41 -22.96 -0.05 -1.48 4.06 -8.27 5.4 9.39 -7.5 3.68 -11.2 -4.95 1.54 -18.42 10.54 3.58 -11.07 -5.43 3.46 23.87 -3.32 1.69 9.67 -0 0 0 -48.75 -2.98 -14.83 126.17 -54.43 -90.74 -0 0 -3.98 61.85 30.42 43.43 -7.12 0 -0 63.72 72.74 46.64 -0 0 0 38.78 3.27 -20.16 -109.14 58.57 -76.5 0 -0 -21.05 -50.22 -7.6 9.02 7.12 -0 -0 -20.7 -40.83 -2.24
2.54 15.97 7.09 170.75 -27.26 -169.05 0 0 0 -37.31 -6.14 -0.32 0.09 1.92 5.27 1.02 -20.65 -21.69 2.27 -9.4 -27.05 0 0 0 1.12 12.38 -19.71 -1.83 -8.51 24.26 -3.98 -13.17 -43.69 -1.45 -7.6 21.51 -2.19 8.53 12.07 -11.85 8.02 -11.08 -14.39 2.27 -17.96 6.67 2.5 -12.09 -2.8 2.13 23.12 -1.88 1.04 9.39 -0 0 0 -48.47 9.55 -27.08 125.1 -54.79 -89.86 -0 0 -5.06 64.86 31.12 47.77 -7.12 0 -0 76.32 73.23 58.75 -0 0 0 38.38 9.85 -15.65 -109.88 58.45 -77.13 0 -0 -20.49 -49.12 -7.58 8.66 7.12 -0 -0 -19.69 -40.64 -2.21
2.42 15.87 7.14 171.94 -24.91 -168.72 0 0 0 -36.68 -8.36 -3.78 0.34 3.74 10.35 1.19 -19.74 -22.41 2.13 -9.13 -26.2 0 0 0 3.37 14.82 -19.37 -1.38 -7.44 21.02 -5.8 -12.35 -50.39 -2.42 -9.69 27.97 0.91 9.26 11.01 -10.98 10.22 -10.78 -15.81 3.2 -16.21 4.24 2.7 -13.09 -5.28 3.56 22.97 -2.15 1.21 9.58 -0 -0 0 -51.95 15.03 -34.13 123.3 -55.36 -88.39 -0 0 -9.23 71.3 34.07 58.86 -7.12 0 -0 91.64 -73.14 -109.35 -0 -0 0 34.81 10.59 -10.17 -112.09 58.07 -79.01 0 -0 -18.45 -48.16 -7.43 8.22 7.12 -0 -0 -18.77 -40.31 -2.26
2.57 15.85 7.01 172.83 -28.94 -168.81 0 0 0 -34.89 -9.35 -5.31 0.57 4.84 13.47 0.94 -18.62 -20.3 2.36 -9.58 -27.62 0 0 0 2.67 16.16 -18.37 -2.04 -8.95 25.65 -2.56 -13.23 -37.18 -0.51 -4.56 12.65 -1.08 7.61 10.78 -8.89 8.07 -10.2 -11.61 2.71 -16.48 5.3 3.2 -13.19 -7.13 4.45 22.56 -2.86 1.52 9.58 -0 -0 0 -48.01 6.16 -33.61 125.32 -54.72 -90.05 -0 0 -5.94 66.15 31.68 49.91 -7.12 0 -0 82.75 73.38 65.23 -0 -0 0 38.2 1.44 -5.02 -118.52 56.69 -84.43 0 -0 -17.22 -48.17 -8.12 8.97 7.12 -0 -0 -18.98 -41.27 -1.82
2.97 15.92 6.67 180.65 -41.43 -171.86 0 0 0 -24.3 -13.08 -11.72 1.44 7.58 21.45 -0 -19.07 -13.39 2.98 -10.66 -31.15 0 0 0 9.45 24.6 -10.32 -2.32 -9.5 27.37 -0.72 -12.92 -25.42 -0.52 4.61 -12.79 -1.51 3.16 9.97 -3.49 3.08 -9.94 -3.82 1.1 -16.75 6.01 3.82 -14 -8.1 5.37 24.42 -3.25 1.81 10.52 -0 -0 0 -45.8 -8.34 -26.03 124.41 -55.01 -89.3 -0 0 -3.14 64.45 31.22 47.31 -7.12 0 -0 75.06 73.34 57.68 -0 -0 0 45.25 -16.53 -4.83 -123.63 55.26 -88.67 0 -0 -14.33 -48.29 -7.18 7.98 7.12 -0 -0 -18.82 -39.97 -2.43
3.37 15.88 6.21 198.49 -57.02 -185.44 0 0 0 -9.46 -22.3 -20.03 3.02 10.73 31.36 -0.66 -19.72 -7.36 3.71 -11.77 -34.91 0 0 0 22.95 31.01 -0.65 -2.22 -9.31 26.78 -0.02 -10.75 -15.68 -2.98 10.66 -31.16 0.04 -2.7 11.23 4.76 -3.48 -9.82 6.43 -1.36 -17.24 7.69 4.85 -12.31 -13.09 7.55 23.28 -5.07 2.41 10.26 -0 -0 0 -50.05 -22.19 -16.6 118.93 -56.59 -84.77 -0 -0 0.51 63.88 27.42 43.21 -7.12 0 -0 63.54 70.26 43.63 -0 -0 0 52.06 -30.86 -11.9 -120.13 56.28 -85.77 0 -0 -15.46 -48.22 -7.07 7.84 7.12 -0 -0 -18.73 -39.81 -2.5
3.69 15.76 5.9 222.16 -67.64 -206.62 0 0 0 1.54 -35.43 -29.76 5.03 13.42 40.95 -0.86 -20.38 -5.84 4.17 -12.38 -37.1 0 0 0 29.16 28.45 2.46 -1.6 -7.98 22.65 -0.39 -2.69 -13.1 -4.87 13.24 -40.26 2.64 -6.58 13.44 9.96 -7.78 -10.59 12.26 -3.27 -18.53 8.61 4.83 -10.92 -16.69 7.97 21.27 -6.45 2.4 9.53 0 -0 0 -57.88 -34.29 -4.52 110.7 -58.32 -77.82 -0 -0 4 63.06 27.67 42.42 -7.12 0 -0 61.45 70.39 42.02 0 -0 0 62.05 -40.13 -26.84 -110.72 58.31 -77.84 0 -0 -15.17 -48.2 -8.46 9.35 7.12 -0 -0 -19.1 -41.75 -1.59
3.93 15.61 5.74 228.35 -69.76 -212.25 0 0 0 5.09 -40.34 -34.38 6.14 14.56 45.53 -0.67 -20.61 -8.29 4.2 -12.42 -37.25 0 0 0 27.11 19.68 0.07 -0.96 -6.24 17.47 -0.37 3.93 -10.89 -4.62 12.94 -39.15 3.63 -6.52 15.01 10.46 -7.25 -10.52 12.43 -3.02 -19.63 7.15 4.43 -13.1 -14.01 7.26 22.57 -5.32 2.15 10.14 -0 0 0 -66.75 -39.78 9.1 103.12 -59.34 -71.34 -0 -0 1.08 64.49 28.92 45.38 -7.12 0 -0 69.11 71.58 50.09 -0 0 0 59.27 -38.49 -26.04 -103.34 59.32 -71.52 0 -0 -20.31 -49.6 -9.96 11.48 7.12 -0 -0 -20.89 -44.08 -0.5
4.13 15.49 5.61 217.17 -63.43 -200.44 0 0 0 6.2 -36.72 -32.97 5.98 14.41 44.9 -0.01 -19.98 -14.02 3.48 -11.43 -33.75 0 0 0 26.68 13.62 -7.02 -1.22 -7 19.71 -0.41 0.98 -11.73 -2.91 10.55 -30.78 5.35 -2.98 13.96 8.57 -2.26 -9.48 7.96 -1.12 -18.93 7.64 3.81 -13.9 -14.15 6.36 23.23 -5.61 1.73 10.44 0 -0 0 -68.79 -28.49 15.22 107.9 -58.75 -75.44 -0 -0 8.09 64.65 30.46 46.93 -7.12 0 -0 73.69 72.77 55.71 0 -0 0 51.66 -27.47 -13.57 -107.76 58.77 -75.32 0 -0 -15.57 -48.57 -7.4 8.31 7.12 -0 -0 -19.14 -40.32 -2.3
4.17 15.5 5.58 192.44 -51.88 -175.46 0 0 0 -5.21 -34.3 -27.28 5.17 13.57 41.53 1.99 -17.58 -26.47 3.75 -11.83 -35.12 0 0 0 19.16 2.32 -22.76 -2.36 -9.58 27.63 -1.08 -4.58 -21.8 -1.48 7.69 -21.77 1.59 2.43 11.05 2.21 3.6 -9.95 0.76 1.48 -17.66 6.06 3.2 -13.8 -10.8 5.16 24.86 -4.3 1.39 10.71 0 -0 0 -64.58 -9.71 6.27 112.08 -58.07 -79 -0 -0 3.48 62.32 30.11 43.73 -7.12 0 -0 64.58 72.5 47.12 0 -0 0 49.48 -9.89 -1.45 -107.34 58.83 -74.95 0 -0 -12.7 -47.83 -6.62 7.25 7.12 -0 -0 -18.26 -39.13 -2.75
4.09 15.42 5.46 177.69 -35.77 -165.87 0 0 0 -20.6 -25.29 -17.72 3.74 11.8 35.03 3.06 -18.42 -32.28 3.7 -11.75 -34.87 0 0 0 12.14 -3.56 -28.03 -2.07 -9 25.8 -2.4 -10.23 -34.33 -0.28 3.42 -9.45 0.15 8.09 13.66 -6.78 9.62 -9.97 -10.7 3.48 -17.94 4.74 2.68 -14.38 -5.4 3.4 25.92 -2.35 1.11 10.91 0 -0 0 -57.84 10.74 -6.38 114.58 -57.59 -81.12 -0 -0 0.94 60.89 28.73 40.8 -7.12 0 -0 56.88 71.07 39.01 0 -0 0 54.85 8.83 6.91 -98.6 59.72 -67.44 0 -0 -8.91 -47.46 -6.44 6.96 7.12 -0 -0 -17.88 -38.83 -2.82
4.27 15.16 5.23 176.75 -27.32 -168.11 0 0 0 -21.06 -19.3 -15.74 4.48 12.78 38.54 1.56 -26.01 -27.12 2.13 -9.14 -26.23 0 0 0 12.46 -4.02 -31.44 -3.18 -10.99 32.23 -1.96 -6.23 -29.25 -0.99 6.32 -17.72 4.11 10.36 19.11 -9.98 13.14 -9.94 -18.27 4.18 -18.62 2.37 2.53 -13.74 -2.65 3.1 25.05 -0.99 1.1 10.35 0 -0 0 -59.47 27.86 -21.43 105.65 -59.05 -73.51 -0 0 -0.63 64.06 30.38 46.11 -7.12 0 -0 71.34 72.74 53.49 0 -0 0 57.88 26.39 14.83 -82.75 59.8 -53.72 0 -0 -8.5 -47.28 -6.36 6.84 7.12 -0 -0 -17.71 -38.71 -2.85
4.53 14.72 4.87 177.73 -28.93 -167.65 0 0 0 -17.17 -29.39 -16.91 6.48 14.88 46.88 0.5 -29.75 -23.71 2.11 -9.09 -26.08 0 0 0 13.85 2.93 -34.57 -5.18 -13.58 41.58 -3.26 -2.28 -35.02 -0.16 2.56 -7.06 4.6 10.22 16.67 -8.7 13.41 -9.45 -16.29 4.76 -16.61 0.5 2.34 -13.91 -4.38 3.76 24.44 -1.19 1.03 10.19 0 0 0 -65.29 29.89 -30.76 100.9 -59.55 -69.42 -0 0 -4.19 69.85 33.33 56.27 -7.12 0 -0 84.15 -73.07 -101.51 0 0 0 56.89 32.51 22.62 -75.98 59.24 -47.89 0 -0 -8.69 -46.07 -5.19 5.36 7.12 -0 -0 -16.38 -36.97 -3.35
5.07 14.44 4.42 180.26 -38.03 -167.36 0 0 0 -9.01 -34.43 -26.35 8.91 16.75 55.76 2.1 -23.63 -28.89 3.26 -11.11 -32.65 0 0 0 16.96 13.22 -34.75 -7.53 -15.77 50.87 -3.47 -6.42 -37.84 -1.6 7.98 -22.66 2.21 8.31 15 -6.41 10.57 -9.73 -11.84 3.72 -18.02 1.91 1.87 -14.36 -5.26 2.96 25.39 -1.86 0.66 10.63 -0 -0 0 -61.5 18.76 -26.38 112.33 -58.03 -79.21 -0 0 -1.81 67.61 30.5 50.94 -7.12 0 -0 84.78 72.34 66.05 -0 -0 0 57.03 20.18 26.03 -89.01 60 -59.15 0 -0 -3.34 -46.85 -5.87 6.22 7.12 -0 -0 -17.21 -37.98 -3.08
5.73 14.21 3.81 194.61 -53.5 -177.49 0 0 0 7.73 -30.29 -43.71 10.89 17.88 62.43 3.43 -12.89 -33.54 5.46 -13.88 -42.75 0 0 0 30.1 20.52 -29.61 -8.43 -16.42 54.08 -3.86 -9.52 -41.16 -2.97 10.64 -31.08 3.79 3.52 14.73 -0.81 5.38 -9.73 -4.69 1.69 -19.3 3.64 2.05 -15.03 -6.44 3.11 25.3 -2.56 0.76 10.79 0 0 0 -60.92 2.93 -16.85 119.7 -56.39 -85.41 -0 -0 0.29 64.3 29.17 45.36 -7.12 0 -0 69.09 71.78 50.3 0 0 0 57.65 0.76 23.73 -103.77 59.27 -71.9 0 -0 -4.56 -46.53 -6.3 6.6 7.12 -0 -0 -17.04 -38.54 -2.81
6.19 13.99 3.25 223.21 -65.91 -204.32 0 0 0 20.32 -25.79 -59.25 11.67 18.25 64.94 3.27 -6.45 -32.97 4.47 -12.76 -38.49 0 0 0 43.43 13.83 -26.71 -6.94 -15.28 48.63 -5.45 -10.71 -48.33 -2.12 9.11 -26.15 4.67 -1.76 17.2 6.29 -0.46 -9.45 4.78 -0.4 -20.63 5.42 2.79 -14.8 -8.6 4.23 23.97 -3.47 1.22 10.41 0 -0 0 -67.1 -13.16 -6.98 120.27 -56.24 -85.88 -0 -0 4.71 64.31 28.85 45.09 -7.12 0 -0 68.35 71.52 49.33 0 -0 0 57.59 -20.07 18.36 -110.34 58.38 -77.52 0 -0 -6.7 -46.75 -5.82 6.15 7.12 -0 -0 -17.11 -37.91 -3.1
6.45 13.82 2.98 244.1 -71.05 -226.46 0 0 0 21.63 -24.41 -64.06 11.17 18.02 63.33 2.8 -4.17 -30.73 4.44 -12.73 -38.37 0 0 0 46.44 2.01 -30.33 -6.84 -15.19 48.26 -5.78 -8.96 -48.87 -2.07 9.02 -25.85 2.46 -4.47 21.17 8.83 -4.15 -8.56 10.62 -1.36 -21.5 6.69 3.3 -15.76 -9.2 4.77 23.79 -3.82 1.52 10.63 0 -0 0 -74.47 -24.6 4.16 113.9 -57.73 -80.54 -0 -0 6.94 65.24 29.57 46.94 -7.12 0 -0 73.46 72.07 54.68 0 -0 0 60.46 -35.5 13.06 -105.91 59.02 -73.74 0 -0 -11.19 -46.95 -4.82 5.14 7.12 -0 -0 -17.04 -36.54 -3.68
6.5 13.63 2.85 241.23 -71.74 -223.57 0 0 0 20.2 -21.02 -65.06 11.59 18.21 64.69 3.12 -6.11 -32.2 4.54 -12.85 -38.81 0 0 0 46.05 2.95 -31.69 -7.51 -15.74 50.76 -6.41 -8.59 -51.07 -1.9 8.65 -24.7 0.28 -4.07 20.01 8 -4.41 -8.15 10.76 -1.33 -20.07 7.33 3.26 -15.42 -8.43 4.37 23.91 -3.71 1.49 10.57 -0 -0 0 -77.55 -26.7 12.66 105.55 -59.07 -73.43 -0 -0 5.94 62.76 27.93 42.29 -7.12 0 -0 61.06 70.59 41.92 -0 -0 0 58.58 -37.68 16.74 -97.65 59.78 -66.62 0 -0 -10.74 -46.69 -3.61 3.82 7.12 -0 -0 -16.54 -34.83 -4.28
6.47 13.46 3.06 222.13 -68.37 -203.75 0 0 0 18.71 -21.45 -64.66 13.04 18.8 69.24 3.87 -12.37 -35.69 3.71 -11.76 -34.88 0 0 0 42.84 11.68 -32.52 -8.78 -16.66 55.33 -6.66 -9.23 -52.18 -1.52 7.8 -22.1 1.8 -2.17 18.62 4.97 -1.83 -8.88 5.37 -0.65 -20.64 6.31 2.99 -14.64 -7.65 4.07 24.01 -3.29 1.36 10.38 0 -0 0 -74.5 -18.7 7.7 110.65 -58.33 -77.78 -0 -0 8.01 63.09 29.83 44.43 -7.12 0 -0 66.56 72.3 48.63 0 -0 0 55.62 -27.1 22.51 -99.08 59.69 -67.86 0 -0 -8.87 -47.34 -5.99 6.46 7.12 -0 -0 -17.67 -38.2 -3.07
6.26 13.33 3.49 199.87 -58.41 -182.12 0 0 0 14.06 -25.97 -58.57 14.37 19.22 73.32 3.6 -19.61 -35.08 3.21 -11.03 -32.38 0 0 0 35.06 17.11 -35.54 -10.3 -17.57 60.48 -6.09 -6.98 -49.26 -1.3 7.21 -20.35 3.24 1.7 17.9 -0.72 2.95 -9.23 -3.68 0.68 -20.48 5.01 2.23 -14.31 -4.98 2.67 24 -2.3 0.92 10.14 -0 -0 0 -68.86 -5.44 -5.1 118.21 -56.77 -84.17 -0 -0 2.29 62.43 29.47 43.3 -7.12 0 -0 63.44 71.95 45.5 -0 -0 0 58.42 -9.13 25.09 -95.39 59.89 -64.67 0 -0 -7.29 -47.3 -6.72 7.23 7.12 -0 -0 -17.81 -39.21 -2.64
5.93 13.21 3.83 188.76 -43.65 -172.06 0 0 0 11.61 -35.85 -45.55 16.06 19.62 78.41 1.24 -23.86 -24.45 4.34 -12.59 -37.87 0 0 0 28.03 21.04 -40.02 -11.48 -18.16 64.34 -5.09 -6.42 -45.09 -1.26 7.11 -20.05 2.16 6.96 17.49 -5.55 8.92 -9.63 -10.5 2.99 -19.53 3.11 1.55 -14.71 -2.07 1.43 24.36 -1.1 0.51 10.24 -0 -0 0 -66.37 9.97 -17.12 117.18 -57.02 -83.3 -0 0 -0.5 64.23 30.37 46.32 -7.12 0 -0 71.94 72.72 54.03 -0 -0 0 62.26 7.78 27.93 -90.25 60 -60.22 0 -0 -8.81 -47.51 -6.72 7.28 7.12 -0 -0 -18 -39.23 -2.66
5.61 13.07 4.05 185.36 -30.9 -170.07 0 0 0 2.61 -40 -30.1 16.03 19.62 78.31 1.22 -30.22 -27.57 6.25 -14.66 -45.97 0 0 0 24.56 25.04 -41.61 -12.04 -18.41 66.11 -4.48 -5.73 -42.22 -1.37 7.4 -20.9 0.6 11.19 17.63 -7.98 13.8 -9.85 -13.84 5.19 -18.77 2.04 1.11 -14.76 -0.89 0.81 24 -0.59 0.27 10.1 -0 -0 0 -64.37 21.47 -24.02 108.74 -58.63 -76.15 -0 0 -0.96 66.49 30.13 49.09 -7.12 0 -0 79.54 72.33 60.81 -0 -0 0 64.29 20.42 32.67 -81.06 59.7 -52.26 0 -0 -6.27 -47.74 -6.52 7.13 7.12 -0 -0 -18.15 -38.99 -2.8
5.53 12.97 4.27 185.46 -26.66 -170.45 0 0 0 -3.97 -33 -25.08 14.13 19.15 72.6 8.79 -13.6 -55.41 9.32 -17.01 -57.2 0 0 0 23.45 26.99 -42.79 -12.44 -18.57 67.38 -4.42 -2.64 -40.82 -1.1 6.66 -18.72 -0.09 11.61 18.8 -8.1 14.1 -9.7 -13.97 5.3 -19.37 3.35 2.03 -15.09 -1.05 1.84 23.2 -0.72 0.86 9.91 -0 -0 0 -62.76 22.68 -30.6 109.05 -58.58 -76.42 -0 0 -2.44 65.73 29.59 47.6 -7.12 0 -0 75.26 72.05 56.35 -0 -0 0 64.83 25.41 36.77 -76.27 59.28 -48.14 0 -0 -5.47 -47.19 -5.74 6.17 7.12 -0 -0 -17.48 -37.84 -3.2
5.64 12.96 4.41 188.05 -31.17 -171.18 0 0 0 3.01 -33.92 -32.59 14.75 19.33 74.48 7.07 -18.89 -49.24 8.07 -16.17 -52.82 0 0 0 25.11 26.17 -43.34 -12.26 -18.5 66.82 -4.77 -2.88 -42.45 -1.06 6.55 -18.39 -0.61 9.16 18.23 -6.3 10.98 -9.53 -10.6 4.13 -19.91 5.29 3.11 -15.28 -1.73 2.96 23.84 -1.14 1.46 10.25 -0 -0 0 -60.2 12.56 -29.36 113.33 -57.84 -80.06 -0 0 -1.97 66.59 29.74 48.89 -7.12 0 -0 78.82 72.06 59.79 -0 -0 0 62.76 16.98 34.66 -81.56 59.73 -52.69 0 -0 -5.96 -46.37 -6.08 6.34 7.12 -0 -0 -16.84 -38.23 -2.91
5.83 13.09 4.37 194.23 -41.7 -175.74 0 0 0 14.11 -35.45 -40.39 13.88 19.08 71.85 4.77 -22.86 -40.68 7.3 -15.58 -50.01 0 0 0 29.61 22.45 -40.46 -11.4 -18.12 64.06 -4.88 -2.68 -42.86 -1.36 7.39 -20.88 -2.76 5.05 18.11 -1.66 5.75 -8.54 -2.46 2.59 -20.6 8.2 4.03 -14.82 -3.29 3.91 23.46 -2.05 1.97 10.18 -0 -0 0 -62.27 -1.94 -20.14 114.06 -57.69 -80.68 -0 -0 1.44 63.3 29.9 44.74 -7.12 0 -0 67.42 72.36 49.47 -0 -0 0 58.74 0.88 27.66 -88.24 59.99 -58.47 0 -0 -7.25 -46.59 -6.68 7.01 7.12 -0 -0 -17.18 -39.07 -2.6
5.95 13.24 4.28 203.8 -53.59 -185.84 0 0 0 24.29 -37.05 -49.02 13.53 18.97 70.77 0.87 -28.95 -25.14 5.1 -13.49 -41.24 0 0 0 32.59 19.41 -34.43 -10.53 -17.7 61.25 -4.13 -3.59 -39.82 -4.08 12.27 -36.68 -4.75 0.48 20.68 3.35 -0.21 -7.55 6.64 0.81 -20.29 10.4 4.63 -14.59 -4.81 4.57 23.52 -2.88 2.3 10.3 0 -0 0 -66.6 -15.53 -6.95 107.61 -58.8 -75.19 -0 -0 4.11 63.75 29.71 45.14 -7.12 0 -0 68.53 72.21 50.3 0 -0 0 56.51 -17.96 20.61 -94.37 59.93 -63.78 0 -0 -10.46 -46.89 -7.32 7.76 7.12 -0 -0 -17.6 -40 -2.25
5.84 13.31 4.36 209.67 -60.18 -192.3 0 0 0 26.48 -36.22 -53.87 12.94 18.76 68.92 -0.22 -27.08 -17.8 5.46 -13.89 -42.79 0 0 0 33.46 18.02 -31.81 -10.33 -17.59 60.6 -5.01 -6.05 -44.63 -3.73 11.79 -34.98 -5.42 -2.66 20.69 4.83 -4.47 -6.85 10.18 -0.96 -18.55 11.64 5.01 -14.14 -4.29 4.64 23.83 -2.9 2.49 10.37 -0 0 0 -69.39 -25.6 5.2 96.78 -59.83 -65.87 -0 -0 6.53 63.92 28.98 44.7 -7.12 0 -0 67.29 71.61 48.49 -0 0 0 60.11 -32.49 14.66 -90.8 60 -60.69 0 -0 -14.25 -47.43 -6.34 6.85 7.12 -0 -0 -17.83 -38.7 -2.88
5.53 13.35 4.63 205.74 -59 -189.23 0 0 0 20.97 -34.29 -51.57 12.85 18.73 68.67 -0.63 -28.22 -16.11 5.19 -13.6 -41.64 0 0 0 31.16 21.18 -28.96 -9.96 -17.39 59.37 -5.16 -9.35 -46.61 -3.41 11.34 -33.43 -4.36 -3.23 18.39 2.95 -5.16 -6.88 7.65 -1.57 -17.78 11.32 4.99 -13.17 -2.98 4.34 24.89 -2.45 2.44 10.52 -0 -0 0 -71.81 -25.7 13.49 96 -59.86 -65.19 -0 -0 7.61 64.68 28.91 45.62 -7.12 0 -0 69.76 71.57 50.68 -0 -0 0 63.2 -36.92 13.17 -85.85 59.94 -56.41 0 -0 -13.68 -47.57 -6.35 6.89 7.12 -0 -0 -17.95 -38.72 -2.89
5.06 13.53 5.1 196.56 -51.06 -182.84 0 0 0 8.42 -32.29 -40.17 12.41 18.56 67.29 -0.35 -30.52 -19.71 4.15 -12.36 -37 0 0 0 24.9 20.57 -27.15 -9.17 -16.92 56.69 -4.14 -6.75 -41.14 -3.75 11.83 -35.12 -2.85 -1.28 17.18 0.13 -2.57 -7.51 2.61 -0.83 -18.39 10.27 4.93 -12.03 -1.93 4.15 26.58 -1.96 2.33 10.86 -0 -0 0 -71.68 -15.41 11.83 105.82 -59.03 -73.65 -0 -0 7.59 61.91 28.49 41.79 -7.12 0 -0 59.57 70.99 41.14 -0 -0 0 64.58 -29.8 14.85 -88.56 59.99 -58.76 0 -0 -12.67 -47.97 -6.92 7.61 7.12 -0 -0 -18.47 -39.57 -2.58
4.39 13.93 5.67 186.76 -36.84 -178.94 0 0 0 -9.91 -26.77 -22.19 10.18 17.51 60.08 2.04 -29.61 -31.03 3.7 -11.75 -34.87 0 0 0 16.69 16.4 -28 -8.19 -16.26 53.26 -2.73 -5.3 -33.41 -2.7 10.19 -29.59 0.48 3.13 17.16 -5.46 3.22 -7.17 -7.68 0.79 -17.73 9.85 4.47 -11.79 0.13 2.87 27.57 -1.34 1.91 11.08 0 0 0 -66.3 -2.04 4.38 113.19 -57.87 -79.94 -0 -0 2.19 62.71 28.64 42.89 -7.12 0 -0 62.46 71.23 43.84 0 0 0 71.64 -15.85 17.84 -84.89 59.9 -55.57 0 -0 -11.17 -47.88 -6.74 7.39 7.12 -0 -0 -18.33 -39.3 -2.68
3.7 14.38 6.08 178.85 -19.83 -178.38 0 0 0 -22.95 -11.36 -9.48 6.24 14.66 45.94 4.3 -23.92 -38.94 4.71 -13.05 -39.55 0 0 0 11.5 13.25 -29.27 -6.62 -15 47.41 -1.43 -10.58 -28.6 -0.83 5.83 -16.29 1.95 8.72 18.67 -10.86 9.81 -7.66 -16.62 3.08 -16.8 8.76 4.09 -11.16 2.46 1.91 27.55 -0.45 1.59 10.87 0 -0 0 -59.37 11.71 -4.18 112.36 -58.02 -79.24 -0 -0 0.85 61.84 27.87 41.13 -7.12 0 -0 58.07 70.4 39.23 0 -0 0 76.95 -1.58 25.88 -74.33 59.05 -46.47 0 -0 -10.37 -47.24 -5.49 5.9 7.12 -0 -0 -17.45 -37.49 -3.35
3.24 14.73 6.34 176.12 -8.48 -178.9 0 0 0 -25.92 1.6 -5.31 3.74 11.8 35.03 3.78 -25.42 -37.12 3.9 -12.02 -35.81 0 0 0 10.47 14.43 -27.9 -4.46 -12.75 38.44 -0.49 -14.83 -25.62 -0.31 3.56 -9.85 2.08 11.74 18.67 -11.88 13.59 -8.87 -19.06 4.58 -16.93 7.22 4.67 -11.34 1.46 3.25 28.8 -0.38 1.91 11.37 -0 -0 0 -56.46 23.74 -12.72 107.73 -58.78 -75.29 -0 -0 0.31 62.42 29.65 43.44 -7.12 0 -0 63.82 72.1 46 -0 -0 0 77.19 8.27 35.66 -65.53 57.61 -38.98 0 -0 -8.62 -46.92 -6.3 6.69 7.12 -0 -0 -17.38 -38.58 -2.85
2.97 14.9 6.57 174.49 -5.94 -178.13 0 0 0 -29.26 3.04 -4.39 2.85 10.44 30.42 4.03 -23.41 -37.71 4.23 -12.47 -37.4 0 0 0 6.99 14.55 -27.49 -3.48 -11.43 33.74 -0.34 -13.35 -22.58 -0.16 2.54 -7 0.46 11.58 16.54 -10.8 13.2 -9.35 -16.38 4.68 -16.97 6.14 5.49 -11.25 -1.11 5.49 28.7 -0.84 2.5 11.4 -0 0 0 -57.45 24.52 -22.14 111.28 -58.22 -78.32 -0 0 -0.87 62.65 29.19 43.31 -7.12 0 -0 63.51 71.72 45.3 -0 0 0 74.11 9.98 39.08 -67.38 57.98 -40.55 0 -0 -7.66 -46.89 -5.88 6.24 7.12 -0 -0 -17.24 -38 -3.08
2.93 15.07 6.78 179.3 -12.61 -178.2 0 0 0 -24.82 -2.44 -4.84 2.73 10.24 29.76 3.79 -20.19 -36.02 4.65 -12.98 -39.29 0 0 0 9.75 11.57 -24.49 -2.67 -10.14 29.42 0.05 -13.99 -19.3 -0.49 4.47 -12.4 2.29 8.42 14.37 -7.67 10.23 -9.5 -13.09 3.43 -17.11 7.41 5.35 -11.09 -2.76 5.45 28.71 -1.67 2.4 11.48 0 -0 0 -55.69 13.49 -22.29 117.02 -57.05 -83.17 -0 -0 0.15 63.19 29.47 44.24 -7.12 0 -0 66.01 71.99 47.81 0 -0 0 71.08 0.92 32.96 -75.54 59.2 -47.51 0 -0 -8.22 -46.63 -6.52 6.86 7.12 -0 -0 -17.18 -38.87 -2.69
3.1 15.37 6.95 190.53 -24.8 -183.45 0 0 0 -13.13 -11.2 -6.86 3.52 11.5 33.97 2.58 -20.84 -30.43 4.15 -12.36 -37.01 0 0 0 18.2 13.75 -13.1 -1.44 -7.58 21.46 0.73 -17.3 -15.84 -0.87 5.95 -16.64 4.75 2.39 14.66 -0.75 3.99 -8.85 -4.7 1.01 -18.19 7.42 6.59 -11.37 -4.67 7.76 28.89 -2.05 3.19 11.82 0 -0 0 -60.05 1.32 -15.52 120.49 -56.18 -86.06 -0 -0 3.05 62.34 28.16 42 -7.12 0 -0 60.24 70.75 41.42 0 -0 0 64.4 -11.46 26.75 -85.57 59.93 -56.16 0 -0 -10.51 -46.58 -6.48 6.8 7.12 -0 -0 -17.12 -38.8 -2.71
3.23 15.79 7.08 202.35 -36.12 -190.28 0 0 0 -3.24 -21.63 -10.94 4.08 12.27 36.69 1.51 -21.61 -25.01 3.38 -11.28 -33.24 0 0 0 25.83 14.91 -6.39 -0.65 -5.18 14.41 2.02 -25.01 -16.61 -0 -0.28 0.77 2.63 -1.52 15.52 5.9 -1.03 -8.79 5.91 -0.42 -19.1 8.55 6.4 -12.3 -7.77 8.17 27.5 -3.29 3.18 11.7 0 -0 0 -67.33 -12.62 -2.66 116.67 -57.13 -82.87 -0 -0 6.96 61.2 28.14 40.62 -7.12 0 -0 56.67 70.56 38.28 0 -0 0 58.99 -25.84 15.8 -92.59 59.97 -62.24 0 -0 -12.99 -45.79 -5.77 5.91 7.12 -0 -0 -16.27 -37.76 -3
3.24 16.09 7.3 210.08 -44.62 -195.09 0 0 0 0.4 -33.14 -15.19 4.69 13.02 39.45 1.62 -19.84 -24.98 3.58 -11.57 -34.24 0 0 0 27.22 16.86 -2.94 -0.22 -3.05 8.41 4.88 -35.63 -15.8 -0.44 -4.25 11.77 0 -4.18 17.55 9.84 -4.99 -9.85 13.41 -1.5 -20.52 9.02 6.47 -12.72 -9.42 8.64 25.73 -3.86 3.32 11.26 -0 0 0 -75.02 -22.57 8.64 106.81 -58.9 -74.51 -0 -0 9.72 62.62 28.65 42.79 -7.12 0 -0 62.2 71.23 43.62 -0 0 0 54.71 -36.99 8.64 -92.43 59.98 -62.11 0 -0 -17.37 -46.8 -6.15 6.51 7.12 -0 -0 -17.24 -38.37 -2.92
3.15 16.13 7.49 212.56 -47.17 -195.2 0 0 0 1.85 -38.86 -18.11 4.91 13.28 40.43 2.04 -16.84 -26.55 4.35 -12.61 -37.93 0 0 0 25.9 19.15 -4.29 -0.2 -2.88 7.95 5.63 -37.75 -17.15 -1.3 -7.23 20.4 -0.22 -4.52 16.36 9.8 -5.6 -10.34 13.62 -1.78 -20.24 8.83 5.84 -13.02 -8.37 7.56 24.36 -3.54 3.02 10.63 -0 0 0 -76.86 -26.32 16.13 103.07 -59.34 -71.3 -0 -0 10.77 61.57 27.53 40.49 -7.12 0 -0 56.58 70.02 37.61 -0 0 0 50.76 -38.14 7.96 -88.68 59.99 -58.86 0 -0 -18.76 -46.24 -6.49 6.73 7.12 -0 -0 -16.83 -38.78 -2.67
3 16.04 7.67 206.34 -43.74 -189.04 0 0 0 -2.7 -35.9 -16.52 4.14 12.34 36.96 2.13 -16.09 -26.94 4.1 -12.3 -36.79 0 0 0 21.41 21 -8.63 -0.37 -3.9 10.79 5.71 -37.97 -16.97 -1.5 -7.72 21.88 -1.14 -2.61 14.4 7.14 -3.42 -10.75 10.08 -0.91 -20 6.74 4.73 -11.91 -6.71 6.09 23.56 -2.8 2.38 9.85 0 -0 0 -72.78 -18.72 14.47 110.43 -58.36 -77.6 -0 -0 10.69 61.07 27.85 40.2 -7.12 0 -0 55.71 70.25 37.17 0 -0 0 46.85 -29.89 10.22 -94.81 59.91 -64.17 0 -0 -18.23 -46.65 -6.83 7.18 7.12 -0 -0 -17.27 -39.29 -2.52
2.78 16.03 7.85 191.8 -36.57 -176.88 0 0 0 -14.77 -28.75 -13.22 2.47 9.79 28.3 2.59 -13.59 -29.15 4.06 -12.24 -36.59 0 0 0 10.18 20.35 -18.5 -0.76 -5.57 15.53 5 -37.16 -26.42 -2.03 -8.92 25.56 -5.8 1.05 11.17 0.78 -0.23 -11.36 4.33 0.55 -19.63 6.22 3.59 -12.87 -4.47 4.02 24.46 -2.18 1.62 10.14 0 0 0 -65.73 -5.22 5.82 120.28 -56.24 -85.89 -0 -0 7.4 60.94 27.55 39.77 -7.12 0 -0 54.75 69.92 36.06 0 0 0 48.03 -17.2 9.22 -99.19 59.68 -67.95 0 -0 -18.63 -46.55 -7.38 7.72 7.12 -0 -0 -17.31 -40.03 -2.19
2.56 16.03 7.93 182.15 -26.73 -172.07 0 0 0 -25.41 -20.78 -6.58 1.06 6.56 18.41 3.07 -12.58 -31.66 3.67 -11.7 -34.69 0 0 0 6.05 19.58 -21.33 -0.56 -4.79 13.31 -5.31 -22.1 -54 -5.01 -13.39 40.85 -7.46 6.17 11.04 -6.38 4.92 -11.54 -4.68 2.1 -19.97 5.16 1.51 -14.08 0.45 -0.1 25.61 -0.79 0.19 10.56 0 -0 0 -58.48 7.09 -4.1 126.56 -54.29 -91.05 -0 -0 3.27 61.94 27.8 41.19 -7.12 0 -0 58.25 70.35 39.33 0 -0 0 52.37 -6.51 6.5 -99.47 59.66 -68.19 0 -0 -17.41 -47.18 -7.09 7.59 7.12 -0 -0 -17.8 -39.71 -2.41
2.36 16.03 7.94 180.32 -20.36 -173.03 0 0 0 -28.79 -17.12 -2.36 0.73 5.47 15.25 3.63 -12.93 -34.51 3.39 -11.3 -33.31 0 0 0 9.76 19.71 -16.67 -0.06 -1.64 4.51 -12.54 -9.49 -70.45 -6.14 -14.56 45.54 -3.03 9.64 13.11 -10.37 9.67 -11.47 -12.88 3.24 -19.14 2.24 -0.06 -13.25 2.76 -1.93 23.45 0.3 -0.65 9.62 -0 0 0 -54.47 16.73 -15.1 126.04 -54.47 -90.63 -0 -0 1.51 65.19 30.13 47.35 -7.12 0 -0 74.75 72.48 56.38 -0 0 0 54.27 -0.36 5.9 -99.94 59.62 -68.6 0 -0 -17.71 -46.4 -6.73 7.01 7.12 -0 -0 -17.02 -39.12 -2.55
2.25 15.98 7.84 179.57 -18.74 -173.22 0 0 0 -30.4 -17.06 -0.93 0.71 5.38 14.99 3.62 -14.15 -34.53 2.79 -10.34 -30.09 0 0 0 10.42 16.6 -14.81 -0 -0.4 1.1 -12.43 -7.93 -69.87 -6.15 -14.57 45.59 -0.34 10.61 13.18 -11.16 11.69 -10.74 -15.57 4.02 -17.11 0.24 -0.53 -13.73 1.28 -1.6 22.79 0.17 -0.78 9.46 0 -0 0 -55.41 21.51 -23.48 125.62 -54.62 -90.29 -0 0 -0.26 65.6 29.55 47.4 -7.12 0 -0 74.7 72.03 55.8 0 -0 0 53.49 3.17 8.11 -98.25 59.74 -67.14 0 -0 -16.99 -46.45 -6.62 6.92 7.12 -0 -0 -17.04 -38.98 -2.62
2.36 15.94 7.64 180.2 -22.96 -172.82 0 0 0 -28.65 -17.42 -1.53 0.69 5.31 14.79 2.64 -15.26 -29.62 2.03 -8.93 -25.59 0 0 0 9.17 14.23 -15.01 -0.14 -2.43 6.7 -6.16 -14.4 -52.62 -3.35 -11.24 33.1 -0.01 9.8 12.65 -9.9 11.06 -10.44 -14.5 3.8 -17.02 0.75 -0.41 -14.21 -0.02 -1.36 24.78 -0.35 -0.8 10.25 0 -0 0 -54.01 15.2 -24.24 127.98 -53.78 -92.21 -0 -0 0.41 65.32 28.73 46.28 -7.12 0 -0 71.53 71.42 52.1 0 -0 0 53.57 -2.26 8.82 -101.27 59.51 -69.74 0 -0 -15.07 -45.71 -6.54 6.66 7.12 -0 -0 -16.37 -38.79 -2.59
2.65 15.92 7.27 182.52 -33.55 -173.49 0 0 0 -24.19 -20.09 -3.54 0.88 6 16.77 0.66 -19.58 -18.82 0.58 -4.88 -13.58 0 0 0 9.11 15.38 -11.26 -0.49 -4.51 12.51 -1.69 -16.31 -34.96 -0.23 -3.1 8.55 -1.32 6.6 11.58 -6.54 7.24 -9.85 -8.62 2.65 -17.04 3.2 0.28 -14.52 -2.79 -0.39 26.35 -1.66 -0.49 10.88 -0 -0 0 -54.37 1.42 -19.54 127.65 -53.9 -91.94 -0 -0 5.25 62.51 28.71 42.71 -7.12 0 -0 61.96 71.27 43.46 -0 -0 0 56.71 -14.88 4.85 -111.88 58.11 -78.83 0 -0 -17.06 -46.12 -6.81 7.03 7.12 -0 -0 -16.79 -39.2 -2.48
3.06 15.93 6.71 190.89 -49.22 -179.03 0 0 0 -14.16 -25.73 -9.37 1.5 7.74 21.93 -0.43 -18.16 -8.39 0.56 -4.8 -13.33 0 0 0 16.43 18.46 -1.7 -0.47 -4.4 12.2 -1.79 -13.08 -32.86 -0 0.27 -0.75 -2.25 1.24 10.78 0.28 1 -9.42 1.37 0.62 -16.81 5.01 1.53 -13.85 -7.27 2.08 26.78 -3.3 0.23 11.06 0 -0 0 -60.01 -10.33 -10.55 126.33 -54.37 -90.87 -0 -0 7.96 61.43 28.54 41.26 -7.12 0 -0 58.17 70.98 39.96 0 -0 0 60.25 -27.34 -3.09 -117.66 56.9 -83.7 0 -0 -17.63 -46.13 -6.3 6.51 7.12 -0 -0 -16.68 -38.5 -2.76
3.41 16.01 6.19 206.6 -63.22 -192.51 0 0 0 -3.3 -34.86 -18.1 2.6 10.01 29.01 -0.84 -17.11 -0.28 0.46 -4.34 -12.03 0 0 0 23.32 18.34 3.53 -0.42 -4.18 11.58 -0.13 -14.54 -21.97 -1.09 6.62 -18.61 -0.81 -3.92 11.4 6.89 -5.12 -9.79 9.83 -1.86 -16.89 5.52 2.98 -13.29 -11.58 5.09 26.58 -4.6 1.07 11.26 0 -0 0 -66.76 -19.51 -0.78 121.28 -55.96 -86.73 -0 -0 9.59 61.96 27.86 41.27 -7.12 0 -0 58.43 70.41 39.54 0 -0 0 60.78 -34.28 -11.12 -115.46 57.4 -81.85 0 -0 -16.79 -46.62 -5.15 5.42 7.12 -0 -0 -16.84 -36.96 -3.45
3.73 16.07 5.79 214.85 -69.23 -200.73 0 0 0 0.36 -41.11 -21.22 3.08 10.82 31.68 -0.85 -16.8 1.05 0.26 -3.28 -9.07 0 0 0 23 18.81 5.01 -0.35 -3.83 10.59 0.25 -10.12 -8.87 -3.07 10.82 -31.66 0.32 -5.48 12.4 8.87 -6.89 -10.27 12.3 -2.6 -17.78 5.07 3.16 -13.51 -12.82 5.76 26.62 -4.92 1.16 11.43 0 0 0 -71.56 -24.98 7.82 117.05 -57.05 -83.2 -0 -0 10.07 62.77 28.43 42.77 -7.12 0 -0 62.19 71.05 43.4 0 0 0 56.65 -34.42 -13.86 -114.05 57.7 -80.67 0 -0 -18.77 -45.85 -5.26 5.4 7.12 -0 -0 -16.21 -37.06 -3.27
4.06 16.01 5.29 209.63 -67.74 -196.91 0 0 0 0.33 -38.99 -17.27 2.36 9.57 27.6 -0.66 -15.61 -1.06 0.21 -2.92 -8.05 0 0 0 21.99 16.63 2 -0.55 -4.74 13.17 -0.02 -3.21 -5.69 -4.64 12.97 -39.26 0.77 -3.93 11.72 8.29 -4.7 -9.76 10.59 -1.75 -17.17 4.27 2.85 -13.27 -13.07 5.59 26.97 -4.92 0.94 11.48 0 -0 0 -72.72 -22.52 8.29 119.11 -56.54 -84.92 -0 -0 7.3 63.39 28.77 43.86 -7.12 0 -0 65.02 71.41 46.25 0 -0 0 50.15 -26.8 -9.4 -119.23 56.51 -85.02 0 -0 -18.22 -45.95 -5.69 5.86 7.12 -0 -0 -16.39 -37.66 -3.06
4.44 15.96 4.77 197.15 -61.54 -185.13 0 0 0 -1.48 -32.63 -12.64 1.47 7.67 21.71 -0.19 -12.71 -6.16 0.27 -3.34 -9.24 0 0 0 20.74 8.33 -4.61 -0.77 -5.6 15.63 -0.23 -4.49 -11.91 -1.76 8.34 -23.74 2.53 -0.55 9.64 4.83 -0.13 -9.85 4.19 -0.15 -16.57 3.87 2.37 -12.02 -11.76 4.66 28.4 -4.54 0.61 11.62 0 -0 0 -67.67 -12.11 1.43 124.41 -55.02 -89.3 -0 -0 3.68 62.14 29.67 43.12 -7.12 0 -0 62.93 72.1 45.22 0 -0 0 48.17 -13.36 -2.22 -122.08 55.73 -87.38 0 -0 -15.27 -46.12 -5.39 5.58 7.12 -0 -0 -16.47 -37.25 -3.25
4.79 16.03 4.32 179.59 -51.34 -169.58 0 0 0 -10 -25.12 -7.61 0.8 5.72 15.98 0.45 -6.89 -12.15 1.35 -7.36 -20.77 0 0 0 14.19 5.31 -8.39 -0.63 -5.08 14.15 -0.71 -3.87 -17.77 -0.6 4.97 -13.83 3.37 4.51 8.84 -3.59 5.86 -10.23 -7.17 1.88 -15.69 3.44 1.3 -10.94 -6.7 1.92 29.14 -2.91 -0.01 11.35 0 0 0 -58.79 1.72 -8.31 129.49 -53.2 -93.42 -0 0 -0.08 61.48 29.92 42.55 -7.12 0 -0 61.3 72.26 44.01 0 0 0 54.67 0.64 1.4 -120.59 56.15 -86.15 0 -0 -11.28 -44.8 -5.58 5.51 7.12 -0 -0 -15.38 -37.4 -2.96
5.21 16.16 3.87 170.81 -41.48 -165.63 0 0 0 -15.61 -17.74 -2.55 0.48 4.46 12.37 0.34 3.75 -12.99 1 -6.36 -17.82 0 0 0 8.11 7 -12.64 -1.4 -7.48 21.14 -0.67 1.94 -14.87 -0.97 6.29 -17.62 4.58 8.37 13.19 -9.91 10.44 -9.85 -16.44 3.34 -15.6 1.41 0.45 -10.37 -2.56 0.01 29.18 -1.26 -0.58 11.13 -0 -0 0 -54.33 16.04 -21.31 127.73 -53.87 -92 -0 0 -2.64 64.09 29.49 45.38 -7.12 0 -0 69.16 72.04 50.67 -0 -0 0 60.69 13.85 4.78 -117.57 56.92 -83.63 0 -0 -10.67 -45.02 -5.68 5.65 7.12 -0 -0 -15.58 -37.56 -2.94
5.72 16.22 3.47 168.26 -39.12 -165.71 0 0 0 -14.82 -16.31 -2.84 0.58 4.86 13.51 -0.4 13.66 -13.41 0.46 -4.36 -12.08 0 0 0 9.16 10.65 -10.8 -1.6 -7.97 22.63 -1.23 1.67 -20.49 -1.02 6.41 -17.98 6.11 8.65 15.7 -10.61 11.2 -8.47 -18.55 3.66 -14.82 -1.31 0.66 -10.97 -3.81 1.33 28.68 -1.07 -0.4 11.09 -0 0 0 -59.29 25.04 -34.42 123.08 -55.43 -88.21 -0 0 -4.71 66.59 31.99 50.75 -7.12 0 -0 85.35 73.46 67.94 -0 0 0 60.54 26.71 9.92 -109.48 58.52 -76.79 0 -0 -11.32 -45.7 -4.67 4.77 7.12 -0 -0 -15.95 -36.23 -3.55
6.22 16.15 3.08 166.39 -44.12 -164.46 0 0 0 -12.12 -17.89 -7.86 0.83 5.8 16.2 -2.3 25.72 -8.29 1.28 -7.18 -20.25 0 0 0 11.4 9.06 -10.14 -1.84 -8.53 24.34 -1.68 2.9 -23.78 -0.47 4.39 -12.16 6.71 7.14 15.62 -9.97 9.43 -7.85 -17.69 2.88 -14.66 -1.96 0.68 -10.96 -5.03 1.79 29.51 -1.37 -0.47 11.44 -0 -0 0 -56.9 19.56 -34.43 126.73 -54.23 -91.19 -0 0 -5.34 69.48 31.7 54.54 -7.12 0 -0 95.19 72.34 76.96 -0 -0 0 59.03 24.43 13.11 -112.63 57.97 -79.46 0 -0 -10.41 -44.85 -4.99 4.94 7.12 -0 -0 -15.3 -36.61 -3.25
6.81 16.06 2.55 171.31 -56.93 -168.12 0 0 0 -3.53 -16.09 -18.08 1.34 7.34 20.72 -3.53 32.27 -3.24 1.88 -8.62 -24.62 0 0 0 19.93 3.7 -8.06 -1.71 -8.23 23.4 -1.43 -0.22 -22.72 -1.3 7.23 -20.4 7.96 3.1 13.82 -6.3 4.82 -6.94 -13.09 0.94 -14.48 -0.8 0.87 -11.35 -6.81 2.31 29.62 -2.18 -0.34 11.61 0 -0 0 -51.78 6.83 -24.59 128.73 -53.49 -92.81 -0 0 -1.31 66.66 30.53 49.65 -7.12 0 -0 81.31 72.57 62.84 0 -0 0 57.89 10.51 11.39 -123.91 55.17 -88.89 0 -0 -9.58 -44.32 -5.58 5.43 7.12 -0 -0 -14.97 -37.37 -2.89
7.32 15.88 1.92 189.28 -71.48 -186.69 0 0 0 3.76 -12.68 -27.43 1.99 8.84 25.29 -4.24 33.63 -11.94 1.46 -7.64 -21.62 0 0 0 29.16 -1.18 -6.05 -1.91 -8.68 24.81 -0.68 4.1 -14.78 -2.59 10 -28.97 5.75 -2.22 13.67 0.7 -1.84 -5.84 -1.97 -1.37 -14.46 -0.24 1.66 -11.87 -10.49 4.29 29.65 -3.43 0.08 11.95 0 -0 0 -55.35 -6.74 -16.08 127.8 -53.84 -92.06 -0 -0 2.53 64.95 29.44 46.44 -7.12 0 -0 72.06 71.98 53.27 0 -0 0 55.74 -6.65 6.36 -132.58 51.9 -95.87 0 -0 -11.4 -43.6 -5.18 4.92 7.12 -0 -0 -14.28 -36.78 -2.96
7.69 15.72 1.37 236.88 -78.13 -235.3 0 0 0 8.24 -11.82 -33.11 2.04 8.95 25.63 0.96 18.77 -33.16 0.15 -2.47 -6.81 0 0 0 37.71 -6.97 -5.88 -1.72 -8.25 23.49 -0.41 6.93 -11.69 -2.3 9.46 -27.23 1.17 -6.06 16.71 8.31 -7.14 -6.54 11.23 -2.9 -15.97 -0.64 2.66 -10.88 -14.49 6.64 29.95 -4.66 0.45 12.24 -0 0 0 -67.13 -19.08 -6.16 123.54 -55.29 -88.59 -0 -0 6.77 66.16 30.12 48.63 -7.12 0 -0 78.29 72.37 59.64 -0 0 0 51.41 -23.99 0.04 -135.31 50.62 -98 0 -0 -15.49 -44.87 -5.02 4.98 7.12 -0 -0 -15.33 -36.66 -3.24
7.92 15.56 1.06 267.05 -77.29 -264.54 0 0 0 9.31 -13.76 -35.61 1.68 8.16 23.21 4.2 4.44 -40.44 0.02 -0.92 -2.52 0 0 0 42.19 -10.44 -7.98 -1.43 -7.55 21.35 -0.55 7.56 -13.42 -1.44 7.59 -21.47 -0.93 -7.48 17.02 11.61 -9.38 -8.4 16.87 -3.52 -16.92 -0.17 3.05 -9.33 -16.23 7.36 30.58 -5.42 0.53 12.35 0 0 0 -77.06 -25.68 5.03 115.95 -57.3 -82.27 -0 -0 9.41 67.14 30.02 49.88 -7.12 0 -0 81.65 72.15 62.67 0 0 0 50.22 -35.15 -6.55 -132.02 52.15 -95.43 0 -0 -17.15 -43.66 -4 3.81 7.12 -0 -0 -14.11 -35.21 -3.48
8.2 15.4 0.98 255.71 -76.49 -253.62 0 0 0 12.75 -15.49 -35.65 1.91 8.68 24.79 4.03 6.89 -40.71 0.16 -2.59 -7.14 0 0 0 43.15 -9.25 -9.21 -1.73 -8.29 23.6 -0.51 9.37 -13.45 -1 6.37 -17.85 0.32 -6.57 16.47 10.19 -7.91 -8.18 13.89 -3.05 -17.05 0.89 3.02 -9.66 -15.28 7 31.74 -5.36 0.56 12.84 0 -0 0 -75.99 -23.03 9.65 117.07 -57.04 -83.21 -0 -0 11.91 66.15 29.94 48.47 -7.12 0 -0 77.77 72.25 59 0 -0 0 49.74 -28.79 -6.29 -130.01 52.99 -93.83 0 -0 -17.74 -44.78 -5.08 5.03 7.12 -0 -0 -15.26 -36.73 -3.2
8.44 15.3 1.19 215.29 -73.37 -213.4 0 0 0 13.97 -18.13 -33.15 2.52 9.88 28.58 3.2 12.09 -39.58 0.32 -3.65 -10.1 0 0 0 40.22 -4.47 -8.95 -1.92 -8.7 24.88 -0.9 10.47 -17.35 -0.58 4.86 -13.51 4.62 -3.11 14.68 4.56 -2.78 -7.35 3.47 -1.49 -16.74 1.06 2.1 -9.59 -12.75 5.03 32.14 -4.62 0.07 12.65 -0 0 0 -67.19 -13.81 2.09 123.85 -55.19 -88.85 -0 -0 6.49 63.91 30.88 46.35 -7.12 0 -0 72.16 73.13 54.7 -0 0 0 51.8 -14.74 -0.21 -129.59 53.16 -93.5 0 -0 -12.21 -44.96 -4.78 4.76 7.12 -0 -0 -15.35 -36.34 -3.37
8.6 15.33 1.51 185.76 -60.56 -182.63 0 0 0 11.88 -21.69 -27.68 2.88 10.49 30.59 0.26 23.8 -35.03 0.68 -5.25 -14.64 0 0 0 35.62 12.78 -8.99 -2.87 -10.48 30.54 -1.42 9.7 -21.38 -0.26 3.31 -9.13 8.86 2.69 13.42 -3.69 4.83 -7.87 -10.53 0.93 -15.52 0.21 0.6 -8.55 -7.23 1.52 31.87 -2.7 -0.78 11.9 -0 0 0 -57.49 0.4 -11.03 129.16 -53.33 -93.16 -0 -0 1.88 63.12 29.44 44.12 -7.12 0 -0 65.69 71.96 47.48 -0 0 0 58.02 0.6 5.95 -126.21 54.41 -90.77 0 -0 -8.04 -44.99 -4.73 4.71 7.12 -0 -0 -15.37 -36.27 -3.4
8.73 15.38 1.74 176.06 -45.98 -170.23 0 0 0 9.86 -26.78 -25.4 3.64 11.66 34.55 -2.58 29.91 -25.86 1.57 -7.91 -22.44 0 0 0 30.13 29.3 -13.94 -4.45 -12.74 38.4 -1.28 9.83 -20.4 -0.27 3.34 -9.22 8.59 8.32 12.89 -9.58 11.45 -9.72 -18.38 3.67 -14.21 -0.51 -0.03 -9.51 -4.34 0 32.4 -1.68 -1.17 12.24 0 -0 0 -54.71 16.59 -24.48 126.95 -54.15 -91.37 -0 0 -1.09 67.88 31.62 52.21 -7.12 0 -0 89.06 72.89 71.09 0 -0 0 60.98 14.5 10.09 -121.54 55.89 -86.94 0 -0 -8.71 -44.64 -4.32 4.25 7.12 -0 -0 -14.99 -35.69 -3.53
8.92 15.4 1.85 173.5 -39.06 -167.54 0 0 0 8.09 -35.6 -22.89 4.61 12.93 39.1 -2.79 29.74 -22.83 1.71 -8.24 -23.45 0 0 0 26.99 33.58 -16.43 -4.75 -13.09 39.72 -0.95 11.65 -18.05 -0.39 4 -11.07 5.51 10.62 13.41 -9.86 13.86 -9.67 -17.86 5.01 -14.54 -2.4 -0.19 -9.66 -5.21 0.48 31.71 -1.59 -1.26 12.02 -0 0 0 -57.96 23.5 -35.42 122.7 -55.55 -87.89 -0 0 -3.85 68.53 32.51 53.8 -7.12 0 -0 94.14 73.09 76.68 -0 0 0 58.52 25.56 14.41 -114.42 57.62 -80.98 0 -0 -9.75 -45.61 -3.79 3.86 7.12 -0 -0 -15.68 -35.02 -3.97
9.12 15.33 1.89 175.87 -40.95 -169.39 0 0 0 10.56 -38.33 -24.34 4.89 13.26 40.34 -2.16 28.24 -25.41 2.1 -9.08 -26.04 0 0 0 28.48 29.06 -17.98 -4.4 -12.67 38.15 -0.69 14.05 -16.64 -0.34 3.77 -10.43 6.09 9.85 12.96 -8.07 13.28 -9.39 -15.76 4.88 -14.42 -1.57 0.26 -10.04 -6.09 1.17 33 -2.05 -1.05 12.66 -0 -0 0 -54.17 15.79 -34.07 126 -54.49 -90.6 -0 0 -2.19 68.67 31.73 53.4 -7.12 0 -0 92.31 72.68 74.26 -0 -0 0 57.32 24.47 16.63 -114.35 57.64 -80.92 0 -0 -8.72 -44.65 -3.57 3.52 7.12 -0 -0 -14.85 -34.68 -3.87
9.42 15.3 1.82 181.16 -50.42 -175.58 0 0 0 13.26 -30.06 -27.04 3.78 11.86 35.24 1.4 19.13 -36.02 1.1 -6.67 -18.73 0 0 0 33.13 19.21 -16.48 -3.49 -11.44 33.78 -0.68 14.16 -16.6 -0.37 3.93 -10.87 6.7 6.01 13.57 -4.82 8.75 -8.31 -11.52 2.9 -15.27 -0.46 0.67 -9.92 -6.55 1.59 33.05 -2.37 -0.81 12.67 0 0 0 -50.98 3.08 -26.84 127.07 -54.11 -91.47 -0 -0 0.82 66.67 30 49.21 -7.12 0 -0 79.83 72.22 60.96 0 0 0 57.01 14.11 14.97 -119.63 56.41 -85.35 0 -0 -9.92 -43.6 -4.31 4.09 7.12 -0 -0 -14.12 -35.62 -3.34
9.72 15.3 1.56 195.81 -63.68 -193.93 0 0 0 14.51 -21.01 -26.45 1.95 8.76 25.04 4.63 7.82 -43.77 0.43 -4.19 -11.62 0 0 0 39.93 5.21 -10.53 -1.9 -8.66 24.75 -1.11 11.17 -19.21 -1.16 6.83 -19.21 5.81 0.81 16.22 0.31 2.44 -6.13 -3.65 0.51 -15.98 1.83 1.25 -10.18 -8.56 2.56 32.35 -3.41 -0.32 12.53 -0 -0 0 -52.6 -10.73 -16.98 123.85 -55.19 -88.84 -0 -0 3.62 65.53 29.62 47.36 -7.12 0 -0 74.64 72.09 55.8 -0 -0 0 54.29 -0.42 9.14 -124.61 54.95 -89.47 0 -0 -8.7 -42.98 -4.72 4.39 7.12 -0 -0 -13.68 -36.13 -3.05
9.86 15.31 1.37 228.58 -73.2 -228.19 0 0 0 14.16 -17.77 -29.98 1.05 6.52 18.29 6.69 0.49 -49.57 0.29 -3.48 -9.61 0 0 0 43.96 -6.31 -9.47 -1.03 -6.45 18.1 -1.27 9.12 -20.2 -1.29 7.2 -20.31 1.63 -3.95 17.28 7.45 -4.2 -5.46 9.01 -1.67 -15.58 1.15 2.38 -9.73 -12.39 5.32 31.6 -4.41 0.3 12.47 0 -0 0 -62.97 -21.59 -6.59 116.46 -57.18 -82.7 -0 -0 7.89 65.06 29.97 47.06 -7.12 0 -0 73.89 72.38 55.45 0 -0 0 47.98 -14.05 3.74 -128.81 53.47 -92.87 0 -0 -12.23 -43.87 -3.77 3.62 7.12 -0 -0 -14.25 -34.91 -3.62
9.9 15.27 1.43 258.86 -76.43 -258.28 0 0 0 7.36 -13.55 -32.29 0.45 4.3 11.91 7.68 -2.9 -52.54 0.19 -2.8 -7.71 0 0 0 43.57 -10.4 -11.56 -0.95 -6.19 17.34 -1.3 7.75 -20.42 -0.34 3.73 -10.31 -1.25 -6.04 17.33 11.05 -7.49 -6.66 15.56 -2.81 -15.54 -0.44 2.52 -8.5 -14.14 6.08 30.26 -4.64 0.31 11.78 0 -0 0 -75.54 -29.28 6.36 102.55 -59.4 -70.84 -0 -0 12.36 65.29 28.76 46.28 -7.12 0 -0 71.54 71.45 52.15 0 -0 0 44.67 -27.11 -1.87 -129.01 53.39 -93.03 0 -0 -15.25 -44.64 -4.03 3.97 7.12 -0 -0 -14.93 -35.3 -3.66
9.96 15.11 1.6 262.98 -77.78 -262.78 0 0 0 -1.06 -1.48 -33.12 0.19 2.82 7.77 6.6 -4.98 -48.12 0.17 -2.69 -7.42 0 0 0 42.63 -6.43 -11.07 -1.1 -6.65 18.69 -1.74 1.97 -24.37 -0.26 3.27 -9.04 -0.96 -5.3 16.75 9.8 -6.49 -6.86 14.21 -2.27 -16.11 0.05 2.18 -9.2 -13.21 5.45 29.38 -4.37 0.31 11.48 0 -0 0 -83.58 -31.02 20.2 82.73 -59.8 -53.7 -0 -0 14.52 61.9 26.4 39.79 -7.12 0 -0 55.38 68.96 35.5 0 -0 0 50.35 -33.25 -7.08 -121.71 55.84 -87.08 0 -0 -12.03 -46.22 -4.32 4.5 7.12 -0 -0 -16.31 -35.8 -3.82
10.1 15.03 1.9 258.81 -78.38 -258.8 0 0 0 -6.6 9.3 -37.9 0.72 5.43 15.14 4.57 -9.71 -39.05 1.2 -6.94 -19.53 0 0 0 41.37 -2.82 -11.03 -1.25 -7.09 19.99 -1.71 -1.24 -25.19 -0.21 2.92 -8.05 1.76 -3.99 15.41 7.93 -4.26 -6.3 9.41 -1.7 -15.41 1.14 1.43 -10.77 -12.26 4.1 27.34 -4.23 0.13 10.88 0 -0 0 -85.8 -26.26 30.21 64.4 -57.37 -38.02 -0 -0 16.63 51 21.27 24.13 -7.12 0 -0 27.25 59.59 10.16 0 -0 0 57.75 -27.1 -8.39 -104.1 59.24 -72.18 0 -0 -9.64 -47.85 -4.42 4.87 7.12 -0 -0 -17.7 -36.04 -4.06
10.29 15.08 2.3 257.96 -78.59 -258.18 0 0 0 -7.02 12.03 -39.62 2.4 9.65 27.85 4.67 -11.63 -39.39 1.88 -8.61 -24.58 0 0 0 39.33 -3.31 -10.88 -1.03 -6.46 18.14 -1.38 -2.76 -23.32 -0.23 3.07 -8.47 3.9 -3.37 16.27 7.32 -2.91 -6.13 7.16 -1.3 -16.08 1.44 1.12 -13.64 -12.39 3.8 25.76 -4.31 0.08 10.85 -0 -0 0 -86.66 -16.25 34.88 42.61 -49.54 -20.4 -0 -0 13.78 38.89 19.93 15.37 -7.12 0 -0 11.35 54.6 2.7 -0 -0 0 60.49 -15.6 -2.71 -71.25 58.63 -43.84 0 -0 -8.77 -48.57 -7.8 8.74 7.12 -0 -0 -19.25 -40.88 -2.04
10.53 15.18 2.74 254.15 -78.37 -254.96 0 0 0 -3.56 12.1 -38.41 5.48 13.9 42.86 4.36 -11.95 -38 1.66 -8.13 -23.1 0 0 0 37.46 -3.19 -10.28 -0.82 -5.77 16.11 -1.09 -4.3 -21.7 -0.3 3.5 -9.67 4.13 -2.44 18.84 7.71 -1.34 -5.81 7.24 -0.53 -17.46 1.7 1.34 -17.27 -11.88 4.07 23.86 -4.06 0.35 10.88 -0 0 0 -89.34 -8.93 33.23 16.6 -26.33 -3.91 -0 -0 12.47 35.5 20.38 13.95 -7.12 0 -0 7.52 54.36 1.74 -0 0 0 61.97 -6.75 6.61 -43.07 49.78 -20.75 0 -0 -9.29 -47.99 -8.46 9.28 7.12 -0 -0 -18.91 -41.72 -1.59
10.75 15.26 3.24 249.39 -78.84 -248.96 0 0 0 0.3 8.73 -34.57 8.43 16.43 54.11 3.86 -9.85 -35.69 2 -8.87 -25.38 0 0 0 34.75 -1.96 -11.76 -0.7 -5.35 14.91 -0.71 -6.47 -19.56 -0.62 5.04 -14.02 3.61 -1.11 19.03 6.95 0.31 -5.89 6.08 0.23 -17.8 2.81 1.22 -19.48 -10.04 3.12 21.45 -3.62 0.34 10.31 -0 0 0 -89.87 -3.92 0.18 2.56 -4.43 -0.1 -0 -0 47.87 24.77 31.19 13.44 -7.12 0 -0 -8.53 63.48 -3.84 -0 0 0 63.11 -1.5 23.77 -28.36 39.45 -10.35 0 -0 -15.98 -45.61 -9.52 9.59 7.12 -0 -0 -16.95 -42.81 -0.95
10.95 15.25 3.82 249.79 -79.53 -247.13 0 0 0 2.91 3.06 -27.03 9.26 16.97 56.98 4.27 -5.69 -38.05 3.1 -10.85 -31.77 0 0 0 31.69 0.59 -14.8 -0.73 -5.45 15.2 -0.58 -7.76 -19.22 -0.4 4.06 -11.24 3.76 0.03 17.91 6.09 1.77 -6.49 4.45 0.8 -17.89 2.86 0.88 -20.11 -9.47 2.42 19.73 -3.47 0.15 9.75 -0 -0 0 -85.12 9.65 -35.69 5.43 -9.31 -0.44 -0 -0 75.82 24.84 26.03 11.48 -7.12 0 -0 -5.69 58.18 -1.84 -0 -0 0 62.53 -0.93 44.89 -25.35 36.56 -8.5 0 -0 -13.08 -42.68 -11.04 10.01 7.12 -0 -0 -14.45 -44.35 -0.24
11.18 15.14 4.52 258.61 -80.24 -253.87 0 0 0 2.2 -5.27 -14.89 6.79 15.15 48.07 3.89 -2.49 -36.82 2.57 -9.97 -28.87 0 0 0 27.97 3.21 -17.44 -0.74 -5.51 15.36 -0.4 -10.68 -20.13 -0.43 4.21 -11.68 5.19 1.15 16.4 4.87 3.38 -6.97 1.7 1.26 -17.42 2.07 -0.1 -19.89 -7.96 0.98 19.76 -3 -0.38 9.6 0 0 0 -78.91 21.85 3.78 11.6 -19.2 -1.97 -0 -0 29.14 28.76 24.43 12.79 -7.12 0 -0 -0.74 57.37 -0.22 0 0 0 60.99 -2.95 58.55 -29 40.02 -10.76 0 -0 -10.27 -42.38 -9.14 8.24 7.12 -0 -0 -13.87 -41.85 -1.1
11.46 15 5.36 278.04 -81.17 -273.44 0 0 0 -4.61 -14.59 -0.55 3.54 11.53 34.08 3.83 -21.53 -36.48 3.18 -10.97 -32.19 0 0 0 22.28 4.64 -16.72 -0.63 -5.08 14.13 -0.35 -13.72 -23.14 -0.11 2.14 -5.89 4.12 1.72 16.27 5.2 3.94 -6.56 2.5 1.67 -16.93 1.55 -0.36 -19.56 -7.68 0.79 22.33 -2.91 -0.54 10.44 0 -0 0 -78.92 25.27 2.45 14.48 -23.42 -3.02 -0 -0 20.73 36.24 24.15 16.69 -7.12 0 -0 8.05 58.87 2.74 0 -0 0 57.25 -3.74 65.27 -31.68 42.29 -12.53 0 -0 -9.14 -42 -8.31 7.42 7.12 -0 -0 -13.4 -40.73 -1.44
11.85 15.06 6.17 313.44 -78.98 -309.37 0 0 0 -7.32 -17.46 -5.66 4.01 12.17 36.33 1.28 -27.62 -26.47 1.65 -8.08 -22.97 0 0 0 16.77 9.82 -10.02 -0.22 -2.99 8.25 -1.35 -18.15 -34.8 -0.32 -3.64 10.06 1.42 1.64 16.95 6.21 3.35 -5.85 5.36 1.78 -16.72 1.09 -1.28 -18.72 -5.64 -0.86 24.53 -2.38 -1.11 11 -0 0 0 -81.17 18.75 -8.68 10.3 -17.2 -1.56 -0 -0 31.03 39.6 28.37 21.46 -7.12 0 -0 12.08 64.62 5.78 -0 0 0 56.15 -5.07 61.45 -29.52 40.48 -11.09 0 -0 -4.75 -42.42 -8.8 7.96 7.12 -0 -0 -13.86 -41.41 -1.25
12.15 15.32 6.84 334.5 -72.02 -328.9 0 0 0 -6.97 -14.66 -12.73 3.45 11.38 33.59 0.2 -21.45 -16.62 1.95 -8.76 -25.04 0 0 0 15.21 21.25 2.23 -0 0.25 -0.68 -7.81 -15.89 -58.65 -2.57 -9.96 28.86 -0.32 1.4 15.26 6.37 2.62 -6.29 6.79 1.66 -16.22 0.38 -3.5 -17.8 -2.85 -4.67 27.26 -1.86 -2.57 11.79 -0 0 0 -82.03 11.26 -9.88 8.82 -14.88 -1.15 -0 -0 36.98 35.13 27.28 17.88 -7.12 0 -0 6.13 62.11 2.56 -0 0 0 59.9 -9.64 49.25 -25.67 36.88 -8.69 0 -0 -7.62 -41.85 -10.88 9.59 7.12 -0 -0 -13.63 -44.01 -0.34
12.39 15.46 7.45 339.54 -64.06 -332.99 0 0 0 -7.32 -17.74 -15.49 3.03 10.74 31.4 -0.01 -18.26 -12.75 2.22 -9.32 -26.8 0 0 0 24.87 40.08 21.67 -0.07 1.71 -4.7 -18.99 -16.37 -87.62 -3.03 -10.75 31.44 0.74 1.07 14.5 6.65 2.45 -7.3 6.61 1.52 -16.93 -2.62 -5.44 -15.38 1.13 -8 29.08 -0.37 -3.89 12.3 -0 0 0 -83.84 8.14 10.44 13.4 -21.87 -2.6 -0 -0 19.11 34.64 27.26 17.56 -7.12 0 -0 5.5 61.96 2.27 -0 0 0 62.33 -14.33 42.95 -23.88 35.03 -7.64 0 -0 -15.71 -42.94 -13.07 11.89 7.12 -0 -0 -15.03 -47.01 0.76
12.57 15.58 7.92 344.44 -58.08 -334.98 0 0 0 -9.19 -25.73 -19.66 3.42 11.35 33.46 0.05 -17.09 -12.45 2.2 -9.26 -26.63 0 0 0 39.31 53.55 40.14 -0.02 0.98 -2.7 -26.31 -16.34 -105.16 -3.12 -10.89 31.91 -0.1 1.09 11.61 6.28 2.18 -8 6.72 1.45 -15.9 -4.81 -6.7 -14.41 3.29 -10.03 29.87 0.5 -4.75 12.75 -0 0 0 -85.46 6.33 23.44 22.56 -33.61 -6.9 -0 -0 8.37 32.71 26.61 16.05 -7.12 0 -0 3.25 60.72 1.24 -0 0 0 61.34 -16.96 45.67 -23.16 34.26 -7.23 0 -0 -12.39 -42.41 -12.16 10.9 7.12 -0 -0 -14.36 -45.75 0.27
12.68 15.72 8.2 343.05 -54.1 -333.8 0 0 0 -8.32 -27.99 -19.46 3.24 11.07 32.51 -0.02 -16.6 -11.44 2.5 -9.84 -28.47 0 0 0 31.33 41.1 24.19 -0.06 1.53 -4.22 -17.71 -19.67 -84.82 -2.22 -9.3 26.74 0.05 1.37 11.86 6.43 2.62 -7.73 6.67 1.65 -15.8 -6.07 -7.68 -14.49 5.36 -11.74 29.61 1.2 -5.36 13 0 -0 0 -86.87 6.57 28.32 32.27 -42.76 -12.92 -0 -0 6.07 32.22 25.21 15.03 -7.12 0 -0 3.03 59.05 1.04 0 -0 0 59.34 -15.9 49.72 -23.09 34.19 -7.19 0 -0 -6.26 -42.65 -10.18 9.25 7.12 -0 -0 -14.29 -43.24 -0.63
12.71 15.9 8.43 343 -53.47 -333.41 0 0 0 -9.54 -29.3 -16.34 2.47 9.78 28.27 0.23 -15.14 -13 2.61 -10.03 -29.07 0 0 0 25.18 19.69 6.54 -0.01 0.77 -2.11 -6.39 -19.24 -55.8 -0.44 -4.26 11.81 -1.61 1.62 11.92 5.88 2.61 -7.94 7 1.81 -16.15 -6.6 -7.9 -14.08 7.61 -12.7 29.51 2 -5.58 13.18 -0 0 0 -86.15 9.04 30.22 36.87 -46.1 -16.14 -0 -0 4.88 33.93 24.94 15.84 -7.12 0 -0 5.12 59.18 1.78 -0 0 0 59.55 -12.64 49.02 -23.64 34.78 -7.5 0 -0 -5.17 -41.83 -9.8 8.66 7.12 -0 -0 -13.46 -42.63 -0.8
12.7 16.03 8.54 342.15 -53.78 -331.73 0 0 0 -9.6 -31.28 -13.94 1.9 8.66 24.75 0.62 -13.6 -15.86 2.41 -9.67 -27.91 0 0 0 27.96 7.37 -5.4 -0.14 -2.37 6.54 -2.42 -15.88 -38.45 -0.08 1.77 -4.88 -3.3 1.37 11.2 5.43 1.9 -8.35 7.65 1.64 -16.15 -6.17 -8.05 -13.91 8.89 -13.56 29.63 2.27 -5.78 13.36 -0 0 0 -83.86 10.86 29.09 32.56 -42.99 -13.12 -0 -0 6.16 33.84 24.82 15.72 -7.12 0 -0 5.03 59.02 1.73 -0 0 0 60.37 -9.88 47.2 -28.49 39.56 -10.43 0 -0 -10.09 -41.83 -10.32 9.11 7.12 -0 -0 -13.53 -43.29 -0.58
12.61 16.02 8.59 338.44 -54.98 -328.52 0 0 0 -8.29 -31.05 -12.35 1.82 8.48 24.18 0.87 -14.01 -18.09 2.44 -9.73 -28.11 0 0 0 34.61 6.29 -10.2 -0.54 -4.73 13.13 -1.99 -13.35 -34.22 -0.45 4.28 -11.87 -3.03 1.13 10.97 4.9 1.55 -8.43 6.95 1.4 -15.98 -6.8 -8.71 -13.79 11.09 -15.61 31.22 2.88 -6.48 14.57 0 -0 0 -80.72 11.51 24.4 23.82 -34.97 -7.6 -0 -0 9.38 34.13 25.11 16.05 -7.12 0 -0 5.33 59.41 1.88 0 -0 0 60.69 -8.32 48.99 -35.82 45.39 -15.39 0 -0 -11.99 -41.96 -12.64 11.13 7.12 -0 -0 -13.99 -46.27 0.45
12.46 15.93 8.59 334.1 -57.65 -324.53 0 0 0 -6.81 -28.21 -11.86 1.9 8.65 24.72 0.95 -15.4 -19.13 2.29 -9.45 -27.22 0 0 0 39.21 5.8 -14.43 -0.99 -6.34 17.78 -1.95 -12.59 -33.39 -0.43 4.2 -11.63 -3.07 1.3 10.47 4.34 1.71 -8.49 6.28 1.42 -15.72 -7.02 -9.01 -13.37 12.23 -17.18 33.51 3.13 -7.05 15.97 0 -0 0 -79.69 11.84 8.79 16 -25.53 -3.65 -0 -0 16.11 32.6 27.01 16.19 -7.12 0 -0 3.01 61.13 1.18 0 -0 0 60.06 -8.42 51.94 -42.34 49.39 -20.2 0 -0 -7.71 -41.26 -9.28 8.05 7.12 -0 -0 -12.86 -41.89 -1.01
12.35 15.91 8.62 332.53 -61.05 -322.9 0 0 0 -8.42 -26.65 -9.33 1.69 8.19 23.29 1.32 -15.69 -21.84 2.33 -9.52 -27.43 0 0 0 38.09 4.39 -18.66 -1.18 -6.89 19.39 -1.8 -12.24 -32.24 -0.32 3.61 -9.98 -2.68 1.46 11.29 3.22 1.83 -8.62 4.74 1.37 -16.36 -6.82 -8.93 -13.52 12.51 -17.68 34.81 3.13 -7.2 16.78 -0 -0 0 -79.95 13.69 -9.08 12.75 -20.92 -2.36 -0 -0 17.11 37.31 32.98 22.53 -7.12 0 -0 7.65 69.05 4.42 -0 -0 0 60.51 -10.4 53.24 -43.37 49.94 -20.98 0 -0 -1.18 -42.02 -8.09 7.22 7.12 -0 -0 -13.38 -40.44 -1.53
