HIERARCHY
ROOT Hips
{
	OFFSET 0.00000 0.00000 0.00000
	CHANNELS 6 Xposition Yposition Zposition Zrotation Yrotation Xrotation 
	JOINT LHipJoint
	{
		OFFSET 0 0 0
		CHANNELS 3 Zrotation Yrotation Xrotation
		JOINT LeftUpLeg
		{
			OFFSET 3.13874 -1.57224 1.49786
			CHANNELS 3 Zrotation Yrotation Xrotation
			JOINT LeftLeg
			{
				OFFSET 2.10955 -5.79594 0.00000
				CHANNELS 3 Zrotation Yrotation Xrotation
				JOINT LeftFoot
				{
					OFFSET 2.41843 -6.64458 0.00000
					CHANNELS 3 Zrotation Yrotation Xrotation
					JOINT LeftToeBase
					{
						OFFSET 0.04713 -0.12948 1.66229
						CHANNELS 3 Zrotation Yrotation Xrotation
						End Site
						{
							OFFSET 0.00000 -0.00000 0.85167
						}
					}
				}
			}
		}
	}
	JOINT RHipJoint
	{
		OFFSET 0 0 0
		CHANNELS 3 Zrotation Yrotation Xrotation
		JOINT RightUpLeg
		{
			OFFSET -3.13988 -1.57224 1.49786
			CHANNELS 3 Zrotation Yrotation Xrotation
			JOINT RightLeg
			{
				OFFSET -2.15006 -5.90725 0.00000
				CHANNELS 3 Zrotation Yrotation Xrotation
				JOINT RightFoot
				{
					OFFSET -2.34496 -6.44273 0.00000
					CHANNELS 3 Zrotation Yrotation Xrotation
					JOINT RightToeBase
					{
						OFFSET -0.08699 -0.23900 1.55223
						CHANNELS 3 Zrotation Yrotation Xrotation
						End Site
						{
							OFFSET -0.00000 -0.00000 0.80281
						}
					}
				}
			}
		}
	}
	JOINT LowerBack
	{
		OFFSET 0 0 0
		CHANNELS 3 Zrotation Yrotation Xrotation
		JOINT Spine
		{
			OFFSET 0.01292 1.96517 -0.16495
			CHANNELS 3 Zrotation Yrotation Xrotation
			JOINT Spine1
			{
				OFFSET 0.02122 1.88666 0.19706
				CHANNELS 3 Zrotation Yrotation Xrotation
				JOINT Neck
				{
					OFFSET 0 0 0
					CHANNELS 3 Zrotation Yrotation Xrotation
					JOINT Neck1
					{
						OFFSET -0.01683 1.81591 0.07903
						CHANNELS 3 Zrotation Yrotation Xrotation
						JOINT Head
						{
							OFFSET 0.00815 1.74013 -0.47700
							CHANNELS 3 Zrotation Yrotation Xrotation
							End Site
							{
								OFFSET -0.00204 1.83225 -0.16933
							}
						}
					}
				}
				JOINT LeftShoulder
				{
					OFFSET 0 0 0
					CHANNELS 3 Zrotation Yrotation Xrotation
					JOINT LeftArm
					{
						OFFSET 3.38482 1.41533 0.19802
						CHANNELS 3 Zrotation Yrotation Xrotation
						JOINT LeftForeArm
						{
							OFFSET 4.32712 -0.00000 0.00000
							CHANNELS 3 Zrotation Yrotation Xrotation
							JOINT LeftHand
							{
								OFFSET 3.28587 -0.00000 -0.00000
								CHANNELS 3 Zrotation Yrotation Xrotation
								JOINT LeftFingerBase
								{
									OFFSET 0 0 0
									CHANNELS 3 Zrotation Yrotation Xrotation
									JOINT LeftHandIndex1
									{
										OFFSET 0.43316 -0.00000 -0.00000
										CHANNELS 3 Zrotation Yrotation Xrotation
										End Site
										{
											OFFSET 0.34922 -0.00000 -0.00000
										}
									}
								}
								JOINT LThumb
								{
									OFFSET 0 0 0
									CHANNELS 3 Zrotation Yrotation Xrotation
									End Site
									{
										OFFSET 0.35456 -0.00000 0.35456
									}
								}
							}
						}
					}
				}
				JOINT RightShoulder
				{
					OFFSET 0 0 0
					CHANNELS 3 Zrotation Yrotation Xrotation
					JOINT RightArm
					{
						OFFSET -3.09725 1.62858 -0.14144
						CHANNELS 3 Zrotation Yrotation Xrotation
						JOINT RightForeArm
						{
							OFFSET -4.29104 -0.00000 0.00000
							CHANNELS 3 Zrotation Yrotation Xrotation
							JOINT RightHand
							{
								OFFSET -3.22720 -0.00000 -0.00000
								CHANNELS 3 Zrotation Yrotation Xrotation
								JOINT RightFingerBase
								{
									OFFSET 0 0 0
									CHANNELS 3 Zrotation Yrotation Xrotation
									JOINT RightHandIndex1
									{
										OFFSET -0.54362 -0.00000 -0.00000
										CHANNELS 3 Zrotation Yrotation Xrotation
										End Site
										{
											OFFSET -0.43828 -0.00000 -0.00000
										}
									}
								}
								JOINT RThumb
								{
									OFFSET 0 0 0
									CHANNELS 3 Zrotation Yrotation Xrotation
									End Site
									{
										OFFSET -0.44497 -0.00000 0.44497
									}
								}
							}
						}
					}
				}
			}
		}
	}
}
MOTION
Frames: 74
Frame Time: 0.0333332
9.99 15.66 4.49 -173.22 -43.53 -175.11 0 0 0 1.01 -29.59 -13.65 0.34 3.77 10.43 1.35 16.18 -32.92 10.54 -17.7 -61.29 0 0 0 47.22 35.97 23.76 -0.36 3.83 -10.61 -11.95 -14.72 -70.01 -3.08 -10.82 31.68 4.82 2.57 7.59 2.59 4.05 -9.53 -0.56 1.36 -14.68 -4.33 -4.83 -16.47 -4.41 -5.52 30.18 -1.93 -3.97 12.81 -0 -0 0 -83.83 17.61 13.2 18.95 -29.35 -5 -0 -0 10.89 31.58 28.28 16.24 -7.12 0 -0 1.31 62.25 0.55 -0 -0 0 64.88 -18.49 39.29 -31.58 42.21 -12.46 0 -0 -2.18 -12.65 -15.55 3.44 7.12 -0 -0 13.99 -45.42 -0.15
9.9 15.67 4.5 -173.18 -42.84 -175.32 0 0 0 0.46 -26.45 -17.34 0.78 5.63 15.71 1 12.78 -27.43 11.45 -18.15 -64.23 0 0 0 47.79 36.07 25.01 -0.38 3.96 -10.96 -12.14 -14.66 -70.48 -3.07 -10.8 31.62 4.63 2.59 7.71 2.28 4.04 -9.49 -0.81 1.36 -14.69 -4.02 -4.83 -15.87 -3.93 -5.81 29.99 -1.81 -4 12.6 0 0 0 -83.89 17.92 12.61 18.8 -29.17 -4.93 -0 -0 11.21 31.71 28.39 16.37 -7.12 0 -0 1.44 62.4 0.61 0 0 0 60.4 -14.17 32.9 -42.18 49.31 -20.08 0 0 2.51 -23.42 -9.5 4.09 7.12 -0 -0 3.12 -40.29 0.36
9.75 15.68 4.53 -172.57 -42.11 -176.04 0 0 0 -0.01 -24.29 -20.22 1.31 7.26 20.48 0.61 9.95 -21.5 13 -18.78 -69.14 0 0 0 48.74 36.14 26.29 -0.38 3.96 -10.96 -12.21 -14.98 -70.75 -2.99 -10.68 31.22 4.9 2.62 7.94 2.09 4.12 -9.53 -1.19 1.35 -14.85 -3.37 -4.52 -15.37 -3.32 -5.82 30.22 -1.68 -3.87 12.59 -0 -0 0 -84 18.22 11.86 18.78 -29.15 -4.92 -0 -0 11.29 31.28 29.23 16.52 -7.12 0 -0 0.57 63.19 0.25 -0 -0 0 56.37 -5.51 16.18 -56.38 55.27 -31.35 0 0 2.23 -37.58 -6.33 4.85 7.12 -0 -0 -9.27 -37.8 -1.66
9.52 15.68 4.54 -172.03 -41.38 -176.47 0 0 0 -1.1 -23.4 -21.83 1.81 8.47 24.14 0.73 5.91 -19.35 13.46 -18.94 -70.56 0 0 0 49.64 36.09 27.85 -0.39 4.02 -11.13 -12.43 -14.9 -71.3 -2.97 -10.64 31.09 4.88 2.45 6.85 2.23 3.79 -9.53 -0.91 1.22 -14.18 -2.56 -4 -14.27 -2.9 -5.56 30.35 -1.59 -3.65 12.39 -0 -0 0 -84.78 18.59 9.58 18.62 -28.94 -4.84 -0 -0 11.91 31.12 28.55 16.09 -7.12 0 -0 0.64 62.42 0.27 -0 -0 0 50.89 9.73 -4.26 -71.09 58.61 -43.7 0 -0 -22.61 -48.85 -14.16 15.64 7.12 -0 -0 -21.52 -49.69 2.6
9.22 15.7 4.56 -171.45 -40.93 -177.12 0 0 0 -2.29 -24.37 -20.77 1.97 8.81 25.2 0.7 5.53 -18.79 12.97 -18.77 -69.04 0 0 0 50.41 35.57 29.5 -0.4 4.04 -11.18 -12.66 -13.95 -71.71 -3.15 -10.93 32.06 5.48 2.49 6.59 1.97 3.86 -9.83 -1.53 1.15 -14.32 -1.84 -3.76 -13.79 -1.94 -5.87 31.01 -1.4 -3.62 12.56 -0 -0 0 -84.59 18.81 8.2 18.29 -28.53 -4.69 -0 -0 12.5 31.62 26.99 15.61 -7.12 0 -0 1.8 60.86 0.7 -0 -0 0 43.37 23.57 -21.1 -85.13 59.91 -55.78 0 -0 -55.1 -63.81 -21.68 36.91 7.12 -0 -0 -52.05 -64.39 27.89
8.84 15.75 4.56 -171.25 -40.23 -177.71 0 0 0 -4.52 -25.03 -17.21 1.67 8.13 23.12 0.53 7.36 -18.38 12.73 -18.68 -68.28 0 0 0 50.74 35.17 31.26 -0.36 3.86 -10.67 -13.02 -12.99 -72.45 -3 -10.7 31.27 5.46 2.56 6.22 1.77 3.88 -9.98 -1.73 1.14 -14.25 -1.08 -3.59 -13.61 -0.86 -6.25 31.26 -1.19 -3.59 12.64 -0 0 0 -85.01 19.75 6.72 18.67 -29 -4.87 -0 -0 12.42 31.72 29.51 16.94 -7.12 0 -0 1.03 63.62 0.46 -0 0 0 29.87 21.92 -8.73 -91.36 59.99 -61.18 0 -0 -25.51 -62.27 -18.52 31.14 7.12 -0 -0 -43.85 -59.98 18.07
8.41 15.81 4.56 -172.41 -39.84 -177.44 0 0 0 -8.37 -25.27 -12.88 1.27 7.13 20.11 0.48 8.37 -18.68 12.63 -18.64 -67.97 0 0 0 49.26 34.74 32.29 -0.3 3.5 -9.68 -13.14 -12.86 -72.76 -2.71 -10.21 29.67 4.19 2.65 5.95 1.36 3.78 -9.98 -1.45 1.22 -14.11 -0.46 -3.67 -13.94 0.17 -6.82 31.06 -0.99 -3.62 12.65 0 -0 0 -85.69 20.27 5.62 18.9 -29.29 -4.98 -0 -0 12.11 31.51 27.74 15.92 -7.12 0 -0 1.42 61.64 0.57 0 -0 0 13.71 18.67 2.67 -85.63 59.93 -56.22 0 0 32.54 -64.88 3.54 -7.51 7.12 -0 -0 -26.97 -21.74 -17
7.98 15.86 4.58 -173.71 -39.81 -177.03 0 0 0 -12.6 -25.89 -8.08 0.84 5.86 16.37 0.53 8.96 -19.79 12.1 -18.43 -66.29 0 0 0 46.84 34.4 32.42 -0.22 3.04 -8.39 -13.1 -13.46 -72.76 -2.38 -9.62 27.76 2.59 2.45 5.14 1.14 3.27 -9.72 -0.69 1.16 -13.39 -0.14 -3.59 -14.44 1.81 -7.33 30.9 -0.51 -3.59 12.76 0 0 0 -86.25 19.84 4.36 18.35 -28.6 -4.71 -0 -0 12.55 31.9 28.8 16.69 -7.12 0 -0 1.53 62.9 0.66 0 0 0 8.69 19.87 -0.7 -82.16 59.77 -53.21 0 0 35.83 -65.15 3.06 -6.56 7.12 -0 -0 -27.38 -22.68 -16.65
7.56 15.91 4.64 -174.77 -39.79 -176.55 0 0 0 -16.65 -27.38 -3.43 0.52 4.63 12.85 0.34 11.56 -20.55 12.08 -18.42 -66.23 0 0 0 44.21 34.56 31.67 -0.14 2.4 -6.6 -12.93 -16 -72.84 -1.49 -7.71 21.83 1.28 2.37 4.91 0.59 2.93 -9.94 -0.49 1.09 -13.54 0.51 -3.73 -14.9 3.95 -8.64 31.35 -0.05 -3.84 13.18 -0 0 0 -85.2 19.95 4.49 18.1 -28.29 -4.6 -0 -0 12.89 31.79 30.35 17.39 -7.12 0 -0 0.76 64.54 0.36 -0 0 0 15.93 28.01 -19.39 -75.39 59.18 -47.38 0 0 10.6 -62.22 -11.65 20.97 7.12 -0 -0 -35.89 -49.99 4.99
7.17 15.94 4.72 -176.16 -39.39 -175.49 0 0 0 -20.76 -28.73 0.46 0.32 3.61 9.98 0.48 12.19 -22.56 11.58 -18.21 -64.64 0 0 0 37.27 29.16 26.18 -0.11 2.17 -5.98 -10.41 -14.52 -65.74 -1.14 -6.79 19.11 -0.2 2.68 4.46 0.24 3.09 -10.37 -0.07 1.27 -13.84 0.17 -4.14 -14.53 4.95 -9.75 31.99 0.21 -4.29 13.5 0 -0 0 -84.23 19.98 5.3 17.96 -28.11 -4.53 -0 -0 13.33 31.29 31 17.38 -7.12 0 -0 -0.22 65.09 -0.1 0 -0 0 19.23 34.04 -32.3 -85.31 59.92 -55.94 0 -0 -51.66 -76.07 -27.49 61.75 7.12 -0 -0 -84.69 68.15 -107.8
6.8 15.96 4.79 -177.38 -38.65 -174.65 0 0 0 -24.6 -29.8 4.16 0.17 2.63 7.26 0.04 15.89 -22.94 11.9 -18.35 -65.66 0 0 0 32.7 26.08 23.38 -0.09 1.94 -5.35 -8.93 -14.66 -61.53 -0.72 -5.43 15.13 -1.71 2.77 4.03 0.18 3.01 -10.49 0.73 1.37 -13.8 -0.22 -4.12 -14.84 5.83 -10.2 32.81 0.52 -4.43 14.04 0 0 0 -83.94 19.6 4.83 18.73 -29.08 -4.9 -0 -0 12.76 31 30.79 17.1 -7.12 0 -0 -0.48 64.78 -0.23 0 0 0 15.5 25.98 -12.95 -86.4 59.95 -56.88 0 -0 -19.28 -66.31 -20.39 38.45 7.12 -0 -0 -56.12 -63.71 29.88
6.47 15.97 4.89 -178.61 -38.1 -173.53 0 0 0 -27.81 -30.07 6.52 0.08 1.77 4.88 -0.03 16.64 -23.27 12.07 -18.42 -66.2 0 0 0 29.96 25.75 23.15 -0.09 1.96 -5.4 -8.91 -14.37 -61.37 -0.58 -4.88 13.57 -2.61 2.72 3.5 -0.17 2.77 -10.63 0.92 1.32 -13.67 0.03 -4.06 -15 6.03 -10.33 32.94 0.52 -4.43 14.14 0 -0 0 -83.37 20.14 4.99 20.55 -31.3 -5.82 -0 -0 10.29 32.12 31.31 18.07 -7.12 0 -0 0.75 65.66 0.38 0 -0 0 7.02 20.43 1.47 -83.81 59.85 -54.64 0 0 36.93 -63.76 7.99 -15.75 7.12 -0 -0 -24.42 -13.33 -20.09
6.19 15.95 5.01 -179.73 -37.88 -172.41 0 0 0 -30.07 -29.7 7.21 0.04 1.26 3.46 -0.16 16.85 -22.3 11.81 -18.31 -65.38 0 0 0 27.19 25.28 22 -0.07 1.69 -4.64 -8.86 -13.92 -61.09 -0.42 -4.18 11.57 -3.22 2.6 3.41 -0.83 2.44 -10.72 0.58 1.17 -13.72 -0.63 -4.12 -13.95 7.53 -10.67 32.12 1.2 -4.55 13.73 -0 0 0 -82.14 20.55 5.42 21.92 -32.89 -6.54 -0 -0 9.15 32.78 30.04 17.86 -7.12 0 -0 2.19 64.49 1.03 -0 0 0 5.66 17.83 1.7 -86.89 59.96 -57.31 0 0 35.89 -64.93 5.52 -11.63 7.12 -0 -0 -26.06 -17.66 -19.01
5.96 15.94 5.13 -179.65 -37.89 -172.06 0 0 0 -31.2 -30.06 7.97 0.02 0.8 2.2 -0.08 16.63 -22.83 11.34 -18.1 -63.87 0 0 0 25.31 24.24 20.05 -0.04 1.3 -3.57 -8.53 -13.82 -60.05 -0.38 -3.98 11.01 -3.17 2.48 3.44 -1.11 2.21 -10.91 0.27 1.03 -13.94 -0.34 -4.13 -14.95 7.92 -11.04 32.49 1.21 -4.58 14.16 -0 -0 0 -81.34 20.36 5.41 21.45 -32.35 -6.29 -0 -0 9.4 32.81 31.91 18.82 -7.12 0 -0 1.41 66.51 0.73 -0 -0 0 12.03 21.17 -14.87 -81.42 59.72 -52.57 0 0 16.46 -62.23 -8.19 15.14 7.12 -0 -0 -32.76 -44.26 -0.68
5.75 15.94 5.26 -179.82 -37.81 -171.66 0 0 0 -32.46 -30.26 8.64 0 0.39 1.06 -0.13 17 -22.89 11.12 -17.99 -63.17 0 0 0 22.98 22.53 18.02 -0.03 1.12 -3.07 -8.13 -12.79 -58.42 -0.38 -3.96 10.96 -3.52 2.62 3.38 -1.39 2.34 -10.91 0.14 1.1 -13.91 0.19 -4.44 -15.37 7.73 -11.6 32.46 0.93 -4.76 14.22 0 -0 0 -80.61 19.72 6.62 20.26 -30.96 -5.67 -0 -0 9.55 29.45 35.48 18.14 -7.12 0 -0 -5.72 69.2 -3.32 0 -0 0 15.05 25.89 -31 -84.95 59.9 -55.63 0 -0 -36.25 -71.21 -25.48 51.67 7.12 -0 -0 -84.24 -68.58 60.85
5.57 15.93 5.38 -179.94 -37.29 -171.42 0 0 0 -34 -31.25 10.54 0 -0.27 -0.74 0.24 16.59 -25.63 10.58 -17.72 -61.4 0 0 0 21.41 21.81 16.79 -0.02 0.93 -2.55 -8.03 -12.23 -57.9 -0.34 -3.74 10.35 -3.9 2.67 3.43 -1.23 2.34 -11.12 0.52 1.15 -14.23 0.38 -4.3 -16.01 7.34 -11.46 33.16 0.74 -4.69 14.63 -0 -0 0 -81.25 19.99 5.85 19.43 -29.95 -5.24 -0 -0 11.84 30.57 31.41 17.12 -7.12 0 -0 -1.37 65.33 -0.67 -0 -0 0 16.19 25.35 -27.87 -88.95 60 -59.09 0 -0 -40.3 -70.91 -25.21 50.91 7.12 -0 -0 -82.41 -68.46 58.86
5.42 15.91 5.48 -180.59 -36.46 -170.97 0 0 0 -35.71 -31.31 11.6 0.01 -0.68 -1.87 -0.26 19.16 -24.92 11.29 -18.08 -63.73 0 0 0 19.37 20.76 15.41 -0.02 0.83 -2.28 -7.66 -13.33 -57.16 -0.18 -2.7 7.45 -4.22 2.73 3.49 -1.36 2.34 -11.21 0.56 1.17 -14.41 -0.19 -4.19 -14.62 7.79 -11.24 32.74 1.1 -4.7 14.19 0 -0 0 -81.56 20.9 5.54 19.53 -30.07 -5.29 -0 -0 11.18 31.75 30.75 17.55 -7.12 0 -0 0.51 64.96 0.25 0 -0 0 13.44 18.93 -8.27 -97.92 59.76 -66.85 0 -0 -2.12 -62.49 -16.08 28 7.12 -0 -0 -41.15 -56.75 13.4
5.31 15.88 5.58 -180.69 -36.12 -170.76 0 0 0 -36.22 -30.92 11.65 0.02 -0.97 -2.68 -0.35 19.19 -24.09 11.4 -18.12 -64.07 0 0 0 18.24 20.42 13.97 -0 0.38 -1.05 -7.64 -12.76 -56.85 -0.19 -2.82 7.79 -4.13 2.63 3.39 -1.35 2.21 -11.22 0.54 1.09 -14.33 -0.45 -4.1 -14.34 7.85 -10.97 32.41 1.22 -4.62 13.98 -0 -0 0 -81.82 21.43 4.51 19.74 -30.33 -5.4 -0 -0 10.71 31.9 30.69 17.62 -7.12 0 -0 0.75 64.93 0.36 -0 -0 0 9.15 15.52 2.63 -103.77 59.27 -71.9 0 0 38.81 -67.28 13.29 -28.77 7.12 -0 -0 -24.45 -0.79 -26.68
5.22 15.86 5.66 -181.22 -36.08 -170.45 0 0 0 -36.91 -30.24 11.41 0.03 -1.13 -3.11 -0.48 19.24 -22.91 11.44 -18.15 -64.22 0 0 0 16.77 19.43 12.61 -0 0.02 -0.05 -7.25 -13.21 -55.77 -0.13 -2.3 6.33 -4.66 2.66 3.32 -1.61 2.18 -11.06 0.55 1.12 -14.12 -0.3 -4.23 -14.97 8.08 -11.26 32.31 1.22 -4.66 14.11 -0 -0 0 -81.37 20.93 4.17 19.3 -29.79 -5.18 -0 -0 11.14 30.88 31.03 17.14 -7.12 0 -0 -0.76 65.01 -0.37 -0 -0 0 8.69 14.74 -0.37 -100.87 59.55 -69.4 0 0 34.26 -64.83 6.65 -13.84 7.12 -0 -0 -25.52 -15.43 -19.92
5.17 15.86 5.73 -180.49 -36.65 -170.87 0 0 0 -37.07 -31.45 12.46 0.04 -1.32 -3.62 -0.51 19.89 -23.79 11.36 -18.1 -63.93 0 0 0 17.64 19.81 13.28 -0 0.22 -0.62 -7.91 -12.73 -57.7 -0.29 -3.47 9.58 -4.45 2.52 3.38 -1.44 2.02 -11.15 0.65 1.03 -14.26 -0.54 -4.35 -14.5 8.27 -11.54 32.52 1.3 -4.83 14.15 -0 -0 0 -81.2 21 4.16 19.44 -29.96 -5.25 -0 -0 11.51 30.56 31.22 17.02 -7.12 0 -0 -1.29 65.12 -0.63 -0 -0 0 13.58 18.87 -16.33 -90.06 60 -60.05 0 0 14.26 -61.36 -8 14.29 7.12 -0 -0 -31.68 -43.68 -1.16
5.14 15.87 5.78 -179.93 -37.08 -171.44 0 0 0 -36.61 -30.82 12.26 0.04 -1.37 -3.76 -0.48 19.26 -23.03 11.38 -18.12 -64 0 0 0 18.43 20.16 13.82 -0 0.2 -0.55 -8.45 -11.95 -59.13 -0.46 -4.36 12.09 -4.16 2.3 3.54 -1.17 1.81 -11.09 0.82 0.93 -14.26 -1.21 -4.28 -14.3 8.09 -11.24 32.9 1.4 -4.81 14.27 0 0 0 -81.73 20.93 3.8 19.23 -29.71 -5.15 -0 -0 11.49 31.74 31.59 17.96 -7.12 0 -0 0.1 65.85 0.05 0 0 0 16.48 25.49 -29.41 -90.23 60 -60.2 0 -0 -36.06 -70.8 -25.16 50.68 7.12 -0 -0 -81.86 -68.45 58.28
5.12 15.86 5.81 -179.99 -36.89 -171.78 0 0 0 -36.64 -29.58 12.06 0.05 -1.43 -3.92 -0.52 18.97 -22.05 11.52 -18.18 -64.47 0 0 0 18.28 19.96 14.03 -0 0.2 -0.54 -8.22 -12.53 -58.62 -0.51 -4.58 12.71 -4.31 2.58 3.76 -1.37 2.12 -11.18 0.62 1.08 -14.53 -0.4 -4.35 -14.8 7.03 -11.33 33.57 0.8 -4.85 14.55 -0 -0 0 -81.09 20.98 4.83 18.95 -29.36 -5.01 -0 -0 11.27 31.1 30.9 17.21 -7.12 0 -0 -0.41 64.93 -0.2 -0 -0 0 18.7 23.8 -23.93 -96.56 59.84 -65.68 0 -0 -34.26 -71.14 -25.27 51.33 7.12 -0 -0 -83.4 -68.46 59.85
5.11 15.84 5.84 -180.43 -36.54 -171.7 0 0 0 -37.56 -30.27 12.82 0.05 -1.44 -3.96 -0.38 19.07 -23.66 11.27 -18.06 -63.65 0 0 0 17.84 20.23 14.05 -0 0.09 -0.25 -8.2 -12.7 -58.63 -0.74 -5.51 15.37 -4.45 2.55 3.76 -1.31 2.09 -11.13 0.77 1.08 -14.48 -0.48 -4 -14.87 6.52 -10.49 33.55 0.76 -4.54 14.47 0 0 0 -81.72 21.23 3.74 19.46 -29.99 -5.26 -0 -0 11.72 30.26 31.4 16.91 -7.12 0 -0 -1.77 65.22 -0.87 0 0 0 15.08 18.57 -5.56 -103.17 59.33 -71.38 0 0 5.13 -61.63 -13.58 23.5 7.12 -0 -0 -37.01 -52.77 7.95
5.11 15.83 5.86 -180.45 -36.55 -171.67 0 0 0 -37.24 -29.38 12.26 0.05 -1.51 -4.15 -0.32 18.32 -23 11.24 -18.05 -63.57 0 0 0 17.9 20.42 13.96 -0 0.01 -0.03 -8.21 -12.93 -58.72 -0.7 -5.34 14.87 -4.3 2.52 3.87 -1.29 2.05 -11.16 0.71 1.05 -14.58 -1.03 -4.14 -13.93 6.54 -10.42 32.94 0.91 -4.62 14.01 0 0 0 -81.91 21.27 3.09 19.65 -30.22 -5.35 -0 -0 11.31 31.24 31.63 17.65 -7.12 0 -0 -0.6 65.75 -0.3 0 0 0 10.54 15.31 3.24 -106.55 58.94 -74.29 0 0 44.62 -70.81 14.24 -35.25 7.12 -0 -0 -25.95 4.59 -31.23
5.15 15.83 5.88 -180.35 -36.99 -171.36 0 0 0 -36.56 -29.39 11.27 0.05 -1.49 -4.09 -0.37 18.07 -22.06 11.37 -18.11 -63.98 0 0 0 18.07 20.82 13.49 -0 -0.1 0.27 -8.39 -12.85 -59.26 -0.76 -5.56 15.51 -4.44 2.38 4 -1.25 1.87 -11.06 0.86 0.99 -14.54 -1.11 -4.25 -15.29 6.78 -10.6 33.01 0.95 -4.59 14.38 0 0 0 -81.62 21.1 4.03 19.61 -30.17 -5.33 -0 -0 9.66 30.27 34.87 18.45 -7.12 0 -0 -4.04 68.84 -2.31 0 0 0 10.97 15.14 -3.57 -102.47 59.4 -70.78 0 0 33.35 -64.95 6.61 -13.84 7.12 -0 -0 -25.6 -15.45 -19.99
5.21 15.85 5.89 -179.99 -37.6 -171.23 0 0 0 -36.34 -31.18 11.84 0.06 -1.59 -4.38 -0.56 19.53 -22.69 11.48 -18.16 -64.33 0 0 0 18.74 21.37 13.48 -0 -0.07 0.2 -8.69 -13.06 -60.27 -0.79 -5.67 15.83 -4.61 2.18 4.38 -1.12 1.57 -11.13 1.13 0.88 -14.86 -1.3 -4.55 -14.28 7.29 -11.04 32.17 1.15 -4.8 13.86 -0 -0 0 -81.66 21.47 3.96 19.83 -30.44 -5.45 -0 -0 10.41 31.08 29.67 16.61 -7.12 0 -0 0.13 63.61 0.06 -0 -0 0 16.44 20 -20.59 -93.03 59.97 -62.62 0 0 8.72 -62.8 -10.82 20.07 7.12 -0 -0 -35.83 -48.88 3.89
5.26 15.86 5.87 -179.65 -38.16 -171.13 0 0 0 -35.63 -31.68 11.55 0.06 -1.63 -4.49 -0.4 18.83 -23.08 11.33 -18.09 -63.84 0 0 0 19.51 21.89 14.14 -0 0.23 -0.64 -9.12 -12.39 -61.35 -0.99 -6.34 17.77 -4.62 1.81 4.36 -0.74 1.12 -11.05 1.64 0.7 -14.73 -1.9 -4.46 -14.75 7.39 -10.88 32.7 1.3 -4.76 14.23 0 -0 0 -82.42 21.26 2.97 19.21 -29.68 -5.13 -0 -0 11.2 31.1 30.24 16.9 -7.12 0 -0 -0.09 64.22 -0.04 0 -0 0 20.16 26.51 -33.52 -98.36 59.73 -67.24 0 -0 -43.07 -70.82 -25.4 50.96 7.12 -0 -0 -82.56 -68.6 59.17
5.33 15.87 5.84 -180.01 -38.34 -170.69 0 0 0 -35.92 -32.69 12.12 0.07 -1.75 -4.82 -0.56 19.97 -23.37 11.46 -18.15 -64.25 0 0 0 19.84 22.67 14.84 -0 0.41 -1.11 -9.47 -12.3 -62.36 -0.95 -6.2 17.36 -4.89 1.67 4.38 -0.82 0.87 -11.13 1.75 0.61 -14.84 -1.89 -4.39 -14.97 7.26 -10.99 33.6 1.21 -4.83 14.69 0 0 0 -82.45 21.27 2.49 18.71 -29.05 -4.89 -0 -0 11.63 30.81 29.92 16.57 -7.12 0 -0 -0.33 63.81 -0.15 0 0 0 22.89 22.75 -23.24 -107.02 58.88 -74.68 0 -0 -30.89 -72.52 -23.61 51.82 7.12 -0 -0 -84.09 -67.2 58.9
5.4 15.88 5.8 -180.34 -38.7 -170.26 0 0 0 -35.96 -33.59 12.37 0.08 -1.79 -4.94 -0.52 20.06 -24 11.33 -18.09 -63.86 0 0 0 19.74 22.51 14.67 -0.01 0.47 -1.29 -9.69 -12.15 -62.97 -0.78 -5.63 15.73 -4.93 1.56 4.34 -0.96 0.74 -10.94 1.64 0.54 -14.57 -1.98 -4.54 -14.57 7.43 -11.16 33.11 1.28 -4.91 14.41 0 0 0 -82.5 21.29 2.88 19.4 -29.91 -5.23 -0 -0 10.77 30.75 30.34 16.72 -7.12 0 -0 -0.6 64.23 -0.28 0 0 0 17.9 13.36 -3.08 -116.02 57.28 -82.32 0 0 12.68 -60.85 -6.71 11.83 7.12 -0 -0 -30.21 -41.34 -3.05
5.48 15.88 5.76 -180.27 -39.43 -169.9 0 0 0 -35.24 -33.84 11.72 0.08 -1.81 -4.99 -0.76 20.68 -22.7 11.57 -18.2 -64.63 0 0 0 19.61 21.71 13.5 -0 0.31 -0.85 -9.51 -11.93 -62.36 -0.85 -5.86 16.39 -4.69 1.29 4.27 -0.85 0.45 -10.76 1.67 0.39 -14.27 -2.01 -4.6 -15.32 7.74 -11.26 32.92 1.37 -4.87 14.52 -0 0 0 -83.02 21.08 2.96 20.19 -30.86 -5.63 -0 -0 11.04 29.74 30.84 16.32 -7.12 0 -0 -2.15 64.48 -1.02 -0 0 0 11.69 8.84 4.94 -119.15 56.53 -84.95 0 0 49.13 -69.22 8.91 -22.19 7.12 -0 -0 -26.84 -7.92 -26.01
5.58 15.88 5.72 -179.76 -40.06 -170.01 0 0 0 -33.88 -33.79 11.02 0.08 -1.87 -5.15 -0.82 20.46 -21.53 11.62 -18.23 -64.79 0 0 0 20.01 20.66 12.23 -0 0.09 -0.23 -9.13 -12.58 -61.43 -0.65 -5.14 14.3 -4.48 1.29 4.44 -0.81 0.52 -10.5 1.59 0.41 -14.06 -1.93 -4.87 -15.73 8.47 -12 32.88 1.5 -5.07 14.72 0 0 0 -83.34 20.64 4.08 20.74 -31.53 -5.91 -0 -0 10.69 30.17 31.16 16.74 -7.12 0 -0 -1.77 64.94 -0.85 0 0 0 12.33 8.96 -6.02 -110.74 58.31 -77.86 0 0 29.7 -64.5 5.97 -12.31 7.12 -0 -0 -25.63 -16.94 -19.08
5.68 15.91 5.67 -179.53 -40.9 -169.93 0 0 0 -33.62 -35.93 11.74 0.08 -1.81 -4.99 -1.09 22.07 -21.87 11.75 -18.28 -65.21 0 0 0 20.48 20.09 11.89 -0 0.17 -0.47 -9.18 -12.31 -61.5 -0.78 -5.62 15.7 -4.71 1.09 4.76 -0.58 0.21 -10.67 2.02 0.32 -14.46 -2.62 -4.96 -15.02 9.29 -12.41 33.06 1.89 -5.29 14.81 0 -0 0 -84.45 20.43 4.46 20.59 -31.35 -5.84 -0 -0 10.79 30.98 30.53 16.96 -7.12 0 -0 -0.39 64.5 -0.19 0 -0 0 16.44 14.86 -23.56 -97.22 59.8 -66.25 0 0 5.84 -62.86 -11 20.42 7.12 -0 -0 -36.09 -49.19 4.23
5.77 15.92 5.59 -179.07 -41.75 -170.35 0 0 0 -32.82 -36.12 11.69 0.07 -1.73 -4.77 -1.02 21.68 -21.76 11.69 -18.26 -65.01 0 0 0 21.35 19.27 12.42 -0.01 0.47 -1.29 -9.43 -10.88 -61.82 -1.03 -6.46 18.13 -4.31 1.14 4.72 -0.63 0.35 -10.59 1.71 0.34 -14.34 -2.73 -5.18 -15.11 8.52 -12.65 34.01 1.55 -5.5 15.23 -0 0 0 -85.03 19.23 5.53 19.67 -30.24 -5.37 -0 -0 11.7 30.82 29.99 16.6 -7.12 0 -0 -0.35 63.88 -0.16 -0 0 0 19.54 21.89 -38.94 -94.06 59.94 -63.52 0 -0 -32.38 -70.36 -23.98 48.72 7.12 -0 -0 -77.16 -67.69 52.68
5.89 15.92 5.5 -179.09 -41.96 -170.37 0 0 0 -32.62 -37.17 12.3 0.07 -1.65 -4.54 -1.1 22.45 -22.58 11.61 -18.22 -64.74 0 0 0 21.56 18.28 12.07 -0.01 0.56 -1.54 -8.95 -11.4 -60.49 -0.89 -6.01 16.8 -4.5 1.41 4.49 -0.77 0.71 -10.42 1.6 0.52 -14.01 -2.83 -5.44 -16.11 7.66 -12.89 35.14 1.13 -5.65 15.95 0 0 0 -85.08 18.55 7.61 19.13 -29.57 -5.09 -0 -0 11.63 30.23 30.29 16.38 -7.12 0 -0 -1.24 64.03 -0.57 0 0 0 23.47 24.01 -37.43 -99.21 59.68 -67.97 0 -0 -25.03 -73.24 -24.43 53.93 7.12 -0 -0 -88.97 -67.48 64.39
6.01 15.92 5.4 -179.38 -42.03 -170.47 0 0 0 -32.68 -37.64 13.26 0.07 -1.74 -4.79 -1.19 23.29 -23.47 11.79 -18.3 -65.31 0 0 0 21.49 16.82 11.24 -0 0.32 -0.89 -8.35 -11.64 -58.7 -0.77 -5.62 15.68 -4.77 1.22 4.3 -0.37 0.43 -10.67 2.25 0.44 -14.19 -3.49 -5.1 -14.67 6.22 -11.82 35.9 0.89 -5.56 15.8 0 0 0 -86.4 19.47 6.36 18.91 -29.31 -4.99 -0 -0 12.41 30.02 29.92 16.08 -7.12 0 -0 -1.33 63.59 -0.6 0 0 0 23.66 19.38 -15.19 -111.98 58.09 -78.91 0 0 1.69 -65.75 -16.97 32.95 7.12 -0 -0 -48.69 -59.32 19.87
6.15 15.92 5.29 -179.78 -42.97 -170.52 0 0 0 -32.32 -37.34 13.13 0.07 -1.69 -4.64 -0.98 22.14 -23.23 11.69 -18.26 -65.01 0 0 0 21.37 14.65 10.66 -0 0.33 -0.9 -7.84 -10.87 -56.81 -1.01 -6.4 17.94 -5.09 0.95 4.18 -0.32 0.07 -10.58 2.54 0.3 -13.98 -3.15 -5.02 -15.66 5.48 -11.73 37.03 0.47 -5.54 16.51 0 0 0 -86.65 19.45 5.07 19.06 -29.49 -5.06 -0 -0 11.81 28.85 30.17 15.48 -7.12 0 -0 -2.93 63.53 -1.32 0 0 0 16.97 14.66 3.52 -118.14 56.79 -84.1 0 0 32.77 -59.56 10.04 -16.53 7.12 -0 -0 -21.38 -11.62 -17.97
6.31 15.92 5.18 -179.13 -44.18 -171.15 0 0 0 -31.07 -37.98 13.22 0.06 -1.63 -4.49 -0.98 21.99 -22.97 11.76 -18.29 -65.24 0 0 0 21.82 12.13 9.06 -0 -0.06 0.16 -6.76 -11.55 -53.46 -0.82 -5.77 16.11 -4.88 0.95 4.18 -0.35 0.13 -10.29 2.38 0.31 -13.63 -3.04 -5.44 -15.96 6.32 -12.62 36.49 0.64 -5.75 16.45 -0 -0 0 -86.11 18.81 5.17 19.45 -29.98 -5.26 -0 -0 12.39 28.14 31.29 15.52 -7.12 0 -0 -4.44 64.5 -2.1 -0 -0 0 12.11 12.05 5.21 -115.77 57.34 -82.12 0 0 42.28 -65.39 8.59 -18.06 7.12 -0 -0 -25.05 -11.27 -21.94
6.5 15.93 5.07 -178.58 -45.22 -171.79 0 0 0 -29.77 -38.36 12.97 0.05 -1.49 -4.09 -1.33 22.93 -20.98 12.35 -18.54 -67.11 0 0 0 22.48 10.77 8 -0.01 -0.53 1.47 -5.92 -11.61 -50.52 -0.65 -5.15 14.33 -5.08 0.89 4.3 -0.2 0.01 -10.52 2.67 0.29 -13.98 -3.11 -5.47 -14.7 6.87 -12.95 36.22 0.87 -5.91 16.1 0 -0 0 -85.88 19.37 5.14 19.41 -29.92 -5.23 -0 -0 12.09 29.23 28.95 15.16 -7.12 0 -0 -1.86 62.34 -0.78 0 -0 0 16.36 14.49 -10.85 -106.32 58.97 -74.08 0 0 27.32 -59.78 2.89 -4.94 7.12 -0 -0 -24.12 -24.16 -13.31
6.69 15.93 4.98 -177.59 -45.96 -172.8 0 0 0 -28.47 -39.52 13.52 0.05 -1.43 -3.92 -1.12 22.55 -22.6 12.1 -18.43 -66.31 0 0 0 23.82 10.89 8.17 -0.01 -0.69 1.89 -5.18 -12.61 -48.21 -0.36 -3.86 10.68 -4.61 0.91 4.43 -0.1 0.11 -10.5 2.51 0.3 -14.03 -3.17 -5.39 -14.89 6.9 -12.9 36.64 0.89 -5.89 16.36 0 0 0 -85.66 19.31 4.55 19.15 -29.6 -5.1 -0 -0 12.33 29.96 28.91 15.57 -7.12 0 -0 -0.96 62.49 -0.41 0 0 0 21.68 21.06 -26.05 -100.75 59.56 -69.3 0 -0 -3.68 -66.09 -20.3 38.04 7.12 -0 -0 -55.36 -63.54 29.14
6.9 15.92 4.88 -176.97 -45.84 -173.75 0 0 0 -27.71 -40.42 14.72 0.05 -1.46 -4.02 -1.38 24.17 -23.41 12.31 -18.52 -66.96 0 0 0 25.88 12.23 10.45 -0 0.08 -0.23 -5.3 -13.53 -49.11 -0.42 -4.18 11.57 -4.24 1.02 4.38 0.19 0.35 -10.5 2.58 0.4 -14.02 -3.21 -5.34 -14.57 5.96 -12.45 36.86 0.6 -5.83 16.26 0 -0 0 -85.89 19.44 3.42 18.3 -28.54 -4.69 -0 -0 13.21 29.32 28.68 15.08 -7.12 0 -0 -1.64 62.07 -0.68 0 -0 0 25.03 23.33 -26.5 -107.15 58.86 -74.8 0 -0 -21.55 -71.01 -23.46 49.16 7.12 -0 -0 -78.14 -67.28 53.08
7.12 15.92 4.79 -176.55 -45.11 -174.35 0 0 0 -26.97 -41.14 15.59 0.05 -1.39 -3.83 -1.74 26.21 -24.5 12.52 -18.6 -67.64 0 0 0 29.31 16.87 14.44 -0.02 0.95 -2.6 -6.61 -14.65 -54.27 -0.87 -5.96 16.67 -3.28 1.32 4.16 0.15 0.86 -10.51 1.92 0.53 -13.89 -3.17 -5.17 -14.57 5.8 -12.12 36.95 0.58 -5.71 16.26 -0 -0 0 -85.63 19.86 3.23 17.98 -28.13 -4.54 -0 -0 13.2 28.82 28.95 14.92 -7.12 0 -0 -2.37 62.24 -0.99 -0 -0 0 24.89 17.43 -8.3 -114.08 57.69 -80.69 0 0 10.22 -63.68 -14.46 26.79 7.12 -0 -0 -41.18 -54.91 11.46
7.36 15.93 4.71 -176.44 -44.46 -174.56 0 0 0 -26.66 -43.11 16.84 0.04 -1.22 -3.35 -0.82 25.08 -30.03 11.79 -18.3 -65.31 0 0 0 31.91 20.3 17.13 -0.05 1.44 -3.97 -7.64 -14.81 -57.68 -1.16 -6.83 19.21 -2.65 1.39 3.92 0.36 1.08 -10.37 1.77 0.58 -13.56 -2.74 -4.82 -15.49 5.1 -11.25 36.87 0.36 -5.31 16.29 0 -0 0 -86.21 20.62 2.86 18.73 -29.08 -4.9 -0 -0 12.45 29.31 30.07 15.71 -7.12 0 -0 -2.3 63.55 -1.03 0 -0 0 19.54 13.16 10.01 -121.12 56 -86.59 0 0 38.43 -61.72 9.86 -17.66 7.12 -0 -0 -22.65 -10.91 -19.6
7.63 15.93 4.64 -175.75 -44.02 -175.11 0 0 0 -24.48 -43.28 16.01 0.03 -1.06 -2.91 -0.56 24.59 -31.1 11.67 -18.25 -64.95 0 0 0 35.13 23.71 19.63 -0.08 1.84 -5.06 -8.42 -16.11 -60.58 -1.54 -7.83 22.21 -1.77 1.42 4.08 0.7 1.25 -10.36 1.62 0.59 -13.64 -2.77 -4.71 -15.16 4.82 -10.77 36.23 0.36 -5.14 15.82 0 0 0 -86.27 20.9 3.44 18.52 -28.81 -4.8 -0 -0 11.87 29.35 29.37 15.42 -7.12 0 -0 -1.91 62.82 -0.83 0 0 0 15.52 12.55 15.98 -121.28 55.96 -86.72 0 0 42.42 -66.9 13.29 -28.32 7.12 -0 -0 -24.25 -1.13 -26.26
7.93 15.93 4.56 -175.29 -43.86 -175.34 0 0 0 -21.29 -42.38 13.18 0.01 -0.7 -1.93 0.26 21.39 -31.91 10.95 -17.91 -62.62 0 0 0 39.31 28.63 23.53 -0.12 2.23 -6.15 -10.34 -16.18 -66.05 -2.22 -9.31 26.77 -1.3 1.36 4.07 0.94 1.24 -10.29 1.62 0.56 -13.53 -3.02 -4.61 -14.53 5.47 -10.63 35.39 0.74 -5.05 15.32 -0 0 0 -86.04 20.87 4.06 18.69 -29.03 -4.88 -0 -0 11.8 29.22 30.96 16.05 -7.12 0 -0 -2.89 64.47 -1.36 -0 0 0 18.6 14.81 1.53 -113.38 57.83 -80.1 0 0 33.84 -62.27 7.09 -13.21 7.12 -0 -0 -23.94 -15.72 -18.25
8.24 15.92 4.49 -174.83 -44.18 -175.44 0 0 0 -17.23 -40.32 8.34 0 -0.07 -0.18 -0.15 20.29 -27.49 11.52 -18.18 -64.45 0 0 0 43.58 32.79 27.24 -0.15 2.52 -6.94 -12.4 -15.86 -71.45 -2.78 -10.34 30.08 -0.77 1.31 4.08 0.87 1.21 -10.42 1.26 0.48 -13.67 -3 -4.65 -14.13 6.07 -10.88 34.96 0.96 -5.1 15.09 -0 -0 0 -85.69 20.71 4.2 19.24 -29.72 -5.15 -0 -0 11.49 29.98 28.92 15.59 -7.12 0 -0 -0.93 62.51 -0.39 -0 -0 0 22.76 18.09 -16.37 -100.28 59.6 -68.89 0 0 12.79 -60.92 -10.56 18.24 7.12 -0 -0 -33.27 -47.79 2.56
8.54 15.9 4.4 -173.54 -44.49 -176.49 0 0 0 -12.65 -37.21 2.76 0.03 1.09 3.01 -0.49 19 -22.4 12.17 -18.46 -66.52 0 0 0 46.11 32.05 28.44 -0.26 3.25 -8.97 -12.61 -13.99 -71.57 -3.38 -11.29 33.26 -0.03 1.26 4.32 1.12 1.27 -10.37 1.1 0.45 -13.76 -2.99 -4.76 -14.32 5.94 -10.97 34.95 0.88 -5.14 15.12 -0 -0 0 -85.66 20.36 5.31 19.88 -30.5 -5.47 -0 -0 11.01 29.83 29.76 15.89 -7.12 0 -0 -1.49 63.36 -0.66 -0 -0 0 24.24 20.87 -33.82 -83.8 59.85 -54.64 0 -0 -16.75 -63.23 -22.49 37.17 7.12 -0 -0 -51.98 -65.14 28.7
8.84 15.87 4.32 -172.56 -44.76 -177.28 0 0 0 -8.58 -33.95 -3.41 0.17 2.64 7.28 -0.46 16.5 -18.26 12.71 -18.67 -68.21 0 0 0 47.87 31.85 28.52 -0.32 3.62 -10.02 -12.58 -13.83 -71.45 -3.57 -11.57 34.22 0.34 1.31 4.69 1.26 1.4 -10.44 1.03 0.48 -14.07 -2.98 -4.78 -14.39 5.87 -10.94 34.92 0.86 -5.12 15.11 -0 0 0 -85.69 20.34 6.83 20.46 -31.19 -5.77 -0 -0 10.5 30.09 30.23 16.27 -7.12 0 -0 -1.39 63.94 -0.64 -0 0 0 26.81 18.11 -42.96 -67.77 58.05 -40.88 0 -0 -28.31 -64.34 -25.17 41.52 7.12 -0 -0 -60.11 -68.22 38.38
9.11 15.82 4.25 -171.61 -44.75 -178.24 0 0 0 -5.57 -31.99 -7.46 0.37 3.93 10.88 -0.44 15.03 -15.65 13.18 -18.85 -69.68 0 0 0 49.46 31.74 28.8 -0.38 3.97 -10.99 -12.58 -13.07 -71.3 -3.16 -10.95 32.12 1.03 1.36 4.92 1.42 1.59 -10.33 0.78 0.51 -14.08 -2.92 -4.79 -14.58 5.26 -10.65 34.88 0.65 -5.05 15.07 -0 -0 0 -85.82 20.47 7.96 20.3 -31 -5.68 -0 -0 9.33 29.51 32.92 17.1 -7.12 0 -0 -3.68 66.59 -1.92 -0 -0 0 31.47 10.57 -39.24 -55.72 55.06 -30.8 0 -0 -29.09 -63.3 -25.7 40.77 7.12 -0 -0 -58.1 -68.54 37.15
9.37 15.77 4.19 -170.89 -44.42 -178.96 0 0 0 -3.19 -30.61 -10.02 0.55 4.75 13.18 -0.35 13.99 -15.15 13.27 -18.88 -69.95 0 0 0 50.94 32.06 28.97 -0.41 4.1 -11.35 -12.38 -14.09 -70.99 -2.97 -10.65 31.12 1.46 1.36 5.32 1.74 1.67 -10.36 0.88 0.52 -14.36 -3.14 -4.41 -14.98 4.83 -9.74 34.9 0.66 -4.71 15.09 0 -0 0 -86.14 21.04 7.7 19.69 -30.26 -5.37 -0 -0 9.86 28.51 33.01 16.49 -7.12 0 -0 -5.07 66.39 -2.62 0 -0 0 38.25 2.47 -29.58 -48.25 52.27 -24.78 0 -0 -25.77 -58.07 -25.95 35.08 7.12 -0 -0 -44.64 -67.51 26.17
9.57 15.73 4.14 -170.68 -43.74 -179.33 0 0 0 -1.77 -30.09 -10.88 0.64 5.14 14.29 -0.21 13.25 -15.99 13.12 -18.82 -69.49 0 0 0 51.93 32.65 29.26 -0.42 4.14 -11.48 -12.03 -15.55 -70.41 -2.86 -10.46 30.48 2.11 1.59 5.45 1.87 2.09 -10.3 0.58 0.66 -14.36 -3.45 -4.33 -15.49 3.96 -9.04 34.81 0.48 -4.52 15.07 -0 0 0 -85.83 20.85 7.03 18.1 -28.28 -4.6 -0 -0 11.9 29.41 28.82 15.2 -7.12 0 -0 -1.59 62.25 -0.67 -0 0 0 46.31 -5.62 -18.78 -43.49 50.01 -21.08 0 -0 -19.92 -50.61 -25.7 27.84 7.12 -0 -0 -29.07 -64.89 14.56
9.74 15.71 4.11 -171.1 -42.79 -179.18 0 0 0 -1.45 -30.23 -10.69 0.69 5.29 14.75 -0.15 13.47 -17.23 13.05 -18.8 -69.27 0 0 0 52.51 33.51 29.64 -0.41 4.1 -11.35 -12.07 -15 -70.37 -3.11 -10.86 31.83 2.54 1.74 5.54 2.03 2.37 -10.25 0.48 0.75 -14.34 -3.33 -3.99 -15.79 2.43 -7.74 34.27 0.07 -4.11 14.73 -0 -0 0 -85.37 20.82 6.59 16.6 -26.33 -3.91 -0 -0 12.25 28.98 28.05 14.6 -7.12 0 -0 -1.78 61.32 -0.71 -0 -0 0 54.64 -11.06 -10.54 -37.99 46.83 -16.96 0 -0 -2.47 -37.56 -22.44 16.36 7.12 -0 -0 -9.77 -57.23 2.95
9.88 15.7 4.1 -172.09 -41.54 -178.54 0 0 0 -1.88 -30.16 -9.77 0.64 5.12 14.26 -0.11 13.93 -18.44 12.88 -18.74 -68.75 0 0 0 52.82 34.61 30.33 -0.4 4.05 -11.23 -12.05 -15.29 -70.4 -3.08 -10.82 31.69 2.83 1.96 5.53 2.07 2.71 -10.2 0.29 0.88 -14.27 -3.12 -3.62 -16.57 0.53 -6.4 34.27 -0.52 -3.73 14.75 0 -0 0 -84.82 20.87 6.32 15.89 -25.37 -3.6 -0 -0 13.01 28.79 28.89 14.87 -7.12 0 -0 -2.38 62.16 -0.99 0 -0 0 61.68 -14.23 -4.27 -30.27 41.12 -11.59 0 0 21.81 -32.04 -12.77 7.88 7.12 -0 -0 -4.43 -44.91 -0.01
9.97 15.7 4.11 -172.51 -40.03 -178.34 0 0 0 -1.97 -29.54 -8.26 0.51 4.59 12.74 -0.16 15.02 -19.48 12.76 -18.7 -68.39 0 0 0 53.43 35.99 30.92 -0.35 3.79 -10.49 -12.09 -14.88 -70.4 -3.2 -11.02 32.33 3.82 2.2 5.7 2.2 3.15 -10.17 -0.2 0.99 -14.3 -2.81 -3.22 -16.55 -1.01 -5.14 33.19 -0.93 -3.31 14.16 0 0 0 -84.21 20.95 6.47 15.93 -25.42 -3.61 -0 -0 12.96 28.55 28.89 14.73 -7.12 0 -0 -2.67 62.1 -1.11 0 0 0 65.68 -16.87 7.15 -24.6 35.79 -8.05 0 0 22.3 -26.02 -10.97 5.31 7.12 -0 -0 0.97 -42.16 0.07
10.03 15.71 4.15 -173.17 -38.65 -177.94 0 0 0 -2.25 -28.29 -7.69 0.45 4.31 11.95 -0.17 15.34 -19.91 12.7 -18.67 -68.2 0 0 0 53.55 37.1 31.73 -0.35 3.8 -10.51 -11.99 -15.21 -70.23 -3.31 -11.19 32.91 4.62 2.34 6.02 2.38 3.47 -10.22 -0.5 1.05 -14.52 -2.16 -2.62 -16.79 -2.81 -3.77 32.93 -1.53 -2.88 14.02 0 0 0 -83.69 20.94 8.19 16.53 -26.24 -3.88 -0 -0 12.24 30.04 30.02 16.13 -7.12 0 -0 -1.36 63.7 -0.62 0 0 0 65.19 -20.72 29.56 -23.09 34.18 -7.19 0 0 11.97 -24.92 -13.2 6.06 7.12 -0 -0 2.24 -44.47 0.03
10.06 15.71 4.18 -173.71 -37.99 -177.34 0 0 0 -2.32 -27.61 -7.87 0.42 4.15 11.51 -0.25 15.83 -19.76 12.74 -18.69 -68.32 0 0 0 53.61 37.76 32.12 -0.35 3.82 -10.58 -12.09 -14.7 -70.37 -3.39 -11.3 33.29 5.32 2.29 5.83 2.65 3.48 -10.15 -0.58 0.99 -14.31 -1.56 -2.26 -17.15 -4.01 -2.96 32.58 -1.98 -2.61 13.92 0 0 0 -83.67 20.53 9.55 17.76 -27.85 -4.44 -0 -0 11.38 29.37 29.39 15.44 -7.12 0 -0 -1.9 62.84 -0.82 0 0 0 63.15 -23.91 47.11 -24.7 35.9 -8.11 0 0 7.5 -23.61 -14.33 6.18 7.12 -0 -0 3.64 -45.53 -0.05
10.1 15.7 4.24 -174.17 -37.58 -176.71 0 0 0 -2.45 -27.76 -8.13 0.4 4.05 11.21 -0.18 15.78 -20.52 12.56 -18.62 -67.76 0 0 0 53.34 38.4 32.05 -0.36 3.83 -10.6 -12.1 -15.04 -70.47 -3.41 -11.33 33.38 5.84 2.08 5.71 2.97 3.26 -10.17 -0.47 0.84 -14.26 -1.39 -1.87 -17.42 -3.88 -2.45 32.47 -1.87 -2.34 13.94 -0 -0 0 -83.83 20.56 11.99 19.46 -29.98 -5.26 -0 -0 10.47 30.79 30.42 16.79 -7.12 0 -0 -0.58 64.33 -0.27 -0 -0 0 63.94 -25.63 50.65 -24.63 35.83 -8.07 0 0 3.12 -25.23 -15.31 7.09 7.12 -0 -0 2.29 -46.8 -0.1
10.13 15.7 4.28 -174.84 -37 -176.12 0 0 0 -2.96 -27.8 -7.83 0.36 3.84 10.64 -0.24 16.43 -20.78 12.56 -18.62 -67.75 0 0 0 53.13 38.98 32.32 -0.36 3.86 -10.68 -12.14 -14.94 -70.56 -3.4 -11.32 33.36 6.37 2.04 5.62 2.81 3.24 -10.15 -0.93 0.77 -14.14 -1.16 -1.89 -17.18 -3.44 -2.77 32.62 -1.79 -2.41 13.94 0 -0 0 -83.66 18.92 13.67 19.66 -30.23 -5.36 -0 -0 9.49 26.49 35.26 16.05 -7.12 0 -0 -9.55 68.06 -5.31 0 -0 0 68.15 -25.7 44.62 -21.28 32.15 -6.2 0 -0 -2.74 -26.64 -16.49 8.1 7.12 -0 -0 1.13 -48.3 -0.09
10.17 15.69 4.33 -175.38 -36.44 -175.52 0 0 0 -3.2 -27.68 -7.89 0.33 3.71 10.25 -0.24 16.61 -21.13 12.48 -18.59 -67.49 0 0 0 52.91 39.6 32.52 -0.37 3.9 -10.79 -12.12 -15.1 -70.53 -3.47 -11.42 33.71 6.05 1.92 5.5 3.28 3.05 -10.15 -0.19 0.73 -14.13 -1.15 -1.5 -17.55 -3.33 -2.32 33.43 -1.72 -2.24 14.4 -0 -0 0 -85.03 17.65 14.85 19.08 -29.51 -5.07 -0 -0 10.15 25.98 34.61 15.47 -7.12 0 -0 -9.64 67.26 -5.18 -0 -0 0 69.04 -24.97 42.88 -18.95 29.35 -5.01 0 -0 -7.95 -26.69 -22.4 10.84 7.12 -0 -0 2.4 -54.72 -0.57
10.21 15.7 4.38 -175.42 -36.04 -175.35 0 0 0 -3.18 -28.54 -7.5 0.31 3.6 9.95 -0.31 17.56 -21.96 12.53 -18.61 -67.65 0 0 0 53 39.98 32.71 -0.39 4 -11.08 -12.04 -15.85 -70.51 -3.37 -11.28 33.22 5.82 1.86 5.72 3.75 2.98 -10.12 0.46 0.74 -14.27 -1.01 -1.67 -17.56 -3.18 -2.66 33.17 -1.73 -2.33 14.28 0 -0 0 -85.6 17.35 17.66 19.32 -29.81 -5.19 -0 -0 11.48 25.91 33.27 14.92 -7.12 0 -0 -8.62 65.9 -4.36 0 -0 0 67.37 -24.76 46.32 -18.72 29.07 -4.89 0 -0 -4.89 -23.07 -21.34 8.81 7.12 -0 -0 5.84 -52.89 -1.14
10.24 15.69 4.42 -175.48 -35.95 -174.92 0 0 0 -2.79 -28.95 -8.56 0.36 3.83 10.61 -0.08 16.57 -22.73 12.29 -18.51 -66.9 0 0 0 52.56 40.43 32.26 -0.4 4.07 -11.28 -12.17 -15.01 -70.66 -3.57 -11.56 34.2 5.81 1.78 5.67 3.74 2.87 -10.1 0.48 0.69 -14.22 -0.79 -1.85 -17.45 -2.1 -3.26 32.37 -1.39 -2.37 13.91 -0 0 0 -85.38 16.32 19.03 18.87 -29.26 -4.97 -0 -0 12.86 24.83 32.09 13.81 -7.12 0 -0 -9.08 64.41 -4.28 -0 0 0 66.01 -24.84 48.29 -19.96 30.6 -5.51 0 -0 -1.27 -22.97 -19.1 7.9 7.12 -0 -0 5.29 -50.51 -0.72
10.29 15.67 4.46 -175.19 -35.93 -175.1 0 0 0 -2.1 -28.66 -9.71 0.43 4.23 11.71 0.04 15.55 -22.44 12.23 -18.49 -66.71 0 0 0 52.21 40.83 31.54 -0.39 3.99 -11.06 -12.03 -15.4 -70.37 -3.27 -11.13 32.71 5.68 1.62 5.8 3.77 2.68 -9.85 0.6 0.64 -14.01 -1.06 -2.13 -17.31 -0.45 -4.04 31.45 -0.79 -2.47 13.52 0 0 0 -85.07 14.71 18.9 18.33 -28.57 -4.71 -0 -0 12.22 30 29.36 15.81 -7.12 0 -0 -1.09 62.98 -0.48 0 0 0 66.14 -23.13 46.11 -20.06 30.72 -5.56 0 -0 -4.8 -23.92 -20.39 8.79 7.12 -0 -0 4.69 -52.05 -0.82
10.33 15.65 4.46 -174.27 -35.91 -175.71 0 0 0 -0.84 -28.31 -10.46 0.49 4.49 12.47 0.01 15.38 -21.9 12.38 -18.55 -67.18 0 0 0 52.46 41.16 30.9 -0.36 3.87 -10.71 -11.93 -15.12 -70.03 -3.36 -11.26 33.17 5.86 1.61 5.85 3.78 2.68 -9.76 0.51 0.63 -13.93 -0.59 -2.18 -17.73 -0.28 -4.39 31.95 -0.88 -2.55 13.82 0 -0 0 -85.2 14.3 18.09 17.68 -27.75 -4.4 -0 -0 12.63 26.27 32.54 14.87 -7.12 0 -0 -7.61 65.26 -3.74 0 -0 0 66.81 -21.07 43.88 -19.43 29.95 -5.25 0 -0 -7.85 -26 -21.8 10.27 7.12 -0 -0 2.96 -53.95 -0.65
10.36 15.62 4.45 -173.5 -36.14 -176.41 0 0 0 0.18 -27.81 -11.43 0.59 4.93 13.71 0.16 14.07 -21.69 12.22 -18.48 -66.68 0 0 0 53.12 40.74 31.06 -0.39 4.03 -11.17 -11.84 -15.48 -69.9 -3.29 -11.14 32.77 5.82 1.72 6 3.74 2.85 -9.8 0.45 0.71 -14.07 -1.08 -2.31 -17.6 -0.04 -4.76 33.29 -0.81 -2.8 14.41 0 -0 0 -85.38 14.75 18.38 17.48 -27.49 -4.31 -0 -0 12.4 27.25 32.62 15.52 -7.12 0 -0 -6.42 65.62 -3.21 0 -0 0 67.26 -20.21 42.99 -19.6 30.16 -5.33 0 -0 -6.51 -26.12 -20.72 9.84 7.12 -0 -0 2.54 -52.81 -0.49
10.38 15.61 4.43 -173.09 -36.36 -176.82 0 0 0 0.61 -28.09 -11.99 0.69 5.3 14.78 0 14.67 -20.88 12.45 -18.57 -67.4 0 0 0 53.52 40.34 31.23 -0.42 4.18 -11.59 -11.83 -15.55 -69.88 -3.21 -11.03 32.38 5.76 1.89 6.01 3.55 3.07 -9.85 0.24 0.81 -14.12 -1.47 -2.65 -17.38 -0.23 -5.25 34.2 -0.94 -3.13 14.79 -0 0 0 -86.03 15.47 17.1 17.42 -27.4 -4.28 -0 -0 13.1 26.37 32.79 15.03 -7.12 0 -0 -7.68 65.55 -3.82 -0 0 0 67.76 -19.7 43.58 -20.21 30.9 -5.64 0 -0 -6.72 -25.41 -17.97 8.34 7.12 -0 -0 2.61 -49.71 -0.3
10.38 15.61 4.4 -172.79 -36.62 -177.03 0 0 0 0.84 -28.62 -11.83 0.68 5.28 14.72 -0.12 15.41 -20.63 12.51 -18.6 -67.59 0 0 0 53.92 40 31.35 -0.44 4.25 -11.79 -11.76 -15.53 -69.7 -3.46 -11.41 33.68 5.83 2.04 5.82 3.27 3.24 -9.95 -0.14 0.86 -14.09 -1.88 -2.74 -17.12 -0.21 -5.38 34.8 -0.9 -3.27 15.02 0 -0 0 -86.39 16.28 15.66 17.12 -27.01 -4.14 -0 -0 13.22 27.72 31.09 15.18 -7.12 0 -0 -4.85 64.18 -2.26 0 -0 0 68.44 -19.54 44.54 -20.96 31.78 -6.03 0 -0 -7.02 -25.09 -19.52 8.89 7.12 -0 -0 3.29 -51.33 -0.51
10.39 15.61 4.37 -172.5 -37.05 -177.21 0 0 0 1.25 -28.66 -12.2 0.71 5.37 14.96 -0.16 15.42 -20.14 12.61 -18.64 -67.9 0 0 0 54.13 39.62 31.19 -0.45 4.29 -11.89 -11.77 -15.25 -69.65 -3.55 -11.53 34.09 6.1 2.19 5.97 2.84 3.47 -10.17 -0.8 0.9 -14.39 -2 -2.79 -16.98 -0.15 -5.53 35.22 -0.89 -3.36 15.2 0 0 0 -86.15 17.76 15.29 17.24 -27.18 -4.2 -0 -0 12.97 29.49 29.37 15.5 -7.12 0 -0 -1.74 62.85 -0.76 0 0 0 69.31 -19.68 45.64 -21.47 32.37 -6.3 0 -0 -6.73 -24.91 -19.4 8.77 7.12 -0 -0 3.44 -51.16 -0.52
10.39 15.62 4.35 -172.72 -37.47 -176.93 0 0 0 1 -29.53 -11.47 0.61 5.01 13.94 -0.23 16.04 -20.36 12.57 -18.62 -67.79 0 0 0 53.74 39.44 30.76 -0.44 4.28 -11.86 -11.72 -14.98 -69.45 -3.52 -11.5 33.98 5.52 2.18 5.77 2.78 3.36 -10.19 -0.52 0.91 -14.32 -1.81 -2.74 -16.83 -0.9 -5.16 34.87 -1.15 -3.27 14.96 0 0 0 -86.25 18.7 14.22 16.96 -26.8 -4.07 -0 -0 12.92 27.72 29.51 14.51 -7.12 0 -0 -3.98 62.53 -1.7 0 0 0 69.33 -19.37 47.14 -21.82 32.78 -6.49 0 -0 -6.37 -25.12 -19.5 8.89 7.12 -0 -0 3.26 -51.31 -0.51
10.39 15.62 4.32 -172.86 -38.07 -176.67 0 0 0 0.95 -29.79 -11.52 0.57 4.83 13.43 -0.36 16.7 -19.89 12.82 -18.72 -68.57 0 0 0 53.31 39.1 30.24 -0.45 4.31 -11.94 -11.69 -15.26 -69.45 -3.43 -11.36 33.51 5.15 2.11 5.83 2.77 3.23 -10.22 -0.3 0.89 -14.41 -2.23 -2.88 -16.69 -0.94 -5.08 34.17 -1.04 -3.26 14.62 -0 0 0 -86.18 19.02 13.25 16.34 -25.97 -3.79 -0 -0 14 28.45 29.47 14.92 -7.12 0 -0 -3.07 62.68 -1.32 -0 0 0 69.59 -19.07 47.33 -21.74 32.68 -6.44 0 -0 -6.62 -24.97 -19.62 8.89 7.12 -0 -0 3.43 -51.41 -0.54
10.4 15.63 4.31 -172.86 -38.72 -176.46 0 0 0 1.16 -30.18 -11.83 0.54 4.7 13.06 -0.31 16.4 -19.97 12.67 -18.66 -68.08 0 0 0 52.97 38.76 29.65 -0.45 4.32 -11.99 -11.73 -15.02 -69.48 -3.43 -11.36 33.5 4.88 2.05 6 2.89 3.14 -10.24 -0.02 0.89 -14.58 -1.94 -2.87 -16.86 -2.02 -4.74 34.19 -1.48 -3.23 14.62 0 0 0 -85.78 17.63 12.62 15.62 -25 -3.48 -0 -0 15.04 28.44 29.12 14.77 -7.12 0 -0 -2.91 62.31 -1.22 0 0 0 69.33 -19.03 47.7 -21.54 32.45 -6.34 0 -0 -6.73 -25.15 -20.11 9.17 7.12 -0 -0 3.37 -51.97 -0.58
10.4 15.64 4.31 -173.06 -39.25 -176.28 0 0 0 0.99 -30.56 -11.81 0.5 4.53 12.56 -0.46 17.01 -19.23 12.81 -18.71 -68.52 0 0 0 52.47 38.41 29.23 -0.47 4.41 -12.22 -11.7 -15.59 -69.55 -3.31 -11.17 32.87 4.68 2.05 6.24 2.91 3.15 -10.23 0.11 0.91 -14.73 -2.07 -2.86 -17.04 -2.11 -4.63 34.28 -1.48 -3.2 14.7 -0 -0 0 -85.59 17.47 13.11 16.3 -25.92 -3.77 -0 -0 13.81 29.11 29.55 15.36 -7.12 0 -0 -2.3 62.95 -1 -0 -0 0 69.2 -19 47.57 -20.96 31.79 -6.03 0 -0 -7.05 -25.6 -19.99 9.3 7.12 -0 -0 2.89 -51.93 -0.49
10.39 15.65 4.3 -173.14 -39.59 -176.05 0 0 0 0.97 -31.02 -11.57 0.44 4.24 11.76 -0.23 16.01 -20.33 12.4 -18.56 -67.26 0 0 0 52.2 38.3 28.85 -0.46 4.36 -12.09 -11.76 -15.18 -69.62 -3.32 -11.19 32.93 4.56 2.12 6.46 2.99 3.25 -10.32 0.24 0.97 -14.98 -2.14 -2.92 -16.95 -2.65 -4.51 34.28 -1.67 -3.24 14.67 0 -0 0 -85.42 17.34 14.55 17.22 -27.15 -4.19 -0 -0 12.63 28.98 30.53 15.72 -7.12 0 -0 -2.95 63.94 -1.35 0 -0 0 69 -19 47.26 -20.3 31 -5.68 0 -0 -6.89 -25.49 -20.48 9.47 7.12 -0 -0 3.12 -52.43 -0.57
10.38 15.66 4.3 -173.51 -39.94 -175.8 0 0 0 0.49 -31.08 -11.45 0.42 4.14 11.46 -0.56 17.48 -18.85 12.78 -18.7 -68.45 0 0 0 51.73 38.04 28.56 -0.46 4.34 -12.03 -11.8 -15 -69.67 -3.34 -11.23 33.07 4.47 2.08 6.63 2.91 3.2 -10.21 0.21 0.96 -14.96 -2.48 -2.87 -17 -2.18 -4.42 33.9 -1.38 -3.15 14.53 0 -0 0 -85.37 16.81 15.51 17.66 -27.72 -4.39 -0 -0 12.29 26.87 32.37 15.18 -7.12 0 -0 -6.74 65.26 -3.31 0 -0 0 69.02 -18.84 46.94 -19.89 30.51 -5.48 0 -0 -6.74 -25.17 -20.34 9.28 7.12 -0 -0 3.42 -52.22 -0.61
10.37 15.67 4.3 -173.54 -40.28 -175.65 0 0 0 0.45 -31.27 -11.42 0.38 3.95 10.94 -0.62 17.79 -18.58 12.81 -18.71 -68.52 0 0 0 51.44 37.84 28.26 -0.47 4.39 -12.18 -11.76 -15.43 -69.66 -3.21 -11.02 32.35 4.56 2.06 6.85 2.95 3.22 -10.27 0.19 0.96 -15.18 -2.08 -2.8 -17.03 -2.77 -4.23 33.9 -1.66 -3.1 14.51 0 0 0 -85.45 16.61 16.57 17.9 -28.03 -4.5 -0 -0 12.67 28.95 28.93 14.98 -7.12 0 -0 -2.2 62.24 -0.92 0 0 0 68.98 -18.85 47.11 -19.91 30.53 -5.48 0 -0 -7.19 -25.2 -20.47 9.35 7.12 -0 -0 3.42 -52.37 -0.62
10.36 15.67 4.3 -173.75 -40.42 -175.29 0 0 0 0.37 -31.75 -11.4 0.36 3.86 10.69 -0.36 16.75 -20.01 12.42 -18.56 -67.32 0 0 0 51.18 37.89 28.01 -0.46 4.37 -12.11 -11.81 -15.18 -69.74 -3.35 -11.25 33.11 4.75 2.06 6.86 2.83 3.23 -10.34 -0.04 0.93 -15.25 -2.04 -2.75 -17.02 -2.71 -4.19 33.94 -1.64 -3.07 14.52 0 0 0 -85.42 16.51 17.43 17.92 -28.05 -4.51 -0 -0 12.05 28.51 29.16 14.82 -7.12 0 -0 -2.85 62.38 -1.2 0 0 0 69.11 -19.02 47.09 -20.09 30.75 -5.58 0 -0 -7.15 -25.25 -20.32 9.3 7.12 -0 -0 3.33 -52.21 -0.59
