HIERARCHY
ROOT Hips
{
	OFFSET 0.00000 0.00000 0.00000
	CHANNELS 6 Xposition Yposition Zposition Zrotation Yrotation Xrotation 
	JOINT LHipJoint
	{
		OFFSET 0 0 0
		CHANNELS 3 Zrotation Yrotation Xrotation
		JOINT LeftUpLeg
		{
			OFFSET 1.57358 -1.76629 0.73362
			CHANNELS 3 Zrotation Yrotation Xrotation
			JOINT LeftLeg
			{
				OFFSET 2.40600 -6.61045 0.00000
				CHANNELS 3 Zrotation Yrotation Xrotation
				JOINT LeftFoot
				{
					OFFSET 2.66168 -7.31291 0.00000
					CHANNELS 3 Zrotation Yrotation Xrotation
					JOINT LeftToeBase
					{
						OFFSET 0.20870 -0.57341 2.12506
						CHANNELS 3 Zrotation Yrotation Xrotation
						End Site
						{
							OFFSET 0.00000 -0.00000 1.10557
						}
					}
				}
			}
		}
	}
	JOINT RHipJoint
	{
		OFFSET 0 0 0
		CHANNELS 3 Zrotation Yrotation Xrotation
		JOINT RightUpLeg
		{
			OFFSET -1.49299 -1.76629 0.73362
			CHANNELS 3 Zrotation Yrotation Xrotation
			JOINT RightLeg
			{
				OFFSET -2.43663 -6.69460 0.00000
				CHANNELS 3 Zrotation Yrotation Xrotation
				JOINT RightFoot
				{
					OFFSET -2.62959 -7.22474 0.00000
					CHANNELS 3 Zrotation Yrotation Xrotation
					JOINT RightToeBase
					{
						OFFSET -0.25784 -0.70841 2.21862
						CHANNELS 3 Zrotation Yrotation Xrotation
						End Site
						{
							OFFSET -0.00000 -0.00000 1.16452
						}
					}
				}
			}
		}
	}
	JOINT LowerBack
	{
		OFFSET 0 0 0
		CHANNELS 3 Zrotation Yrotation Xrotation
		JOINT Spine
		{
			OFFSET -0.00034 2.12399 -0.25450
			CHANNELS 3 Zrotation Yrotation Xrotation
			JOINT Spine1
			{
				OFFSET 0.05594 2.14379 -0.03318
				CHANNELS 3 Zrotation Yrotation Xrotation
				JOINT Neck
				{
					OFFSET 0 0 0
					CHANNELS 3 Zrotation Yrotation Xrotation
					JOINT Neck1
					{
						OFFSET -0.09835 1.62725 0.24211
						CHANNELS 3 Zrotation Yrotation Xrotation
						JOINT Head
						{
							OFFSET 0.10849 1.66041 -0.22648
							CHANNELS 3 Zrotation Yrotation Xrotation
							End Site
							{
								OFFSET 0.04385 1.68267 -0.10541
							}
						}
					}
				}
				JOINT LeftShoulder
				{
					OFFSET 0 0 0
					CHANNELS 3 Zrotation Yrotation Xrotation
					JOINT LeftArm
					{
						OFFSET 3.29108 0.79398 -0.68179
						CHANNELS 3 Zrotation Yrotation Xrotation
						JOINT LeftForeArm
						{
							OFFSET 5.15310 -0.00000 -0.00000
							CHANNELS 3 Zrotation Yrotation Xrotation
							JOINT LeftHand
							{
								OFFSET 3.75138 -0.00000 -0.00000
								CHANNELS 3 Zrotation Yrotation Xrotation
								JOINT LeftFingerBase
								{
									OFFSET 0 0 0
									CHANNELS 3 Zrotation Yrotation Xrotation
									JOINT LeftHandIndex1
									{
										OFFSET 0.52917 -0.00000 0.00000
										CHANNELS 3 Zrotation Yrotation Xrotation
										End Site
										{
											OFFSET 0.42663 -0.00000 0.00000
										}
									}
								}
								JOINT LThumb
								{
									OFFSET 0 0 0
									CHANNELS 3 Zrotation Yrotation Xrotation
									End Site
									{
										OFFSET 0.43315 -0.00000 0.43315
									}
								}
							}
						}
					}
				}
				JOINT RightShoulder
				{
					OFFSET 0 0 0
					CHANNELS 3 Zrotation Yrotation Xrotation
					JOINT RightArm
					{
						OFFSET -3.07414 1.06285 -0.44338
						CHANNELS 3 Zrotation Yrotation Xrotation
						JOINT RightForeArm
						{
							OFFSET -5.29613 -0.00000 0.00000
							CHANNELS 3 Zrotation Yrotation Xrotation
							JOINT RightHand
							{
								OFFSET -3.76144 -0.00000 -0.00000
								CHANNELS 3 Zrotation Yrotation Xrotation
								JOINT RightFingerBase
								{
									OFFSET 0 0 0
									CHANNELS 3 Zrotation Yrotation Xrotation
									JOINT RightHandIndex1
									{
										OFFSET -0.74732 -0.00000 0.00000
										CHANNELS 3 Zrotation Yrotation Xrotation
										End Site
										{
											OFFSET -0.60251 -0.00000 0.00000
										}
									}
								}
								JOINT RThumb
								{
									OFFSET 0 0 0
									CHANNELS 3 Zrotation Yrotation Xrotation
									End Site
									{
										OFFSET -0.61171 -0.00000 0.61171
									}
								}
							}
						}
					}
				}
			}
		}
	}
}
MOTION
Frames: 40
Frame Time: 0.0333332
0.93 17.77 -31.36 -2.82 1.42 5.32 0 0 0 -17.13 -9.73 -30.75 2.5 9.84 28.47 -0.07 -5.8 5.89 0 0.34 0.93 0 0 0 29.04 5.08 7.76 -9.27 -16.98 57.01 -0.47 -10.6 13.35 -0.04 -1.26 3.46 0.36 0.74 9.12 4.99 1.37 -1.41 4.87 0.77 -6.74 -12.13 -2.94 -6.73 6.22 -3.25 7.57 3.7 -1.67 3.66 -0 -0 0 -94.37 34.47 30.73 118.38 -56.73 -84.31 -0 0 -28.18 17.17 9.14 2.81 -7.12 0 -0 -8.49 39.41 1.18 -0 -0 0 77.84 -17.08 46.67 -138.41 48.98 -100.37 0 -0 -7.05 -17.15 21.03 -6.32 7.12 -0 -0 7.29 -8.21 6.22
0.92 17.35 -29.8 -1.8 1.8 3.82 0 0 0 -19.3 -9.03 -28.14 4.33 12.58 37.83 0.01 -8.95 -6.38 0.03 1.1 3.04 0 0 0 25.96 4.06 0.85 -14.3 -19.2 73.11 -0.34 -8.64 11.19 -0.05 -1.5 4.12 1.63 0.65 6.66 2.55 1.02 2.16 1.63 0.51 -1.53 -10.62 -3.88 -8.52 7.89 -4.56 5.55 3.87 -2.15 3.47 -0 -0 0 -88.19 26.25 34.87 121.38 -55.93 -86.8 -0 0 -27.61 15.5 8.43 2.33 -7.12 0 -0 -9.79 38.55 1.57 -0 -0 0 82.48 -14.34 43.93 -135.02 50.76 -97.78 0 -0 -7.01 -18.95 23.44 -7.78 7.12 -0 -0 6.32 -5.48 5.72
0.89 16.96 -28.37 0.89 1.97 3.93 0 0 0 -22.85 -9.68 -25.88 5.9 14.33 44.59 0.78 -6.59 -15.81 0 -0.27 -0.74 0 0 0 19.8 3.92 -10.05 -19.63 -20 88.93 -0.3 -4.51 9.73 -0.04 -1.34 3.69 -0.69 1.03 8.42 0.61 1.32 4.67 0.91 0.64 0.08 -8.81 -5.39 -19.05 8.9 -6.17 7.73 3.61 -2.59 5.98 0 0 0 -84.11 14.69 38.38 124.28 -55.06 -89.2 -0 0 -29.74 17.22 9.54 2.94 -7.12 0 -0 -8.52 39.82 1.1 0 0 0 86.48 -11.58 39.85 -131.4 52.41 -94.94 0 -0 -9.19 -18.56 24.12 -7.81 7.12 -0 -0 6.62 -4.84 6.08
0.86 16.64 -26.99 1.75 0.78 4.71 0 0 0 -24.19 -8.38 -22.37 6.53 14.92 47.06 1.65 -6.09 -23.1 0.03 -1.03 -2.83 0 0 0 16.03 5.69 -22.07 -23.62 -19.68 100.65 -0.25 -1.24 9.04 -0.16 -2.6 7.16 -3.35 1.18 12.81 0.93 1.16 2.16 2.68 0.63 -5 -9.28 -5.31 -18.94 8.41 -6.01 9.83 3.55 -2.56 6.62 0 -0 0 -85.02 10.72 39.05 127.86 -53.82 -92.1 -0 0 -31.98 19.19 12.29 4.24 -7.12 0 -0 -7.29 42.86 0.39 0 -0 0 86.38 -18.51 38.75 -127.44 53.98 -91.77 0 -0 -8.39 -19.13 22.98 -7.71 7.12 -0 -0 6.17 -5.93 5.53
0.85 16.57 -25.54 2.42 1.55 6.21 0 0 0 -25.57 -8.03 -17.12 6.21 14.63 45.81 2.07 -5.39 -26.02 0.11 -2.15 -5.91 0 0 0 13.09 4.75 -33.97 -25.16 -19.35 105.24 -0.13 1.76 7.62 -0.07 1.73 -4.75 -4.13 0.11 12.12 0.88 -0.34 1.73 3.32 -0.08 -4.95 -9.49 -5 -20.24 8.7 -5.55 11.16 3.73 -2.29 7.23 0 -0 0 -86.58 5.33 37.24 131.21 -52.49 -94.79 -0 0 -28.66 17.62 8.82 2.79 -7.12 0 -0 -8.05 39.1 1.18 0 -0 0 86.37 -22.41 38.8 -126.49 54.32 -91 0 -0 -6.54 -18.37 22.4 -7.21 7.12 -0 -0 6.6 -6.63 5.84
0.85 16.81 -24.01 2.85 3.22 7.68 0 0 0 -26.56 -8.45 -10.24 5.08 13.47 41.16 1.54 -4.44 -22.47 0.66 -5.21 -14.52 0 0 0 12.37 3.21 -43.08 -24 -19.61 101.75 -0.02 3.4 5.71 -0.01 -0.69 1.89 -4.26 -1.67 11.48 1.28 -2.68 1.37 4.16 -1.23 -4.74 -9.01 -4.08 -21.14 7.86 -4.21 10.99 3.54 -1.69 7.16 0 -0 0 -88.59 2.18 34.36 135.49 -50.52 -98.14 -0 0 -27.87 16.76 8.66 2.6 -7.12 0 -0 -8.76 38.87 1.33 0 -0 0 85.13 -25.57 40.57 -128.58 53.55 -92.69 0 -0 -7.85 -16.75 23.51 -6.85 7.12 -0 -0 7.69 -5.73 6.95
0.81 17.22 -22.4 2.73 2.34 8.39 0 0 0 -26.61 -6.01 -3.62 3.92 12.05 35.9 0.53 -4.29 -12.93 1.72 -8.25 -23.49 0 0 0 13.56 5.6 -47.18 -20.46 -19.99 91.36 0.04 3.87 3.49 -0.01 0.78 -2.15 -4.83 -2.29 11.3 1.95 -3.54 1.03 5.31 -1.63 -4.84 -8.63 -3.41 -22.03 7.27 -3.22 10.68 3.4 -1.23 7.1 -0 -0 0 -89.36 1.57 32.96 137.19 -49.65 -99.45 -0 0 -29.41 17.35 8.12 2.53 -7.12 0 -0 -8.17 38.36 1.35 -0 -0 0 84.19 -28.7 41.32 -130.61 52.75 -94.31 0 -0 -8.88 -17.48 23.98 -7.29 7.12 -0 -0 7.27 -5.15 6.64
0.75 17.67 -20.69 2.62 0.45 8.93 0 0 0 -25.96 -2.02 1.58 2.7 10.19 29.59 -0.01 -3.3 4.24 1.6 -7.97 -22.63 0 0 0 14.79 9.08 -47.28 -15.22 -19.44 75.91 0.05 3.81 1.99 -0.08 1.83 -5.03 -5.27 -2.48 10.69 2.37 -3.79 0.67 6.02 -1.74 -4.78 -8.32 -3.05 -22.63 7.02 -2.74 10.71 3.32 -1 7.16 0 -0 0 -89.05 2.59 32.28 135.67 -50.44 -98.28 -0 0 -30.4 16.09 9.54 2.74 -7.12 0 -0 -9.49 39.73 1.25 0 -0 0 84.36 -31.44 40.86 -131.5 52.37 -95.02 0 -0 -9.78 -16.72 24.26 -7.04 7.12 -0 -0 7.76 -4.98 7.13
0.72 18.04 -18.92 2.41 -1.53 9.4 0 0 0 -25.8 -0.98 7.17 1.75 8.33 23.74 1.38 3.81 21.29 0.31 -3.6 -9.96 0 0 0 16.06 11.05 -44.77 -9.47 -17.1 57.71 0.05 4.12 2.46 -0.3 3.53 -9.76 -4.94 -2.36 9.45 2.59 -3.54 0.38 5.96 -1.63 -4.44 -8.28 -2.71 -22.9 6.95 -2.26 10.7 3.36 -0.77 7.16 -0 0 0 -87.88 4.24 32.96 131.3 -52.46 -94.86 -0 0 -30.51 17.04 8.2 2.5 -7.12 0 -0 -8.45 38.42 1.38 -0 0 0 85.24 -34.08 39.55 -132.84 51.78 -96.08 0 -0 -9.46 -16.56 24.13 -6.93 7.12 -0 -0 7.85 -5.13 7.18
0.72 18.3 -17.16 2.69 -2.34 9.96 0 0 0 -26.66 -1.86 10.88 1.73 8.28 23.56 1.65 3.11 23.47 0.28 -3.38 -9.34 0 0 0 16.8 11.12 -40.89 -4.61 -12.93 39.1 0.04 4.41 4.11 -0.32 3.66 -10.11 -4.34 -2.41 8.45 2.55 -3.52 -0.05 5.53 -1.62 -4.37 -8.19 -2.71 -22.65 6.71 -2.27 10.81 3.26 -0.8 7.15 0 -0 0 -86.46 6.46 34.57 126.44 -54.33 -90.96 -0 0 -29.81 17.56 8.14 2.56 -7.12 0 -0 -8 38.4 1.31 0 -0 0 86.04 -35.92 38.44 -134.78 50.88 -97.59 0 -0 -8.7 -17.14 24.39 -7.26 7.12 -0 -0 7.51 -4.78 6.92
0.68 18.38 -15.45 4.65 -2.62 9.72 0 0 0 -28.65 -1.66 12.32 2.52 9.88 28.57 1.26 1.73 20.74 0.31 -3.57 -9.88 0 0 0 15.86 10.15 -35.78 -1.82 -8.47 24.15 -0.03 0.31 3.55 -0.56 4.8 -13.34 -7.88 -4.42 9.32 4.48 -6.56 -1.89 10.13 -2.89 -5.82 -11.94 -0.76 -17.38 6.24 0.93 10.08 4.02 0.48 5.79 -0 0 0 -91.39 12.53 29.81 123.19 -55.4 -88.3 -0 0 -28.41 18.14 8.46 2.76 -7.12 0 -0 -7.55 38.78 1.17 -0 0 0 76.41 -38.06 46.54 -136.37 50.08 -98.82 0 -0 -8.58 -15.45 25.51 -6.79 7.12 -0 -0 8.62 -3.89 8.11
0.64 18.32 -13.76 5.15 -2.41 9.03 0 0 0 -28.74 -2.24 11.35 4.45 12.73 38.38 0.99 -0.19 18.88 0.21 -2.98 -8.23 0 0 0 15.74 11.08 -30.6 -0.92 -6.1 17.06 0.02 -7.27 4.55 -0.47 4.42 -12.25 -5.37 -2.47 9.01 1.88 -3.75 -0.05 5.47 -1.71 -4.64 -8.17 -3.06 -21.14 6.17 -2.75 9.97 3.01 -1.1 6.66 0 -0 0 -84.57 10.55 37.24 117.35 -56.98 -83.45 -0 0 -28.29 17.25 9.08 2.8 -7.12 0 -0 -8.41 39.34 1.18 0 -0 0 86.77 -34.41 37.75 -136.16 50.19 -98.65 0 -0 -6.33 -16.43 25.95 -7.35 7.12 -0 -0 8.06 -3.3 7.66
0.62 18.03 -12.08 3.83 -2.94 7.81 0 0 0 -26.79 -2.02 8.09 8.02 16.13 52.62 1.29 -1.96 22.23 0.03 1.11 3.06 0 0 0 18.57 10.73 -27.62 -1.18 -6.89 19.4 -0.05 -6.43 5.7 -0.01 -0.46 1.26 -3.86 -2.33 9.71 2.62 -3.4 0.59 5.37 -1.58 -4.44 -8.9 -3.03 -21.67 5.7 -2.38 10.04 3.02 -0.99 6.74 0 0 0 -85.36 12.49 36.76 112.1 -58.07 -79.01 -0 0 -27.91 17.05 9 2.75 -7.12 0 -0 -8.57 39.25 1.22 0 0 0 84.84 -30.41 39.05 -134.83 50.85 -97.63 0 -0 -6.12 -16.62 26.07 -7.47 7.12 -0 -0 7.96 -3.16 7.58
0.56 17.57 -10.52 2.62 -3.16 6.92 0 0 0 -23.84 -2.52 1.55 13.25 18.87 69.9 1.15 -0.61 20.49 0.01 0.59 1.63 0 0 0 21.01 10.96 -26.71 -2.83 -10.41 30.31 -0.03 -3.7 -6.29 -0.01 -0.55 1.52 -2.7 -1.99 11.19 2.99 -2.81 0.8 5.1 -1.29 -5.15 -8.85 -3.06 -21.1 5.46 -2.45 9.92 2.92 -1.05 6.61 -0 0 0 -85.42 14.97 36.06 107.02 -58.88 -74.69 -0 0 -27.97 18.01 9.4 3.04 -7.12 0 -0 -7.82 39.73 1.02 -0 0 0 83.96 -25.71 40.02 -133.35 51.55 -96.48 0 -0 -8.1 -15.87 24.71 -6.78 7.12 -0 -0 8.31 -4.64 7.7
0.5 17.14 -8.96 -0.6 -3.79 5.93 0 0 0 -17.37 -2.08 -6.39 18.72 19.96 86.26 0.85 -1.76 18.11 0.07 -1.7 -4.66 0 0 0 25.64 12.64 -23.05 -4.46 -12.75 38.45 -0.34 -6.67 -15.46 -0.14 2.4 -6.61 0.33 -1.34 13.09 3.98 -1.48 1.48 4.28 -0.7 -5.68 -8.21 -3.12 -22.52 4.26 -2.41 10.38 2.42 -1.1 6.96 0 -0 0 -86.41 16.46 34.79 101.33 -59.51 -69.79 -0 0 -28.86 19.06 13.23 4.52 -7.12 0 -0 -7.6 43.81 0.22 0 -0 0 83.06 -18.7 41.07 -131.95 52.18 -95.38 0 -0 -8.95 -16.54 24.18 -6.94 7.12 -0 -0 7.86 -5.08 7.21
0.49 16.89 -7.49 -3.05 -3.73 6.95 0 0 0 -11.16 -2.71 -18.65 23.11 19.77 99.11 0.56 -4.33 16.37 0.04 -1.29 -3.54 0 0 0 29.11 10.29 -19.6 -4.87 -13.24 40.27 -0.92 -6.53 -21.65 -0.12 2.27 -6.24 2.62 -0.88 13.44 4.98 -0.47 1.44 3.88 -0.24 -6.01 -7.72 -2.84 -23.73 3.43 -1.95 10.87 2.12 -0.94 7.27 0 -0 0 -88.29 18.85 33.08 98.91 -59.7 -67.71 -0 0 -28.47 19.11 12.07 4.14 -7.12 0 -0 -7.32 42.61 0.43 0 -0 0 81.17 -10.3 43.02 -130.77 52.68 -94.44 0 -0 -8.23 -16.05 24.28 -6.75 7.12 -0 -0 8.17 -5.05 7.5
0.48 16.97 -5.95 -3.18 -3.63 8.09 0 0 0 -8.95 -3.37 -30.32 24.84 19.43 104.3 0.34 -5.1 14.15 0.08 -1.82 -5 0 0 0 29.43 6.66 -13.96 -4.15 -12.36 37.03 -1.14 -5.32 -22.76 -0.28 3.43 -9.47 2.97 0.28 13.15 4.9 1.14 0.92 3.31 0.54 -6.46 -8.04 -3.54 -23.36 4.01 -2.92 11 2.24 -1.36 7.32 -0 0 0 -88.09 22.15 35.14 102.96 -59.36 -71.2 -0 0 -27.77 19.62 9.34 3.31 -7.12 0 -0 -6.41 39.8 0.82 -0 0 0 82.34 -7.72 41.64 -136.28 50.12 -98.75 0 -0 -8.19 -15.78 26.55 -7.2 7.12 -0 -0 8.5 -2.8 8.17
0.5 17.16 -4.36 -4.75 -3.46 8.72 0 0 0 -6.95 -3.43 -38.77 24.41 19.53 103.01 -0.06 -6.76 7.92 0.28 -3.42 -9.45 0 0 0 31.08 4.7 -6.13 -3.21 -11.03 32.37 -0.79 -4.54 -19.02 -1.24 7.05 -19.86 5.3 1.57 12.6 4.85 3.16 0.56 1.58 1.46 -6.48 -8.68 -4.5 -22.79 5.24 -4.27 10.98 2.58 -1.92 7.35 0 -0 0 -87 25.08 38.17 109.76 -58.47 -77.03 -0 0 -28.97 17.5 9.98 3.13 -7.12 0 -0 -8.35 40.3 0.98 0 -0 0 83.86 -6.88 40.34 -142 46.84 -103.04 0 -0 -11.46 -16.75 26.8 -7.73 7.12 -0 -0 7.94 -2.4 7.68
0.56 17.62 -2.63 -4.95 -2.48 9.05 0 0 0 -8.3 -5.96 -43.5 21.16 19.97 93.38 -0.07 -5.01 3.66 0.51 -4.6 -12.76 0 0 0 30.57 2.12 0.92 -2.18 -9.22 26.5 -0.03 -4.31 -7.08 -1.28 7.16 -20.18 6.83 2.28 11.55 4.37 4.2 0.21 0.08 1.92 -6.11 -8.64 -5.04 -22.89 5.56 -5.08 11.63 2.57 -2.28 7.65 0 -0 0 -86.94 27.82 39.06 112.82 -57.94 -79.63 -0 0 -29.09 15.51 9.22 2.55 -7.12 0 -0 -9.93 39.36 1.4 0 -0 0 84.64 -6.61 40.31 -144.35 45.27 -104.73 0 -0 -10.64 -16.86 28.29 -8.17 7.12 -0 -0 8.01 -0.88 7.96
0.62 18 -0.82 -4.09 -0.86 8.69 0 0 0 -10.86 -8.63 -43.99 16.35 19.68 79.26 -0.05 -4.03 0.66 0.33 -3.67 -10.14 0 0 0 28.38 -1.73 7.29 -1.26 -7.12 20.08 -0.31 -5.83 10.14 -0.89 6.02 -16.85 7.3 2.37 10.89 3.75 4.34 -0.47 -0.83 1.94 -6.38 -8.97 -5.14 -22.02 6 -5.3 12.36 2.76 -2.37 7.8 0 0 0 -87.93 31.26 37.94 114.04 -57.7 -80.66 -0 0 -29.69 13.19 9.56 2.23 -7.12 0 -0 -11.98 39.52 1.65 0 0 0 84.62 -7.86 41.12 -143.82 45.64 -104.35 0 -0 -6.58 -17.75 28.67 -8.73 7.12 -0 -0 7.52 -0.35 7.54
0.66 18.3 1.03 -3.41 0.13 8.51 0 0 0 -13.13 -9.66 -42.15 10.76 17.82 62 -0.05 -4.4 0.05 0.33 -3.67 -10.16 0 0 0 26.45 -3.43 13.62 -0.69 -5.31 14.81 -1.55 -11.07 22.47 -0.02 1.02 -2.8 7.12 2.69 9.06 3.35 4.55 -0.68 -1.09 2.08 -5.53 -9.28 -5.33 -21.44 6.48 -5.65 13.19 2.93 -2.52 8.03 0 0 0 -88.45 33.99 37.03 115.98 -57.29 -82.3 -0 0 -30.3 24.46 16.99 7.57 -7.12 0 -0 -3.34 48.5 -0.29 0 0 0 84.19 -9.47 41.71 -142.16 46.74 -103.15 0 -0 -3.57 -17.58 27.1 -8.21 7.12 -0 -0 7.47 -1.96 7.27
0.68 18.46 2.86 -3.37 0.92 8.72 0 0 0 -13.8 -11.19 -39.24 5.76 14.19 44.01 -0.05 -4.31 3.01 0.65 -5.14 -14.32 0 0 0 26.99 -1.41 17.84 -0.81 -5.74 16.04 -1.76 -14.02 24.29 -0.09 -1.97 5.42 7.15 3 7.77 3.21 4.85 -0.99 -1.21 2.23 -5.1 -10.01 -5.74 -21.76 6.89 -6.09 14.36 3.12 -2.72 8.56 -0 0 0 -87.86 35.51 37.19 118.67 -56.65 -84.55 -0 0 -30.24 15.68 7.3 2.04 -7.12 0 -0 -9.46 37.41 1.79 -0 0 0 83.31 -10.96 42.73 -140.45 47.8 -101.89 0 -0 -4.55 -18.06 26.95 -8.41 7.12 -0 -0 7.17 -2.03 6.97
0.67 18.43 4.61 -4.32 1.11 8.48 0 0 0 -12.75 -12.01 -36.29 2.89 10.52 30.66 0.04 -1.31 4.6 0.89 -6.03 -16.86 0 0 0 29.36 1.61 19.39 -1.73 -8.28 23.58 -1.06 -9.28 18.53 -0.02 -1 2.75 7.38 3.2 7.54 3.44 5.13 -1.01 -1.12 2.37 -4.97 -10.25 -5.87 -21.71 7.28 -6.28 14.46 3.27 -2.78 8.62 0 -0 0 -87.42 35.4 37.43 120.58 -56.15 -86.14 -0 0 -28.54 17.44 11.28 3.51 -7.12 0 -0 -8.65 41.63 0.73 0 -0 0 82.51 -11.62 44.16 -138.21 49.09 -100.22 0 -0 -5.93 -19.96 23.29 -8.17 7.12 -0 -0 5.68 -5.47 5.14
0.63 18.23 6.35 -4.54 1.3 7.84 0 0 0 -12.76 -11.7 -34.29 2.03 8.94 25.6 0.08 0.36 5.32 0.71 -5.39 -15.04 0 0 0 30.74 3.67 17.07 -4.1 -12.29 36.76 -0.79 -1.66 16.32 -0.09 -1.95 5.35 6.56 2.9 7.32 3.43 4.59 -0.53 -0.59 2.16 -4.43 -10.08 -5.47 -22.09 8.1 -5.88 13.79 3.58 -2.49 8.44 0 0 0 -86.69 34.52 37.37 123.25 -55.38 -88.35 -0 0 -28.43 15.39 6.09 1.67 -7.12 0 -0 -9.51 36.16 2.09 0 0 0 82.35 -10.94 45.62 -134.05 51.23 -97.02 0 -0 -6.51 -18.46 23.87 -7.69 7.12 -0 -0 6.65 -5.11 6.08
0.58 17.78 8.03 -3.5 2 5.67 0 0 0 -14.85 -10.14 -32.01 2.49 9.81 28.37 -0.04 -5.77 7.03 0.26 -3.29 -9.08 0 0 0 29.51 2.59 12.9 -8.24 -16.29 53.42 -0.63 2.44 16.11 -0 -0.23 0.62 4.57 2.32 8.8 3.14 3.71 0.05 0.24 1.76 -4.8 -9.96 -5.24 -21.11 8.5 -5.74 13.15 3.72 -2.4 8.06 0 0 0 -85.49 32.78 38.33 124.33 -55.04 -89.24 -0 0 -28.09 15.78 6.52 1.84 -7.12 0 -0 -9.25 36.61 1.93 0 0 0 83.24 -11.86 45.33 -128.49 53.59 -92.61 0 -0 -6.49 -17.53 25.67 -7.79 7.12 -0 -0 7.37 -3.42 6.98
0.52 17.23 9.69 -2.98 2.66 4.03 0 0 0 -15.76 -9.42 -30.81 4.54 12.84 38.79 -0.52 -14.55 -2.35 0 -0.19 -0.53 0 0 0 27.71 1.15 5.92 -13.79 -19.05 71.57 -0.32 0.86 11 -0.05 1.49 -4.11 2.88 1.55 10.43 2.95 2.58 0.34 1.08 1.23 -5.51 -10.06 -4.81 -20.42 9.44 -5.35 13.01 4.12 -2.15 7.9 0 0 0 -83.99 30.73 39.56 127.23 -54.05 -91.6 -0 0 -27.82 17.96 7.91 2.55 -7.12 0 -0 -7.62 38.19 1.29 0 0 0 84.75 -13.17 44.53 -121.68 55.85 -87.05 0 -0 -5.78 -17.92 24.05 -7.51 7.12 -0 -0 7 -5.01 6.41
0.51 16.81 11.26 1.79 1.64 3.03 0 0 0 -22.38 -8.78 -25.62 5.83 14.26 44.28 0.63 -10.54 -14.91 0.03 -1.17 -3.22 0 0 0 18.79 0.83 -3.32 -19.74 -20 89.23 -0.19 0.62 8.38 -0.41 4.1 -11.35 -2.82 1.31 11.66 1.51 1.46 1.44 2.95 0.79 -5.14 -9.36 -4.65 -21.79 9.35 -5.16 12.33 3.98 -2 7.86 0 -0 0 -83.56 23.66 39.83 126.03 -54.48 -90.62 -0 0 -28.2 18.25 8.91 2.92 -7.12 0 -0 -7.53 39.24 1.07 0 -0 0 87.29 -13.38 41.44 -109.36 58.54 -76.68 0 -0 -5.81 -18.87 26 -8.52 7.12 -0 -0 6.59 -2.87 6.29
0.5 16.58 12.74 3.02 -0.38 3.57 0 0 0 -24.72 -8 -20.12 6.09 14.51 45.34 1.57 -6.7 -22.43 0.16 -2.58 -7.12 0 0 0 14.5 3.35 -15.56 -24.12 -19.59 102.12 -0.12 0.69 6.96 -0.01 0.6 -1.64 -3.74 1.28 11.9 0.33 1.22 1.2 2.25 0.69 -5.51 -9.47 -4.73 -21.34 10.6 -5.49 12.14 4.39 -2.05 7.8 -0 0 0 -81.67 16.56 40.58 123.09 -55.43 -88.21 -0 0 -28.9 20.15 13.6 4.93 -7.12 0 -0 -6.68 44.33 0.11 -0 0 0 90.36 -16.35 37.64 -99.32 59.67 -68.06 0 -0 -7.86 -19.43 24.73 -8.4 7.12 -0 -0 6.13 -4.08 5.71
0.48 16.61 14.24 3.12 -1.27 4.73 0 0 0 -25.72 -6.81 -14.43 5.66 14.1 43.62 1.79 -4.79 -24.23 0.6 -4.97 -13.81 0 0 0 12.8 5.21 -27.92 -25.68 -19.21 106.83 -0.03 1.96 4.72 -0.11 2.17 -5.98 -4.36 0.51 11.2 0.61 0.16 1.03 3.07 0.18 -5.22 -9.44 -4.43 -22.11 9.99 -4.91 12.18 4.25 -1.81 7.86 0 0 0 -83.38 11.03 38.73 124.01 -55.14 -88.98 -0 0 -26 20.54 11.17 4.15 -7.12 0 -0 -5.89 41.82 0.46 0 0 0 89.46 -20.09 37.26 -101.66 59.48 -70.08 0 -0 -8.82 -17.16 25.3 -7.52 7.12 -0 -0 7.57 -3.85 7.1
0.46 16.87 15.82 3.25 -1.78 5.34 0 0 0 -26.97 -6.21 -7.21 4.72 13.06 39.59 1.18 -3.79 -19.66 1.11 -6.68 -18.78 0 0 0 12.42 7.32 -36.56 -24.47 -19.51 103.17 0.05 4.19 2.92 -0.07 1.71 -4.71 -4.78 -0.83 10.94 0.94 -1.64 0.6 3.94 -0.68 -5.35 -8.67 -3.42 -22.07 9.03 -3.59 11.88 3.97 -1.24 7.58 0 -0 0 -85.07 9.11 35.87 127.52 -53.95 -91.84 -0 0 -27.71 20.45 7.73 2.87 -7.12 0 -0 -5.48 38.17 0.93 0 -0 0 86.44 -23.43 40.2 -106.35 58.97 -74.11 0 -0 -11.09 -15.1 25.81 -6.7 7.12 -0 -0 8.86 -3.65 8.38
0.4 17.24 17.53 3.64 -3.38 4.87 0 0 0 -28.02 -2.79 0.87 3.46 11.41 33.68 0.28 -3.47 -9.35 2.02 -8.9 -25.48 0 0 0 12.81 10.51 -39.61 -20.89 -19.98 92.6 0.14 6.77 0.47 -0.28 3.41 -9.41 -5.79 -1.62 10.59 1.24 -2.78 0.34 4.98 -1.21 -5.24 -8.3 -2.71 -21.86 8.67 -2.71 12.3 3.91 -0.85 7.59 -0 0 0 -85.37 9.27 34 130.63 -52.74 -94.33 -0 0 -29.57 19.91 10.69 3.84 -7.12 0 -0 -6.37 41.25 0.59 -0 0 0 83.77 -27.19 42.06 -110.86 58.29 -77.96 0 -0 -12.13 -13.83 25.91 -6.14 7.12 -0 -0 9.63 -3.72 9.12
0.31 17.62 19.23 2.41 -4.88 5.71 0 0 0 -26.44 -0.65 4.94 2.69 10.17 29.54 0.13 -1.19 7.43 1.94 -8.74 -24.99 0 0 0 14.86 14.44 -41.09 -15.63 -19.54 77.14 0.1 5.79 0.12 -0.21 2.93 -8.09 -5.21 -2.09 9.72 2.01 -3.27 -0.43 5.52 -1.44 -5.5 -8.09 -2.55 -22.02 8.16 -2.5 13.41 3.74 -0.78 7.95 0 -0 0 -84.25 9.97 34.27 131.09 -52.55 -94.69 -0 0 -29.86 20.78 11.29 4.25 -7.12 0 -0 -5.7 41.97 0.43 0 -0 0 82.58 -30.49 41.68 -113.32 57.84 -80.05 0 -0 -12.04 -14 25.98 -6.23 7.12 -0 -0 9.53 -3.63 9.04
0.24 17.93 21.06 1.65 -6.32 6.11 0 0 0 -26.32 -0.65 11.6 1.67 8.14 23.14 1.43 4.41 21.59 0.6 -4.95 -13.76 0 0 0 16.11 16.06 -39.19 -9.66 -17.21 58.34 0.06 4.73 -0.24 -0.3 3.53 -9.77 -4.35 -2.49 9.27 2.44 -3.67 -1.4 5.54 -1.6 -6.24 -8.12 -2.46 -22.15 7.89 -2.37 14.38 3.69 -0.75 8.28 -0 -0 0 -82.13 11.56 35.37 130.36 -52.85 -94.12 -0 0 -28.86 21.31 10.22 3.96 -7.12 0 -0 -5.07 40.88 0.52 -0 -0 0 81.91 -33.88 40.79 -116.06 57.27 -82.36 0 -0 -12.48 -14.45 25.49 -6.33 7.12 -0 -0 9.23 -4.06 8.67
0.17 18.14 22.84 1.93 -7.72 6.87 0 0 0 -27.67 -0.74 14.83 1.62 8.03 22.79 2 4.06 25.75 0.2 -2.89 -7.98 0 0 0 15.76 17.88 -35.93 -4.51 -12.81 38.66 0.01 2.99 3.7 -0.33 3.69 -10.22 -4.6 -2.53 7.26 2.6 -3.67 -1.22 5.72 -1.65 -4.89 -8.16 -2.52 -22.77 7.43 -2.27 14.02 3.54 -0.74 8.25 -0 0 0 -80.57 11.28 36.52 129.24 -53.3 -93.22 -0 0 -27.73 18.87 9.91 3.37 -7.12 0 -0 -7.15 40.34 0.83 -0 0 0 82.45 -34.06 38.47 -119.39 56.47 -85.15 0 -0 -11.61 -14.55 25.33 -6.34 7.12 -0 -0 9.16 -4.2 8.57
0.1 18.16 24.52 3.13 -8.03 6.9 0 0 0 -29.62 -1.52 16.1 2.36 9.57 27.61 1.08 4.53 18.69 0.06 -1.58 -4.35 0 0 0 14.73 18.16 -31.93 -1.68 -8.17 23.24 -0.05 -0.48 4.24 -0.88 5.98 -16.72 -5.46 -2.69 7.71 2.34 -4 -1.48 6 -1.77 -5.34 -8.43 -2.82 -23.32 7.51 -2.54 13.44 3.57 -0.86 8.17 0 -0 0 -79.86 11.68 37.02 128.07 -53.75 -92.28 -0 0 -27.56 17.7 8.9 2.83 -7.12 0 -0 -8 39.19 1.15 0 -0 0 83.62 -34.16 36.68 -122.92 55.48 -88.08 0 -0 -9.77 -14.9 26.04 -6.66 7.12 -0 -0 8.99 -3.44 8.54
0.05 17.93 26.23 3.45 -7.98 5.64 0 0 0 -30.36 -1.94 16.16 4.12 12.31 36.85 0.99 2.1 18.24 0.06 -1.57 -4.31 0 0 0 15.59 16.61 -29.12 -1.2 -6.96 19.58 -0.1 -1.55 5.51 -0.91 6.09 -17.05 -4.98 -2.76 7.77 2.1 -4.05 -0.53 5.44 -1.87 -4.42 -8.43 -2.82 -23.14 7.19 -2.42 11.57 3.45 -0.83 7.5 0 0 0 -79.98 10.92 36.87 125.44 -54.68 -90.14 -0 0 -27.44 18.25 8.9 2.92 -7.12 0 -0 -7.53 39.24 1.08 0 0 0 84.67 -31.58 35.49 -124.42 55.01 -89.31 0 -0 -8.26 -15.8 25.76 -7.01 7.12 -0 -0 8.43 -3.59 7.97
-0.01 17.51 27.87 2.56 -8.58 3.81 0 0 0 -28.77 -0.7 12.28 7.64 15.85 51.27 1.34 -2.81 23.08 0 0.18 0.49 0 0 0 18.41 14.23 -27.75 -1.85 -8.54 24.38 -0.14 1.52 7.71 -0.02 0.83 -2.29 -3.74 -2.29 9.19 2.23 -3.34 0.09 4.87 -1.54 -4.71 -8.83 -2.95 -22.11 6.87 -2.48 10.92 3.39 -0.92 7.12 -0 0 0 -81.08 11.02 36.47 121.04 -56.03 -86.53 -0 0 -26.88 19.03 8.7 2.99 -7.12 0 -0 -6.82 39.09 1 -0 0 0 85.48 -28.39 34.84 -124.22 55.07 -89.15 0 -0 -7.72 -17.01 26.05 -7.65 7.12 -0 -0 7.72 -3.12 7.36
-0.11 16.97 29.51 2 -8.66 2.09 0 0 0 -25.8 0.41 6.21 12.63 18.64 67.96 1.61 -1.99 24.75 0.21 2.94 8.1 0 0 0 20.33 13.74 -25.86 -3.85 -11.95 35.56 -0.06 6.03 -5.78 -0.1 -2.02 5.56 -3.57 -1.77 11.06 2.55 -2.65 0.21 5.12 -1.18 -5.71 -9.27 -3 -21.22 6.68 -2.47 11.27 3.41 -0.98 7.1 -0 0 0 -83.06 11.92 35.8 116.64 -57.14 -82.85 -0 0 -26.28 19.83 8.87 3.18 -7.12 0 -0 -6.16 39.33 0.86 -0 0 0 85.18 -24.88 35.55 -123.96 55.16 -88.93 0 -0 -9.39 -17.19 25.19 -7.5 7.12 -0 -0 7.54 -3.96 7.07
-0.23 16.56 31.08 -2.71 -7.63 1.82 0 0 0 -16.12 0.09 -2.82 18.32 19.93 85.08 1.23 -1.81 21.7 0.13 -2.33 -6.42 0 0 0 27.16 15.54 -22.7 -5.87 -14.3 44.46 -0.69 -0.15 -15.74 -0.01 -0.6 1.65 0.69 -1.59 12.97 3.98 -1.73 0.18 4.16 -0.8 -7 -9.32 -3.01 -21.07 6.4 -2.45 11.49 3.32 -1 7.14 0 -0 0 -85.63 13.28 35.18 113.05 -57.89 -79.82 -0 0 -23.37 20.66 9.18 3.44 -7.12 0 -0 -5.48 39.72 0.72 0 -0 0 84.78 -19.25 36.86 -122.07 55.73 -87.38 0 -0 -12.83 -19.05 24.98 -8.3 7.12 -0 -0 6.39 -3.88 5.98
-0.28 16.31 32.66 -2.09 -4.63 0.81 0 0 0 -14.42 -3.23 -11.75 22.09 19.89 96.12 1.14 -2.32 21.11 0.22 -3.04 -8.4 0 0 0 27.46 12.46 -17.87 -6.95 -15.29 48.68 -1.34 -3.54 -23.37 -0 0.38 -1.05 0.47 -1.73 13.1 3.8 -1.99 1.07 4.12 -0.94 -6.1 -9.23 -3.11 -20.92 6.85 -2.62 9.38 3.42 -1.02 6.45 -0 -0 0 -88.97 15.12 33.82 111.22 -58.23 -78.27 -0 0 -17.8 22.65 11.14 4.61 -7.12 0 -0 -4.01 41.99 0.3 -0 -0 0 83.81 -11.64 38.73 -121.42 55.92 -86.83 0 -0 -19.73 -20.97 22.72 -8.42 7.12 -0 -0 5 -5.91 4.48
