HIERARCHY
ROOT Hips
{
	OFFSET 0.00000 0.00000 0.00000
	CHANNELS 6 Xposition Yposition Zposition Zrotation Yrotation Xrotation 
	JOINT LHipJoint
	{
		OFFSET 0 0 0
		CHANNELS 3 Zrotation Yrotation Xrotation
		JOINT LeftUpLeg
		{
			OFFSET 1.38615 -1.80049 0.80104
			CHANNELS 3 Zrotation Yrotation Xrotation
			JOINT LeftLeg
			{
				OFFSET 2.50172 -6.87341 0.00000
				CHANNELS 3 Zrotation Yrotation Xrotation
				JOINT LeftFoot
				{
					OFFSET 2.67523 -7.35014 0.00000
					CHANNELS 3 Zrotation Yrotation Xrotation
					JOINT LeftToeBase
					{
						OFFSET 0.17446 -0.47932 2.13155
						CHANNELS 3 Zrotation Yrotation Xrotation
						End Site
						{
							OFFSET 0.00000 -0.00000 1.10023
						}
					}
				}
			}
		}
	}
	JOINT RHipJoint
	{
		OFFSET 0 0 0
		CHANNELS 3 Zrotation Yrotation Xrotation
		JOINT RightUpLeg
		{
			OFFSET -1.18047 -1.80049 0.80104
			CHANNELS 3 Zrotation Yrotation Xrotation
			JOINT RightLeg
			{
				OFFSET -2.59789 -7.13765 0.00000
				CHANNELS 3 Zrotation Yrotation Xrotation
				JOINT RightFoot
				{
					OFFSET -2.62125 -7.20183 0.00000
					CHANNELS 3 Zrotation Yrotation Xrotation
					JOINT RightToeBase
					{
						OFFSET -0.31287 -0.85960 2.07814
						CHANNELS 3 Zrotation Yrotation Xrotation
						End Site
						{
							OFFSET -0.00000 -0.00000 1.11766
						}
					}
				}
			}
		}
	}
	JOINT LowerBack
	{
		OFFSET 0 0 0
		CHANNELS 3 Zrotation Yrotation Xrotation
		JOINT Spine
		{
			OFFSET -0.01587 2.16157 -0.12309
			CHANNELS 3 Zrotation Yrotation Xrotation
			JOINT Spine1
			{
				OFFSET 0.04727 2.16674 -0.03569
				CHANNELS 3 Zrotation Yrotation Xrotation
				JOINT Neck
				{
					OFFSET 0 0 0
					CHANNELS 3 Zrotation Yrotation Xrotation
					JOINT Neck1
					{
						OFFSET -0.08586 1.60335 0.32783
						CHANNELS 3 Zrotation Yrotation Xrotation
						JOINT Head
						{
							OFFSET 0.07583 1.65857 -0.31618
							CHANNELS 3 Zrotation Yrotation Xrotation
							End Site
							{
								OFFSET 0.03386 1.69434 -0.14584
							}
						}
					}
				}
				JOINT LeftShoulder
				{
					OFFSET 0 0 0
					CHANNELS 3 Zrotation Yrotation Xrotation
					JOINT LeftArm
					{
						OFFSET 3.17393 1.01901 -0.52897
						CHANNELS 3 Zrotation Yrotation Xrotation
						JOINT LeftForeArm
						{
							OFFSET 5.25287 -0.00000 -0.00000
							CHANNELS 3 Zrotation Yrotation Xrotation
							JOINT LeftHand
							{
								OFFSET 3.51014 -0.00000 0.00000
								CHANNELS 3 Zrotation Yrotation Xrotation
								JOINT LeftFingerBase
								{
									OFFSET 0 0 0
									CHANNELS 3 Zrotation Yrotation Xrotation
									JOINT LeftHandIndex1
									{
										OFFSET 0.70618 -0.00000 -0.00000
										CHANNELS 3 Zrotation Yrotation Xrotation
										End Site
										{
											OFFSET 0.56934 -0.00000 -0.00000
										}
									}
								}
								JOINT LThumb
								{
									OFFSET 0 0 0
									CHANNELS 3 Zrotation Yrotation Xrotation
									End Site
									{
										OFFSET 0.57803 -0.00000 0.57803
									}
								}
							}
						}
					}
				}
				JOINT RightShoulder
				{
					OFFSET 0 0 0
					CHANNELS 3 Zrotation Yrotation Xrotation
					JOINT RightArm
					{
						OFFSET -2.99471 1.26495 -0.61125
						CHANNELS 3 Zrotation Yrotation Xrotation
						JOINT RightForeArm
						{
							OFFSET -5.28721 -0.00000 -0.00000
							CHANNELS 3 Zrotation Yrotation Xrotation
							JOINT RightHand
							{
								OFFSET -3.50544 -0.00000 0.00000
								CHANNELS 3 Zrotation Yrotation Xrotation
								JOINT RightFingerBase
								{
									OFFSET 0 0 0
									CHANNELS 3 Zrotation Yrotation Xrotation
									JOINT RightHandIndex1
									{
										OFFSET -0.88500 -0.00000 -0.00000
										CHANNELS 3 Zrotation Yrotation Xrotation
										End Site
										{
											OFFSET -0.71351 -0.00000 -0.00000
										}
									}
								}
								JOINT RThumb
								{
									OFFSET 0 0 0
									CHANNELS 3 Zrotation Yrotation Xrotation
									End Site
									{
										OFFSET -0.72440 -0.00000 0.72440
									}
								}
							}
						}
					}
				}
			}
		}
	}
}
MOTION
Frames: 56
Frame Time: 0.0333332
3.88 17.95 14.3 178.66 -2.48 -173.06 0 0 0 -21.08 1.05 7.12 2.81 10.38 30.22 -0.25 -10.24 9.46 1.63 -8.04 -22.85 0 0 0 17.06 10.19 -33.13 -3.63 -11.65 34.51 -0.26 0.43 -9.55 -0.07 1.73 -4.76 -6.56 -1.16 -2.6 1.07 -1.38 -0.28 4.74 -0.73 1.36 -12.12 -7.01 -22.03 9.48 -7.95 23.55 4.27 -3.29 12.36 -0 0 0 -83.42 -7.92 15.07 12.34 -20.31 -2.22 -0 -0 10.1 10.15 40.52 6.63 -7.12 0 -0 -35.67 67.74 -20.51 -0 0 0 72.72 11.23 5.12 -11.64 19.26 -1.98 0 0 22.95 8.41 -2.84 -0.42 7.12 -0 -0 27.42 -31.82 9.87
3.96 18.02 13.59 180.92 -2.94 -172.85 0 0 0 -17.95 -1.4 0.76 5.26 13.67 41.91 0.52 -8.41 19.22 0.25 -3.22 -8.89 0 0 0 20.32 10.92 -30.64 -3.69 -11.73 34.8 -0.31 -0.29 -10.7 -0.06 1.57 -4.31 -4.36 -1.31 -2.32 2.04 -1.66 0.3 4.49 -0.89 1.79 -11.64 -6.96 -23.77 8.59 -7.67 23.19 3.85 -3.23 12.44 -0 0 0 -85.29 -4.7 7.92 9.68 -16.24 -1.38 -0 -0 16.07 6.78 41.96 4.55 -7.12 0 -0 -41.52 67.78 -24.33 -0 0 0 75.07 4.92 -8.27 -8.2 13.88 -1 0 0 46.55 9.35 -0.61 -0.1 7.12 -0 -0 27.48 -29.76 11.45
4.03 18.07 12.9 182.88 -3.07 -173.12 0 0 0 -15.14 -2.87 -4.81 7.79 15.96 51.79 1.33 -6.06 24.7 0.03 1.14 3.14 0 0 0 23.49 10.39 -27.63 -3.65 -11.68 34.6 -0.47 -0.19 -13.07 -0.05 1.5 -4.12 -2.36 -1 -1.51 2.87 -1.38 0.74 4.24 -0.76 1.74 -11.43 -6.82 -24.03 8.06 -7.37 22.29 3.64 -3.17 12.07 0 0 0 -86.72 -0.15 5.18 8.87 -14.95 -1.17 -0 -0 22.21 -0.53 41.76 -0.35 -7.12 0 -0 -48.16 65.44 -26.45 0 0 0 77.31 -3.11 -23.76 -6.94 11.81 -0.72 0 0 64.03 4.83 5.78 0.49 7.12 -0 -0 22.92 -24.11 12.55
4.04 18.13 12.24 183.67 -2.98 -173.52 0 0 0 -13.9 -3.34 -10.17 10.07 17.45 59.74 0.71 -6.24 19.36 0 -0.17 -0.48 0 0 0 25.13 8.81 -24.67 -3.53 -11.51 34.01 -0.64 0.9 -14.88 -0.03 1.02 -2.81 -0.98 -0.74 -0.86 3.16 -1.12 1.38 3.77 -0.64 1.99 -10.9 -6.53 -23.68 7.73 -7.09 20.77 3.45 -3.07 11.35 -0 0 0 -87.46 4.82 7.98 9.38 -15.76 -1.3 -0 -0 22.62 -6.55 42.4 -4.43 -7.12 0 -0 -54.6 64.12 -29.32 -0 0 0 79.55 -11.8 -24.07 -7.33 12.46 -0.8 0 0 62.4 3.97 8.64 0.6 7.12 -0 -0 21.86 -21.47 13.33
4.09 18.22 11.6 183.76 -1.88 -173.28 0 0 0 -13.46 -2.51 -16.32 11.6 18.21 64.7 0.18 -6.08 12.55 0.38 -3.95 -10.94 0 0 0 25.95 8.21 -21.42 -3.17 -10.97 32.17 -0.78 1.75 -16.21 -0.02 1 -2.76 -0.77 -0.44 -0.95 3.13 -0.74 1.68 3.63 -0.46 2.31 -10.41 -6.16 -22.74 7.85 -6.84 19.91 3.46 -2.93 10.82 0 0 0 -88.08 10.25 10.41 10.33 -17.25 -1.57 -0 -0 20.38 -6.37 39.81 -4.09 -7.12 0 -0 -50.54 62.51 -24.72 0 0 0 81.41 -19.68 -21.16 -7.45 12.66 -0.83 0 0 55.28 -4.95 9.57 -0.82 7.12 -0 -0 15.63 -20.52 9.51
4.13 18.26 11 183.45 -0.7 -172.84 0 0 0 -13.57 -1.91 -21.28 12 18.39 65.98 -0.1 -6.57 6.05 0.24 -3.18 -8.77 0 0 0 26.12 7.63 -18.98 -2.95 -10.61 30.99 -0.91 2.65 -17.31 -0.07 1.68 -4.61 -0.94 -0.3 -1.64 2.94 -0.57 2.27 3.53 -0.39 3.29 -10.17 -5.87 -23.12 8.23 -6.57 19.9 3.6 -2.73 10.86 -0 -0 0 -88.99 14.2 11.19 11.19 -18.57 -1.83 -0 -0 16.14 -5.31 39.05 -3.35 -7.12 0 -0 -48.53 62.28 -23.22 -0 -0 0 82.53 -25.42 -19.71 -7.37 12.53 -0.81 0 0 47.85 1.32 9.69 0.22 7.12 -0 -0 19.92 -20.49 12.45
4.14 18.28 10.42 183.7 0.7 -172.7 0 0 0 -13.13 -1.43 -25.7 11.97 18.38 65.9 -0.18 -7.6 1.56 0.28 -3.43 -9.48 0 0 0 26.66 7.04 -16.22 -2.72 -10.23 29.72 -1.08 3.94 -18.76 -0.04 1.32 -3.62 -0.17 -0.29 -1.62 2.67 -0.36 2.44 2.84 -0.18 3.43 -10.12 -5.59 -22.59 8.67 -6.33 19.96 3.81 -2.57 10.78 0 -0 0 -89.93 18.14 10.19 11.74 -19.41 -2.01 -0 -0 12.79 -4.44 37.3 -2.69 -7.12 0 -0 -45.45 61.28 -20.32 0 -0 0 83.26 -31.24 -16.26 -8.16 13.81 -0.99 0 0 43.15 5.03 7.34 0.64 7.12 -0 -0 22.78 -22.66 13.31
4.14 18.22 9.89 184.11 2 -172.48 0 0 0 -12.71 -1.06 -29.89 11.33 18.09 63.84 -0.16 -8.64 -2.22 0.14 -2.39 -6.58 0 0 0 27.22 6.15 -14.29 -2.64 -10.08 29.24 -1.29 5.29 -20.42 -0.09 1.97 -5.41 0.69 -0.22 -1.36 2.55 -0.27 2.63 2.23 -0.1 3.47 -9.85 -5.19 -22.3 8.56 -5.85 19.42 3.79 -2.35 10.46 -0 -0 0 -91.02 20.48 8.33 11.69 -19.34 -2 -0 -0 11.6 -4.98 39.25 -3.15 -7.12 0 -0 -48.5 62.51 -23.45 -0 -0 0 83.48 -35.14 -15.67 -8.28 14.01 -1.02 0 0 38.62 4.11 4.97 0.36 7.12 -0 -0 22.57 -24.87 11.89
4.13 18.17 9.37 184.98 3.46 -172.03 0 0 0 -11.84 -0.74 -33.75 10.13 17.48 59.92 -0.05 -8.51 -4.87 0.08 -1.86 -5.12 0 0 0 28.1 6.16 -12.04 -2.48 -9.81 28.36 -1.46 6.11 -21.69 -0.09 1.91 -5.26 1.76 0.02 -1.01 2.68 0.04 2.47 1.77 0.09 3.1 -10.08 -4.69 -21.41 8.59 -5.14 18.83 3.95 -2.07 10.02 0 0 0 -91.86 22.22 5.94 11.5 -19.05 -1.94 -0 -0 13.54 -7.7 38.41 -4.8 -7.12 0 -0 -49.84 61.23 -22.79 0 0 0 83.26 -38.46 -17 -8.45 14.27 -1.06 0 0 35.73 3.12 4.17 0.23 7.12 -0 -0 22.03 -25.63 11.13
4.11 18.14 8.85 184.96 5.09 -171.5 0 0 0 -12 -1.01 -36.5 8.42 16.42 54.05 0.04 -7.4 -6.11 0.11 -2.15 -5.93 0 0 0 27.85 5.64 -9.81 -2.22 -9.31 26.76 -1.56 6.75 -22.37 -0.09 1.97 -5.43 2.17 0.47 -0.62 2.23 0.64 2.72 1.1 0.4 3.14 -9.62 -4.45 -21.79 8.71 -4.93 17.95 3.93 -1.92 9.75 0 0 0 -91.6 21.77 4.6 11.09 -18.42 -1.8 -0 -0 15.34 -10.26 40.53 -6.71 -7.12 0 -0 -55.01 61.95 -26.9 0 0 0 84.23 -39.19 -19.77 -8.53 14.4 -1.08 0 0 32.53 1.92 1.89 0.06 7.12 -0 -0 21.6 -27.79 9.69
4.1 18.08 8.34 186.04 7.02 -170.71 0 0 0 -10.73 -0.94 -38.32 6.4 14.8 46.56 0.18 -5.57 -7.93 0.1 -2.08 -5.72 0 0 0 28.76 6.03 -7.56 -1.99 -8.85 25.33 -1.63 7.52 -22.87 -0.09 1.96 -5.39 2.85 0.96 -0.32 2.37 1.31 2.63 0.88 0.75 2.89 -9.47 -4.07 -21.76 8.44 -4.39 17.68 3.88 -1.7 9.58 -0 0 0 -91.69 21.09 3.18 10.62 -17.71 -1.66 -0 -0 17.17 -10.83 41.12 -7.17 -7.12 0 -0 -56.35 62.16 -28.07 -0 0 0 84.25 -39.38 -19.59 -8.69 14.67 -1.12 0 0 27.72 1.67 -0.73 -0.02 7.12 -0 -0 21.95 -30.23 8.49
4.1 18.04 7.83 186.63 8 -169.58 0 0 0 -9.53 -2.63 -38.75 4.17 12.39 37.11 0.17 -2.86 -7.26 0.37 -3.91 -10.82 0 0 0 29.14 6.16 -6.26 -1.85 -8.54 24.37 -1.7 7.66 -23.4 -0.1 2.01 -5.52 2.91 0.91 -0.3 2.42 1.24 2.38 0.89 0.71 2.61 -9.21 -3.41 -21.95 8.14 -3.48 17.69 3.87 -1.29 9.51 0 -0 0 -91.83 19.95 2.09 10.44 -17.42 -1.6 -0 -0 17.96 -9.3 40.4 -6.06 -7.12 0 -0 -53.98 62.11 -26.44 0 -0 0 83.62 -37.9 -19.09 -8.57 14.47 -1.09 0 0 26.85 1.43 -2.71 -0.07 7.12 -0 -0 22.22 -32.07 7.54
4.08 17.95 7.27 186.93 9.19 -168.67 0 0 0 -8.49 -4.18 -38.07 2.33 9.52 27.45 0.14 -0.08 -7.01 0.66 -5.21 -14.52 0 0 0 29.06 5.86 -4.16 -1.56 -7.89 22.39 -1.76 8.12 -23.75 -0.18 2.76 -7.6 2.74 1.46 -0.75 2.18 1.96 2.42 0.77 1.06 2.92 -8.82 -3.45 -22.29 7.96 -3.59 17.3 3.71 -1.33 9.43 -0 -0 0 -90.27 17.73 5.19 10.25 -17.13 -1.55 -0 -0 17.25 -7.65 39.7 -4.9 -7.12 0 -0 -51.54 62.11 -24.87 -0 -0 0 84.48 -35.06 -20.24 -8.42 14.23 -1.05 0 0 30.93 3.96 -1.12 -0.08 7.12 -0 -0 23.74 -30.49 9.13
4.08 17.88 6.72 187.57 8.91 -167.96 0 0 0 -6.79 -6.24 -37.23 1.05 6.53 18.33 0.12 1.88 -7.53 0.57 -4.84 -13.46 0 0 0 29.8 5.63 -2 -1.38 -7.43 21.01 -1.92 7.08 -24.9 -0.19 2.82 -7.79 2.77 1.07 -0.96 2.37 1.42 2.19 0.94 0.79 2.79 -8.7 -2.67 -21.45 7.42 -2.48 16.62 3.65 -0.89 8.94 -0 -0 0 -89.74 15.55 6.16 10.4 -17.37 -1.59 -0 -0 17.38 -5.3 39.96 -3.41 -7.12 0 -0 -49.79 62.9 -24.7 -0 -0 0 83.7 -31.05 -17.07 -8.05 13.63 -0.96 0 0 36.97 4.17 0.57 0.04 7.12 -0 -0 23.51 -28.93 9.99
4.05 17.77 6.12 188.4 9.22 -166.8 0 0 0 -5.55 -6.97 -37.44 0.47 4.42 12.26 0.1 4 -8.75 0.62 -5.04 -14.01 0 0 0 30.11 4.22 -0.88 -1.26 -7.12 20.07 -1.97 8.03 -25.18 -0.12 2.2 -6.06 2.9 1.1 -1.84 2.75 1.43 1.66 1.26 0.79 2.74 -8.71 -2.2 -21.34 6.32 -1.62 17.01 3.39 -0.61 8.96 0 -0 0 -88.88 12.9 9.14 10.42 -17.39 -1.6 -0 -0 16.55 -3.47 39.94 -2.23 -7.12 0 -0 -48.09 63.38 -24.17 0 -0 0 83.22 -26.83 -12.02 -8.36 14.14 -1.04 0 0 40.52 5.1 1.43 0.13 7.12 -0 -0 23.98 -28.11 10.75
3.98 17.66 5.51 188.23 9.31 -165.89 0 0 0 -6.7 -6.67 -39.26 0.48 4.45 12.35 0.06 5.1 -8.9 0.9 -6.05 -16.93 0 0 0 29.37 2.44 0.32 -1.12 -6.72 18.89 -2.01 8.24 -25.48 -0.36 3.85 -10.65 2.36 1.31 -2.42 2.63 1.7 1.3 1.46 0.91 2.68 -8.55 -2.03 -21.83 5.5 -1.22 17.07 3.13 -0.5 9.03 -0 0 0 -87.51 8.7 12.11 10.21 -17.06 -1.54 -0 -0 16.64 -1.26 39.86 -0.81 -7.12 0 -0 -45.93 63.94 -23.43 -0 0 0 83.47 -20.82 -7.89 -8.7 14.68 -1.12 0 0 46.07 6.26 -1.51 -0.17 7.12 -0 -0 25.51 -30.73 9.78
3.91 17.57 4.85 188.81 9.25 -166.09 0 0 0 -7.59 -5.53 -41.88 1.09 6.65 18.68 -0.07 5.07 -3.56 0.63 -5.07 -14.11 0 0 0 29.46 1.87 4.65 -0.78 -5.64 15.75 -1.8 7.45 -24.09 -0.59 4.93 -13.7 2.35 1.37 -1.9 2.99 1.83 0.61 1.81 0.97 1.66 -8.66 -1.64 -21.84 4.78 -0.46 18.25 3.03 -0.24 9.39 -0 -0 0 -86.97 4.87 12.8 9.69 -16.25 -1.39 -0 -0 18.42 1.45 39.31 0.92 -7.12 0 -0 -42.56 64.29 -21.73 -0 -0 0 82.4 -15.27 -1.73 -9.13 15.37 -1.23 0 0 51.15 7.78 0.14 0.02 7.12 -0 -0 26.18 -29.17 11.2
3.84 17.58 4.19 187.11 9.16 -166.86 0 0 0 -9.34 -6.98 -41.97 1.78 8.39 23.91 -0.11 6.64 1.09 0.11 -2.16 -5.94 0 0 0 27.4 2.63 7.25 -0.89 -6.02 16.83 -1.57 6.25 -22.46 -0.77 5.59 -15.59 0.21 1.43 -1.5 2.4 1.94 0.48 2.39 0.99 1.26 -7.93 -1.48 -22.67 3.86 -0.19 19.02 2.64 -0.17 9.79 0 -0 0 -86.14 -0.26 13.86 9.5 -15.96 -1.33 -0 -0 19.34 5.27 39.73 3.37 -7.12 0 -0 -39.42 65.68 -21.11 0 -0 0 82.22 -6.51 -2.26 -8.94 15.07 -1.19 0 0 57.32 -13.52 19.83 -4.66 7.12 -0 -0 9.56 -9.86 7.9
3.74 17.57 3.47 186.17 7.74 -168 0 0 0 -11.71 -6.59 -41.92 2.56 9.95 28.81 -0.02 3.33 1.09 0.06 -1.58 -4.34 0 0 0 26.12 1.23 7.96 -1.36 -7.38 20.86 -1.19 5.77 -19.54 -1.55 7.87 -22.32 -0.5 1.15 -1.07 1.95 1.56 0.55 2.31 0.78 1.09 -7.65 -1.44 -23.38 3.61 -0.11 19.35 2.53 -0.15 10.03 0 0 0 -85.46 -5.24 15.8 9.62 -16.14 -1.37 -0 -0 18.85 7.02 40.51 4.58 -7.12 0 -0 -38.86 66.79 -21.73 0 0 0 81.72 2.58 -2.28 -9.21 15.5 -1.26 0 0 59.75 3.32 4.2 0.24 7.12 -0 -0 22.16 -25.6 11.23
3.62 17.61 2.72 185.96 6.94 -168.87 0 0 0 -13.2 -5.72 -40.3 3.02 10.73 31.37 -0.01 1.43 -0.36 0.04 -1.3 -3.59 0 0 0 25.15 0.87 5.66 -2.68 -10.15 29.46 -0.56 5.86 -13.39 -1.74 8.3 -23.64 -0.6 1.11 -1.29 2.11 1.5 0.35 2.53 0.76 1.01 -8.47 -1.55 -23.84 3.46 0.16 20.72 2.68 -0.11 10.59 -0 -0 0 -85.71 -9.44 19.82 10.05 -16.82 -1.49 -0 -0 16.45 7.37 40.45 4.8 -7.12 0 -0 -38.41 66.84 -21.5 -0 -0 0 79.87 10.82 0.1 -10.17 17 -1.52 0 0 56.03 1.57 4.7 0.13 7.12 -0 -0 20.84 -25.17 10.68
3.49 17.65 2.03 183.97 6.75 -170.01 0 0 0 -16.64 -4.71 -37.48 3.22 11.04 32.43 0.03 -0.06 -2.96 0.02 -0.89 -2.44 0 0 0 22.12 1.45 1.43 -4.75 -13.09 39.71 0.01 3 -1.7 -0.61 4.99 -13.88 -2.33 1.42 -1.38 1.5 1.94 0.23 2.88 0.96 0.88 -8.19 -1.84 -23.46 2.57 -0.09 21.31 2.28 -0.32 10.77 0 -0 0 -85.39 -14.28 27.02 10.54 -17.58 -1.63 -0 -0 13.36 6.65 41.91 4.45 -7.12 0 -0 -41.54 67.7 -24.27 0 -0 0 77.22 19.03 3.03 -11.25 18.68 -1.86 0 0 48.5 -2.44 6.19 -0.26 7.12 -0 -0 17.77 -23.79 9.54
3.4 17.69 1.37 182.31 5.79 -171.06 0 0 0 -19.79 -3.15 -34.7 3.32 11.19 32.93 0.09 -2.18 -5.39 0.01 -0.79 -2.17 0 0 0 19.72 2.06 -3.81 -7.34 -15.61 50.15 -0.13 -0.13 6.76 -0.02 0.85 -2.34 -3.6 1.4 -1.11 1 1.91 0.06 3.07 0.95 0.53 -9 -2.03 -24.28 3.48 -0.15 23.01 2.78 -0.31 11.56 -0 0 0 -84.82 -18.04 33.46 12.47 -20.51 -2.27 -0 -0 10.51 3.46 39.96 2.22 -7.12 0 -0 -41.56 65.33 -22.11 -0 0 0 73.63 27.68 3.79 -11.99 19.8 -2.1 0 0 42.17 -4.81 5.51 -0.46 7.12 -0 -0 16.16 -24.44 8.35
3.31 17.73 0.74 180.44 5.14 -172.03 0 0 0 -23.02 -0.74 -31.8 3.25 11.08 32.56 0.17 -4.75 -7.51 0 -0.31 -0.84 0 0 0 17.21 2 -9.49 -10.17 -17.5 60.04 -0.01 -5.19 4.03 -0.02 0.8 -2.21 -5.2 1.63 -0.91 0.63 2.23 0.02 3.58 1.11 0.31 -9.22 -2.34 -24.24 3.1 -0.33 23.48 2.66 -0.46 11.75 -0 0 0 -84.58 -21.28 39.71 15.36 -24.65 -3.38 -0 -0 7.23 4.4 38.72 2.76 -7.12 0 -0 -38.83 64.67 -19.87 -0 0 0 68.49 35.55 2.99 -12.83 21.04 -2.39 0 0 32.81 -5.67 4.48 -0.44 7.12 -0 -0 15.66 -25.43 7.7
3.21 17.77 0.13 179.98 2.73 -173 0 0 0 -24.33 0.54 -28.03 2.99 10.68 31.21 0.2 -6.9 -8.7 0 -0.3 -0.83 0 0 0 16.48 -0.03 -15.13 -12.49 -18.59 67.53 0.22 -8.37 -1.96 -0.01 0.51 -1.39 -4.49 1.28 -0.11 0.31 1.71 -0.11 2.83 0.86 -0.2 -9.3 -1.84 -23.69 3.26 -0.39 23.33 2.66 -0.72 11.58 -0 0 0 -83.19 -23.86 45.18 18.78 -29.15 -4.92 -0 -0 4.2 6.07 37.38 3.69 -7.12 0 -0 -35.37 64.08 -17.4 -0 0 0 63.26 42.58 0.31 -13.57 22.11 -2.66 0 0 24.59 -5.95 2.94 -0.31 7.12 -0 -0 15.65 -26.93 7.12
3.14 17.8 -0.49 179.06 -0.04 -173 0 0 0 -25.88 0.78 -24.6 2.64 10.09 29.26 0.23 -8.72 -9.74 0 0.39 1.08 0 0 0 15.38 -1.38 -21 -13.86 -19.07 71.76 0.27 -9.44 -5.79 -0 -0.13 0.36 -4.57 0.84 -0.52 -0.07 1.12 -0.49 2.49 0.57 -0.3 -9.21 -2.24 -23.3 3.4 -1.15 24.09 2.58 -1.08 11.86 -0 -0 0 -82.64 -26.13 48.31 21.77 -32.72 -6.46 -0 -0 2.63 7.35 35.86 4.32 -7.12 0 -0 -32.21 63.19 -15.01 -0 -0 0 56.76 47.13 -2.07 -14.86 23.95 -3.17 0 0 14.7 -6.02 1 -0.11 7.12 -0 -0 15.87 -28.8 6.49
3.08 17.81 -1.11 178.71 -2.43 -172.92 0 0 0 -26.48 1.13 -21.77 2.46 9.77 28.23 0.27 -10.15 -10.87 0 0.45 1.24 0 0 0 15 -1.55 -26.02 -14.29 -19.2 73.07 0.09 -7.94 -9.19 -0.03 -1.05 2.89 -4.27 0.58 -1.04 -0.16 0.79 -0.71 2.24 0.4 -0.2 -9.9 -2.81 -23.03 4.09 -1.96 24.4 2.82 -1.43 12 0 -0 0 -83.41 -28.24 48.88 24.64 -35.84 -8.08 -0 -0 2.95 7.34 35.05 4.23 -7.12 0 -0 -31.31 62.51 -14.04 0 -0 0 49.47 49.67 -5.33 -16.69 26.45 -3.95 0 0 6.87 -6.59 0.56 -0.06 7.12 -0 -0 15.51 -29.24 6.16
3.04 17.78 -1.73 177.75 -3.9 -172.8 0 0 0 -27.56 1.66 -19.32 2.41 9.68 27.94 0.4 -10.8 -12.67 0.03 -1.16 -3.19 0 0 0 13.89 -0.35 -30.32 -13.9 -19.08 71.9 -0.22 -5.46 -12.55 -0.1 -1.99 5.47 -4.98 0.41 -1.36 -0.29 0.56 -1.03 2.5 0.29 -0.35 -9.73 -3.11 -22.47 3.58 -2.41 24.42 2.53 -1.7 11.93 0 0 0 -83.55 -28.68 49.09 28.69 -39.74 -10.56 -0 -0 1.11 9.55 34.81 5.49 -7.12 0 -0 -28.76 62.87 -13.04 0 0 0 42.7 51.13 -8.65 -18.92 29.31 -4.99 0 0 0.91 -4.59 -1.53 0.12 7.12 -0 -0 17.38 -31.2 6.12
3.01 17.74 -2.34 178.08 -6.47 -172.76 0 0 0 -26.97 0.87 -16.54 2.39 9.63 27.8 0.49 -11.42 -13.81 0.01 -0.66 -1.81 0 0 0 14.3 0.1 -34.05 -12.74 -18.69 68.32 -0.58 -6.02 -17.87 -0.42 4.14 -11.46 -4.49 -0.1 -1.46 -0.01 -0.12 -1.23 2.5 -0.04 -0.43 -10.44 -3.5 -21.96 4.62 -3.07 24.32 2.93 -1.93 11.87 -0 -0 0 -84.14 -28.9 48.64 32.71 -43.11 -13.22 -0 -0 0.14 8.66 34.31 4.9 -7.12 0 -0 -29.15 62.21 -12.78 -0 -0 0 36.38 51.5 -11.64 -20.96 31.79 -6.03 0 -0 -7.72 -2.68 -0.59 0.03 7.12 -0 -0 18.67 -30.24 7.06
2.99 17.7 -2.96 177.22 -7.98 -172.56 0 0 0 -27.71 0.5 -13.09 2.14 9.16 26.3 0.63 -11.12 -15.11 0.03 -1.05 -2.88 0 0 0 13.22 0.95 -37.11 -10.98 -17.93 62.72 -0.68 -3.65 -17.29 -0.01 0.51 -1.41 -5.23 -0.26 -1.33 -0.24 -0.36 -1.46 2.68 -0.15 -0.72 -10.11 -3.86 -21.67 4.57 -3.71 24.17 2.75 -2.19 11.81 -0 -0 0 -84.05 -28.39 48.41 36.85 -46.09 -16.13 -0 0 -0.25 8.73 33.94 4.9 -7.12 0 -0 -28.7 61.91 -12.36 -0 -0 0 31.5 51.91 -16.68 -22.3 33.32 -6.75 0 -0 -13.09 -3.65 -4.26 0.27 7.12 -0 -0 18.66 -33.77 5.39
2.98 17.69 -3.58 176.69 -8.91 -172.2 0 0 0 -28.05 1.35 -9.97 1.78 8.4 23.93 0.78 -10.82 -16.39 0.11 -2.14 -5.89 0 0 0 12.44 2.25 -38.98 -8.64 -16.57 54.84 -0.71 -4.99 -18.46 -0 0.13 -0.35 -5.81 -0.5 -2.24 -0.32 -0.59 -0.93 2.92 -0.3 0.35 -10.32 -4.36 -22.09 5.31 -4.37 23.2 2.94 -2.35 11.59 0 -0 0 -83.4 -28.52 47.46 40.73 -48.5 -18.98 -0 0 -0.81 8.81 32.6 4.77 -7.12 0 -0 -27.32 60.77 -10.97 0 -0 0 27.15 52.09 -20.81 -24.06 35.23 -7.74 0 -0 -18.85 -1.93 -6.8 0.23 7.12 -0 -0 20.63 -36.07 4.79
2.97 17.68 -4.2 176.14 -9.19 -171.8 0 0 0 -28.3 2.74 -5.99 1.24 7.07 19.93 0.75 -10.94 -16.21 0.08 -1.82 -5.02 0 0 0 11.63 3.7 -40.02 -6.17 -14.59 45.67 -0.43 -6.76 -16.68 -0 -0.18 0.48 -6.34 -0.61 -2.1 -0.53 -0.76 -1.23 3 -0.38 -0.01 -9.82 -4.44 -21.85 5.6 -4.72 22.58 2.9 -2.4 11.34 0 -0 0 -82.41 -26.65 46.28 44.18 -50.36 -21.6 -0 0 -0.52 9.46 31.6 4.99 -7.12 0 -0 -25.74 60.04 -9.84 0 -0 0 26.79 51.63 -21.97 -25.55 36.76 -8.62 0 -0 -23.39 -0.69 -8.2 0.1 7.12 -0 -0 22.01 -37.28 4.44
2.97 17.66 -4.83 175.94 -9.53 -171.28 0 0 0 -27.96 5.38 -2.57 0.77 5.59 15.61 0.58 -12.17 -14.97 0.06 -1.56 -4.29 0 0 0 11.33 4.85 -40.53 -3.9 -12.03 35.83 -0.16 -7.88 -14.16 -0.03 1.02 -2.8 -6.63 -0.79 -2.42 -0.51 -0.98 -1.25 3.17 -0.49 0.16 -10.13 -4.63 -22.1 6.48 -5.03 22.2 3.22 -2.44 11.3 0 -0 0 -81.41 -25 45.3 46.07 -51.28 -23.07 -0 0 -1.02 9.46 31.24 4.94 -7.12 0 -0 -25.44 59.72 -9.52 0 -0 0 27.68 50.84 -21.66 -26.73 37.92 -9.33 0 -0 -27.29 0.33 -9.75 -0.06 7.12 -0 -0 23.29 -38.64 3.9
2.97 17.61 -5.49 175.65 -9.72 -171.03 0 0 0 -27.59 7.18 2.32 0.32 3.62 10.01 0.45 -12.02 -13.66 0.08 -1.8 -4.96 0 0 0 10.64 6.46 -40.02 -2.38 -9.61 27.72 -0.33 -7.3 -15.96 -0.2 2.88 -7.96 -7.21 -1.06 -2.29 -0.38 -1.36 -1.51 3.62 -0.66 -0.12 -10.69 -4.75 -21.88 7.33 -5.25 21.92 3.6 -2.49 11.22 -0 -0 0 -80.6 -22.12 43.99 46.4 -51.44 -23.33 -0 0 -1.1 9.97 31.79 5.29 -7.12 0 -0 -25.39 60.33 -9.86 -0 -0 0 31.04 49.28 -18.08 -27.71 38.84 -9.94 0 -0 -30.02 2.51 -11.34 -0.49 7.12 -0 -0 25.59 -39.9 3.48
2.99 17.55 -6.19 175.61 -9.95 -170.97 0 0 0 -26.61 8.05 8.71 0.03 1.11 3.06 0.21 -11.37 -10.7 0.23 -3.08 -8.49 0 0 0 10.74 7.22 -39.84 -1.73 -8.29 23.59 -0.59 -7.11 -18.87 -0.39 4.02 -11.13 -7.49 -1.28 -3.03 -0.34 -1.55 -1.1 3.79 -0.8 0.74 -10.26 -4.97 -21.67 7.27 -5.63 21.01 3.43 -2.61 10.87 -0 -0 0 -80.11 -20.27 43.07 43.43 -49.97 -21.03 -0 0 -1.92 12.12 31.33 6.37 -7.12 0 -0 -22.76 60.43 -8.83 -0 -0 0 35.83 46.01 -12.41 -30.03 40.92 -11.43 0 -0 -32.2 4.03 -13.52 -0.94 7.12 -0 -0 27.65 -41.71 2.45
3.02 17.44 -6.87 174.65 -10.03 -170.55 0 0 0 -26.59 7.98 12.79 0 -0 -0 0.03 -11.35 -8.43 0.52 -4.64 -12.87 0 0 0 11.03 6.11 -41.15 -1.91 -8.69 24.82 -0.59 -6.5 -18.35 -0.33 3.68 -10.18 -8.84 -1.4 -2.79 -0.46 -1.73 -1.33 4.42 -0.87 0.43 -10.38 -5.3 -21.61 7.65 -6.13 20.69 3.5 -2.8 10.81 -0 0 0 -80.44 -17.61 41.52 38.32 -47.04 -17.2 -0 0 -0.96 12.39 32.68 6.77 -7.12 0 -0 -23.65 61.72 -9.93 -0 0 0 41.93 41.14 -4.92 -31.83 42.41 -12.63 0 -0 -27.85 6.62 -13.69 -1.57 7.12 -0 -0 29.82 -41.59 2.79
3.06 17.36 -7.63 174.16 -9.93 -170.47 0 0 0 -26.35 6.73 12.57 0.11 2.1 5.79 0.07 -11.85 -9.25 0.73 -5.47 -15.26 0 0 0 11.8 5.51 -41.38 -2.53 -9.9 28.66 -0.51 -5.25 -16.47 -0.43 4.19 -11.6 -9.43 -1.62 -2.75 -0.61 -2.03 -1.4 4.58 -1.03 0.39 -10.67 -5.38 -21.88 8.42 -6.33 20.78 3.8 -2.81 10.95 0 0 0 -80.72 -14.28 38.88 32.88 -43.24 -13.34 -0 -0 0.15 13.23 37.26 8.1 -7.12 0 -0 -27.68 65.98 -14.5 0 0 0 48.38 35.36 3.2 -32.01 42.56 -12.75 0 -0 -23.92 8.16 -12.11 -1.72 7.12 -0 -0 30.39 -40.06 4.16
3.13 17.35 -8.45 176.11 -10.3 -171.34 0 0 0 -23.3 5.38 12.85 0.44 4.27 11.84 0 -12.04 -8.45 1.76 -8.34 -23.76 0 0 0 14.59 6.4 -39.22 -2.91 -10.56 30.8 -0.22 -4.6 -11.83 -0.21 2.97 -8.18 -8.08 -1.89 -2.55 0.1 -2.4 -1.37 4.55 -1.2 0.35 -11.01 -5.39 -21.98 8.79 -6.33 20.86 3.99 -2.8 11.03 0 -0 0 -81.73 -10.73 35.24 26.62 -37.81 -9.26 -0 -0 2.49 8.78 34.73 5.03 -7.12 0 -0 -29.47 62.61 -13.21 0 -0 0 55 28.53 9.6 -30.17 41.03 -11.52 0 -0 -18.64 10.37 -11.56 -2.1 7.12 -0 -0 31.88 -39.36 5.05
3.21 17.41 -9.27 177.79 -10.13 -171.71 0 0 0 -21.07 2.79 11.18 1.26 7.12 20.08 -0.25 -11.94 -4.23 2.6 -10.02 -29.03 0 0 0 15.99 9.28 -37.04 -3.16 -10.95 32.12 -0.02 -5.8 -8.79 -0.01 -0.53 1.45 -7.11 -1.8 -2.53 0.71 -2.29 -1.34 4.65 -1.14 0.34 -11.46 -5.86 -22.58 9.23 -6.87 20.88 4.14 -3.01 11.24 0 0 0 -83.08 -8.02 30.75 19.97 -30.6 -5.51 -0 -0 5.95 9.2 37.5 5.63 -7.12 0 -0 -32.3 65.04 -16.44 0 0 0 60.82 21.03 12.74 -25.85 37.06 -8.8 0 -0 -9.04 12.76 -9.11 -2.05 7.12 -0 -0 32.69 -37.01 7.44
3.24 17.43 -10.12 178.09 -9.24 -172.36 0 0 0 -20.3 2.82 6.9 2.62 10.05 29.14 -0.52 -12.75 6.09 3.2 -11.01 -32.32 0 0 0 17.5 9 -34.91 -3.73 -11.8 35.02 -0.15 -3.37 -9.35 -0.11 -2.16 5.94 -7.02 -1.65 -2.6 0.91 -2.06 -0.98 4.81 -1.04 0.73 -12.05 -5.96 -22.96 9.96 -6.89 20.36 4.5 -2.95 11.18 0 0 0 -84.5 -4.93 22.9 14.37 -23.26 -2.97 -0 -0 11.18 10.7 36.77 6.45 -7.12 0 -0 -29.8 64.85 -14.92 0 0 0 65.25 13.55 13.68 -19.76 30.35 -5.41 0 0 3.06 10.41 -4.25 -0.78 7.12 -0 -0 29.28 -32.94 9.79
3.31 17.49 -10.91 179.36 -9.27 -173.07 0 0 0 -17.98 0.32 2.68 4.67 13.01 39.39 0.06 -12.14 18.07 1.1 -6.65 -18.68 0 0 0 20.21 8.74 -32.04 -4.04 -12.21 36.47 -0.31 -3.08 -12.03 -0.05 -1.5 4.13 -6.13 -1.67 -1.94 1.43 -2.13 -0.64 4.87 -1.08 0.71 -11.49 -5.95 -23.26 9.08 -6.65 19.31 4.09 -2.86 10.76 -0 0 0 -85.49 -1.48 13.29 10.72 -17.85 -1.69 -0 -0 16.9 5.33 42.25 3.59 -7.12 0 -0 -43.44 67.54 -25.39 -0 0 0 68.38 6.71 9.13 -13.39 21.85 -2.6 0 0 24.22 11.52 2.03 0.41 7.12 -0 -0 28.28 -27.26 13.83
3.35 17.55 -11.65 181.4 -9.11 -173.33 0 0 0 -14.99 -1.61 -3.78 7.42 15.67 50.43 0.92 -10.75 25 0.15 -2.48 -6.84 0 0 0 23.78 7.18 -29.26 -3.91 -12.04 35.86 -0.48 -1.95 -13.96 -0.02 -0.96 2.65 -4.1 -1.49 -1.53 2.31 -1.96 -0.4 4.64 -1 0.67 -11.96 -5.9 -23.68 9.36 -6.32 18.54 4.32 -2.69 10.55 0 0 0 -86.13 2.31 5.58 8.9 -15 -1.17 -0 -0 22.68 -0.52 43.03 -0.35 -7.12 0 -0 -50.3 66.28 -28.8 0 0 0 70.89 0.02 -3.86 -8.53 14.41 -1.08 0 0 44.49 2.41 7.46 0.31 7.12 -0 -0 20.98 -22.58 12.13
3.39 17.61 -12.33 182.8 -8.37 -173.39 0 0 0 -12.78 -2.11 -10.43 10.02 17.42 59.55 1.01 -6.66 22.49 0 0.37 1.01 0 0 0 26.17 5.96 -26.18 -3.61 -11.62 34.39 -0.69 -0.14 -15.76 -0.1 -2.01 5.54 -2.41 -1.02 -1.15 2.85 -1.4 -0.01 4.26 -0.73 0.76 -12.33 -5.93 -24.01 9.9 -6.19 17.22 4.57 -2.56 10.15 -0 0 0 -85.97 7.06 4.99 9.04 -15.22 -1.21 -0 -0 24.03 -5.13 42.76 -3.49 -7.12 0 -0 -53.95 64.75 -29.62 -0 0 0 73.16 -7.59 -20.43 -7 11.92 -0.73 0 0 62.71 -0.72 10.23 -0.13 7.12 -0 -0 18.47 -19.96 11.67
3.42 17.68 -13 183.04 -6.89 -173.23 0 0 0 -12.34 -1.02 -16.67 11.69 18.26 65.02 0.09 -7.82 12.94 0.45 -4.29 -11.88 0 0 0 27.25 4.97 -23.09 -3.27 -11.12 32.7 -0.84 1.28 -16.96 -0.03 -1.13 3.11 -1.87 -0.5 -1.07 3.1 -0.73 0.43 4.23 -0.42 1.1 -10.82 -6.06 -25.35 7.8 -6.21 17.14 3.54 -2.67 10.22 0 0 0 -86.04 12.1 6.22 10.23 -17.1 -1.54 -0 -0 20.72 -5.74 40.56 -3.74 -7.12 0 -0 -51.06 63.18 -25.84 0 0 0 75.11 -16.06 -21.5 -7.62 12.94 -0.87 0 0 61.85 -0.9 9.16 -0.14 7.12 -0 -0 18.48 -20.98 11.22
3.43 17.73 -13.64 182.23 -4.69 -173.12 0 0 0 -13.46 -0.51 -21.4 12.26 18.5 66.82 -0.11 -6.69 6.03 0.88 -5.99 -16.76 0 0 0 26.86 4.64 -19.62 -2.99 -10.68 31.2 -1.06 2.55 -18.8 -0.02 -0.92 2.53 -2.33 -0.11 -1.29 2.87 -0.2 0.92 4.26 -0.17 1.68 -11.18 -5.87 -24.64 8.85 -6.09 16.1 3.99 -2.53 9.77 -0 0 0 -86.18 17.05 5.88 11.16 -18.53 -1.83 -0 -0 14.79 -4.21 39.56 -2.69 -7.12 0 -0 -48.24 62.92 -23.76 -0 0 0 76.01 -23.33 -17.19 -8 13.55 -0.95 0 0 53.1 1.52 6.4 0.17 7.12 -0 -0 20.53 -23.58 11.32
3.44 17.77 -14.26 182.12 -2.94 -172.64 0 0 0 -13.8 -1.16 -26.82 12.27 18.5 66.83 -0.17 -7.42 0.81 1.27 -7.15 -20.17 0 0 0 26.98 4.51 -16.42 -2.63 -10.07 29.2 -1.21 3.55 -19.96 -0.01 -0.61 1.68 -1.75 -0.05 -1.68 2.6 -0.12 0.96 3.66 -0.12 1.94 -10.3 -5.37 -23.69 8.75 -5.77 15.44 3.86 -2.36 9.3 -0 0 0 -86.48 21.74 3.3 11.84 -19.57 -2.05 -0 -0 8.96 -2.1 37.98 -1.29 -7.12 0 -0 -44.14 62.37 -20.73 -0 0 0 75.92 -29.77 -11.67 -8.06 13.65 -0.97 0 0 43.3 1.02 6.12 0.11 7.12 -0 -0 20.22 -23.85 11
3.41 17.7 -14.86 182.96 -0.35 -173.05 0 0 0 -13.19 -1.24 -29.28 11.46 18.15 64.26 -0.09 -6.99 -2.4 0.34 -3.73 -10.33 0 0 0 27.88 4.05 -13.35 -2.56 -9.94 28.79 -1.46 5.2 -21.71 -0 0.23 -0.64 -0.02 0.43 -1.5 2.58 0.43 1.66 2.67 0.15 2.52 -10.18 -5.34 -24.05 9 -5.79 15.6 3.93 -2.33 9.43 -0 -0 0 -87.17 24.64 -0.49 12.07 -19.91 -2.13 -0 -0 7.06 -0.54 39.04 -0.34 -7.12 0 -0 -44.09 63.55 -21.91 -0 -0 0 75.58 -34.63 -8.08 -8.51 14.37 -1.07 0 0 35.12 -1.77 5.62 -0.17 7.12 -0 -0 18.33 -24.34 9.63
3.42 17.63 -15.43 183.32 1.54 -172.76 0 0 0 -13.04 -1.7 -32.71 10.15 17.49 60 0.04 -6.21 -5.25 0.41 -4.11 -11.39 0 0 0 28.21 3.18 -11.25 -2.47 -9.79 28.29 -1.69 7.22 -23.32 -0.02 0.86 -2.36 0.9 0.76 -1.41 2.42 1.02 1.9 2.02 0.54 2.71 -9.65 -5.05 -23.05 8.84 -5.57 14.55 3.81 -2.24 8.85 -0 0 0 -86.7 26.12 -4.36 11.38 -18.86 -1.9 -0 -0 8.92 -0.71 40.05 -0.46 -7.12 0 -0 -45.69 64.22 -23.58 -0 0 0 75.44 -38.68 -5.98 -8.81 14.86 -1.15 0 0 29.33 -1.2 1.36 -0.03 7.12 -0 -0 19.42 -28.37 8.31
3.42 17.58 -15.98 184.32 3.74 -172.15 0 0 0 -12.11 -1.95 -35.58 8.38 16.39 53.92 0.16 -4.53 -7.33 0.6 -4.95 -13.77 0 0 0 29.16 3.58 -8.45 -2.18 -9.23 26.52 -1.77 7.89 -23.83 -0 0.4 -1.09 2.23 1.17 -0.89 2.5 1.58 1.87 1.37 0.85 2.41 -10.68 -4.92 -22.09 10.38 -5.33 13.47 4.55 -2 8.38 0 0 0 -86.43 27.18 -7.91 10.75 -17.91 -1.7 -0 -0 12.78 -0.2 40.54 -0.13 -7.12 0 -0 -45.93 64.71 -24.23 0 0 0 74.8 -41.75 -3.39 -9.28 15.6 -1.27 0 0 26.38 -0.6 -4.46 0.05 7.12 -0 -0 21.09 -33.8 6.15
3.42 17.54 -16.53 184.29 5.94 -171.57 0 0 0 -12.26 -2.73 -37.11 6.26 14.67 46.01 0.24 -1.37 -8.8 0.68 -5.28 -14.72 0 0 0 28.77 3.74 -5.83 -1.89 -8.64 24.68 -1.75 9.12 -23.74 -0 -0.23 0.62 2.13 1.58 -0.54 2.26 2.13 1.94 1.18 1.12 2.28 -9.47 -4.45 -22.46 9.7 -4.87 13.35 4.18 -1.78 8.3 -0 -0 0 -85.77 27.59 -9.64 10.3 -17.2 -1.56 -0 -0 14.55 -0.95 41 -0.62 -7.12 0 -0 -47.34 64.81 -25.24 -0 -0 0 74.63 -43.34 -2.33 -9.4 15.79 -1.31 0 0 26.88 -0.91 -9.15 0.14 7.12 -0 -0 22.11 -38.18 3.95
3.44 17.48 -17.09 185.51 7.62 -170.34 0 0 0 -10.68 -3.7 -38.19 4.13 12.33 36.93 0.17 0.37 -8.02 1.22 -6.99 -19.69 0 0 0 29.72 3.67 -4.13 -1.68 -8.16 23.2 -1.79 10.18 -24.06 -0 0.21 -0.59 2.93 1.94 -1.03 2.4 2.58 2.17 0.92 1.37 2.83 -10.03 -4.68 -22.43 10.87 -5.13 12.25 4.63 -1.8 8.01 0 0 0 -85.3 26.97 -10.35 10.32 -17.23 -1.57 -0 -0 15.1 -1.61 41.58 -1.07 -7.12 0 -0 -48.87 65.01 -26.45 0 0 0 74.62 -43.07 -1.12 -9.3 15.64 -1.28 0 0 28.54 -1.8 -10.41 0.33 7.12 -0 -0 21.76 -39.42 3.17
3.47 17.41 -17.66 185.88 9.16 -169.47 0 0 0 -9.54 -5.2 -38.25 2.38 9.62 27.75 0.15 1.13 -7.77 0.75 -5.52 -15.4 0 0 0 29.82 3.2 -1.42 -1.32 -7.29 20.58 -1.77 10.19 -23.9 -0.01 0.61 -1.68 2.64 2.36 -0.71 2.26 3.16 1.92 0.93 1.65 2.38 -8.51 -3.96 -22.96 9.8 -4.41 12.6 4.11 -1.48 8.06 -0 -0 0 -84.22 26.33 -9.61 10.36 -17.3 -1.58 -0 -0 14.59 -1.94 42.18 -1.3 -7.12 0 -0 -50.14 65.31 -27.64 -0 -0 0 75.44 -42.24 -0.88 -9.21 15.49 -1.26 0 0 30.5 -3.63 -10.46 0.66 7.12 -0 -0 20.26 -39.62 2.82
3.5 17.31 -18.27 186.2 10.17 -168.7 0 0 0 -8.71 -6.4 -37.71 1.11 6.68 18.77 0.15 1.55 -8.07 1.07 -6.59 -18.5 0 0 0 29.87 1.92 0.74 -1.07 -6.58 18.49 -1.66 10.34 -23.17 -0 0.17 -0.46 2.1 2.66 -0.88 2.13 3.56 1.97 1.12 1.84 2.51 -8.64 -4.03 -23.13 10.38 -4.46 11.72 4.32 -1.43 7.82 -0 0 0 -83.03 24.74 -7.96 10.86 -18.08 -1.73 -0 -0 13.34 -2.29 42.21 -1.54 -7.12 0 -0 -50.51 65.23 -27.79 -0 0 0 76.18 -39.19 -1.68 -8.75 14.76 -1.14 0 0 35.65 -3.57 -7.66 0.48 7.12 -0 -0 19.54 -36.98 4.05
3.5 17.21 -18.91 186.52 11.18 -167.37 0 0 0 -8.37 -6.92 -38.52 0.51 4.59 12.73 0.15 1.38 -8.06 1.13 -6.75 -18.96 0 0 0 29.57 0.76 1.75 -0.99 -6.35 17.79 -1.68 10.34 -23.32 -0.06 1.54 -4.23 2.06 3.05 -1.58 1.86 4.04 1.49 0.91 2.07 2.42 -9.57 -4.43 -22.6 11.41 -4.86 11.09 4.76 -1.58 7.63 0 0 0 -82.11 22.85 -7.24 11.38 -18.86 -1.9 -0 -0 13.4 -0.37 41.35 -0.24 -7.12 0 -0 -47.36 65.21 -25.67 0 0 0 77.32 -35.27 -5.07 -8.29 14.02 -1.02 0 0 43.05 -2.97 -6.14 0.32 7.12 -0 -0 19.64 -35.51 4.81
3.49 17.1 -19.58 187.74 11.81 -166.54 0 0 0 -7.96 -6.39 -39.81 0.57 4.84 13.44 0.15 1.93 -8.3 0.93 -6.15 -17.23 0 0 0 30.22 0.59 3.86 -0.95 -6.22 17.42 -1.59 10.7 -22.71 -0.02 0.83 -2.29 2.86 3.45 -1.41 1.97 4.59 1.22 0.57 2.35 2.1 -7.85 -3.74 -23.69 9.79 -4.2 12.13 4.02 -1.32 7.99 0 0 0 -80.98 19.51 -4.9 11.41 -18.91 -1.91 -0 -0 12.28 1.3 41.71 0.86 -7.12 0 -0 -46.37 65.94 -25.78 0 0 0 77.96 -29.3 -9.7 -6.67 11.37 -0.66 0 0 51.23 -5.21 -4.27 0.39 7.12 -0 -0 17.44 -33.85 4.97
3.46 16.97 -20.29 188.18 12.41 -166.38 0 0 0 -8.82 -6.33 -40.84 1.08 6.61 18.56 0.14 3.28 -9.15 0.59 -4.93 -13.71 0 0 0 29.81 0.16 5.87 -1.02 -6.43 18.03 -1.46 10.83 -21.82 -0.1 2.07 -5.69 3.06 3.84 -1.51 1.87 5.09 1.25 0.39 2.6 2.23 -8.59 -4.03 -23.97 10.12 -4.4 12.15 4.23 -1.41 8.09 -0 0 0 -80.23 14.81 -3.93 11.1 -18.44 -1.81 -0 -0 13.51 3.94 41.05 2.59 -7.12 0 -0 -42.77 66.26 -23.75 -0 0 0 78.43 -22.67 -12.92 -6.16 10.53 -0.57 0 0 58.32 -4.6 -2.78 0.22 7.12 -0 -0 17.61 -32.4 5.67
3.43 16.95 -21.06 186.96 12.53 -166.75 0 0 0 -9.87 -8.69 -41.17 1.76 8.36 23.81 -0.04 3.64 -2.27 0.53 -4.68 -12.99 0 0 0 27.67 -0.29 7.41 -1.22 -7.01 19.73 -1.05 10.96 -18.73 -0.27 3.32 -9.17 1.68 3.98 -1.45 1.38 5.29 1 0.64 2.67 1.86 -8.88 -4.16 -24.22 10.55 -4.56 12.58 4.42 -1.44 8.32 -0 -0 0 -80.03 10.15 -3.02 11.08 -18.41 -1.8 -0 -0 14.78 6.56 41.19 4.33 -7.12 0 -0 -40.42 67.15 -23.05 -0 -0 0 78.67 -15.76 -13.6 -5.98 10.23 -0.54 0 0 63.67 -4.17 -3.37 0.25 7.12 -0 -0 18.07 -32.95 5.58
