HIERARCHY
ROOT Hips
{
	OFFSET 0.00000 0.00000 0.00000
	CHANNELS 6 Xposition Yposition Zposition Zrotation Yrotation Xrotation 
	JOINT LHipJoint
	{
		OFFSET 0 0 0
		CHANNELS 3 Zrotation Yrotation Xrotation
		JOINT LeftUpLeg
		{
			OFFSET 1.29432 -1.88279 0.59910
			CHANNELS 3 Zrotation Yrotation Xrotation
			JOINT LeftLeg
			{
				OFFSET 2.63039 -7.22694 0.00000
				CHANNELS 3 Zrotation Yrotation Xrotation
				JOINT LeftFoot
				{
					OFFSET 2.70674 -7.43672 0.00000
					CHANNELS 3 Zrotation Yrotation Xrotation
					JOINT LeftToeBase
					{
						OFFSET 0.15066 -0.41394 2.09027
						CHANNELS 3 Zrotation Yrotation Xrotation
						End Site
						{
							OFFSET 0.00000 -0.00000 1.07518
						}
					}
				}
			}
		}
	}
	JOINT RHipJoint
	{
		OFFSET 0 0 0
		CHANNELS 3 Zrotation Yrotation Xrotation
		JOINT RightUpLeg
		{
			OFFSET -1.37068 -1.88279 0.59910
			CHANNELS 3 Zrotation Yrotation Xrotation
			JOINT RightLeg
			{
				OFFSET -2.57023 -7.06166 0.00000
				CHANNELS 3 Zrotation Yrotation Xrotation
				JOINT RightFoot
				{
					OFFSET -2.76461 -7.59570 0.00000
					CHANNELS 3 Zrotation Yrotation Xrotation
					JOINT RightToeBase
					{
						OFFSET -0.24175 -0.64785 2.19719
						CHANNELS 3 Zrotation Yrotation Xrotation
						End Site
						{
							OFFSET -0.00000 -0.00000 1.14803
						}
					}
				}
			}
		}
	}
	JOINT LowerBack
	{
		OFFSET 0 0 0
		CHANNELS 3 Zrotation Yrotation Xrotation
		JOINT Spine
		{
			OFFSET -0.03138 2.03983 -0.23106
			CHANNELS 3 Zrotation Yrotation Xrotation
			JOINT Spine1
			{
				OFFSET -0.00325 2.06238 -0.06878
				CHANNELS 3 Zrotation Yrotation Xrotation
				JOINT Neck
				{
					OFFSET 0 0 0
					CHANNELS 3 Zrotation Yrotation Xrotation
					JOINT Neck1
					{
						OFFSET -0.00002 1.75318 0.18090
						CHANNELS 3 Zrotation Yrotation Xrotation
						JOINT Head
						{
							OFFSET 0.08806 1.75856 -0.25387
							CHANNELS 3 Zrotation Yrotation Xrotation
							End Site
							{
								OFFSET 0.02554 1.78597 -0.10684
							}
						}
					}
				}
				JOINT LeftShoulder
				{
					OFFSET 0 0 0
					CHANNELS 3 Zrotation Yrotation Xrotation
					JOINT LeftArm
					{
						OFFSET 3.09657 1.33597 -0.04414
						CHANNELS 3 Zrotation Yrotation Xrotation
						JOINT LeftForeArm
						{
							OFFSET 5.34298 -0.00000 -0.00000
							CHANNELS 3 Zrotation Yrotation Xrotation
							JOINT LeftHand
							{
								OFFSET 3.67262 -0.00000 -0.00000
								CHANNELS 3 Zrotation Yrotation Xrotation
								JOINT LeftFingerBase
								{
									OFFSET 0 0 0
									CHANNELS 3 Zrotation Yrotation Xrotation
									JOINT LeftHandIndex1
									{
										OFFSET 0.59930 -0.00000 -0.00000
										CHANNELS 3 Zrotation Yrotation Xrotation
										End Site
										{
											OFFSET 0.48317 -0.00000 -0.00000
										}
									}
								}
								JOINT LThumb
								{
									OFFSET 0 0 0
									CHANNELS 3 Zrotation Yrotation Xrotation
									End Site
									{
										OFFSET 0.49055 -0.00000 0.49055
									}
								}
							}
						}
					}
				}
				JOINT RightShoulder
				{
					OFFSET 0 0 0
					CHANNELS 3 Zrotation Yrotation Xrotation
					JOINT RightArm
					{
						OFFSET -3.16460 1.32273 -0.23382
						CHANNELS 3 Zrotation Yrotation Xrotation
						JOINT RightForeArm
						{
							OFFSET -5.54967 -0.01834 0.03348
							CHANNELS 3 Zrotation Yrotation Xrotation
							JOINT RightHand
							{
								OFFSET -3.69401 -0.00000 0.00000
								CHANNELS 3 Zrotation Yrotation Xrotation
								JOINT RightFingerBase
								{
									OFFSET 0 0 0
									CHANNELS 3 Zrotation Yrotation Xrotation
									JOINT RightHandIndex1
									{
										OFFSET -0.63811 -0.00000 0.00000
										CHANNELS 3 Zrotation Yrotation Xrotation
										End Site
										{
											OFFSET -0.51446 -0.00000 0.00000
										}
									}
								}
								JOINT RThumb
								{
									OFFSET 0 0 0
									CHANNELS 3 Zrotation Yrotation Xrotation
									End Site
									{
										OFFSET -0.52232 -0.00000 0.52232
									}
								}
							}
						}
					}
				}
			}
		}
	}
}
MOTION
Frames: 56
Frame Time: 0.0333332
16.66 18.71 15.71 177.72 -4.98 -176.65 0 0 0 -20.27 1.26 -6.19 9.22 16.95 56.84 0.65 4.73 14.31 0.28 -3.41 -9.43 0 0 0 21.52 10.87 -15.37 -2.96 -10.64 31.07 -0.44 -5.04 -15.36 -0.32 -3.66 10.13 -2.1 -1.41 1.05 0.79 -1.93 1.76 1.99 -1.02 1.31 7.96 4.7 -7.95 0.85 5.23 3.27 -0.85 2.67 2.64 0 0 0 -90.96 -10.23 -4.31 14.74 -23.78 -3.12 -0 0 -36.42 -8.7 29.68 -4.33 -7.12 0 -0 -41.42 54.62 -11.23 0 0 0 92 -10.27 -17.84 -9.08 15.29 -1.22 0 0 39.24 -21.37 20.59 -7.84 7.12 -0 -0 4.56 -8.06 3.89
16.67 18.76 15.06 178 -2.98 -176.01 0 0 0 -19.71 0.87 -13.25 11.24 18.05 63.55 0.05 7.19 6.04 0.4 -4.04 -11.18 0 0 0 22.51 10.8 -13.31 -2.81 -10.39 30.25 -0.53 -4.34 -16 -0.16 -2.6 7.16 -1.93 -0.54 1.25 0.66 -0.77 1.63 1.77 -0.43 1 8.1 5.25 -8.52 0.71 5.9 3.25 -0.87 3 2.78 0 0 0 -92.4 -3.07 -17.89 12.87 -21.1 -2.41 -0 0 -24.9 -9.3 27.69 -4.35 -7.12 0 -0 -40.29 52.95 -9.06 0 0 0 91.52 -8.72 -10.01 -10.08 16.86 -1.5 0 0 34.44 -19.37 19.43 -6.67 7.12 -0 -0 5.76 -9.56 4.75
16.64 18.8 14.41 177.95 -0.11 -175.74 0 0 0 -19.76 1.18 -18.95 12.03 18.4 66.07 -0.15 7.76 0.96 0.01 -0.68 -1.87 0 0 0 22.69 10.37 -11.57 -2.85 -10.45 30.45 -0.64 -2.5 -16.18 -0.05 -1.38 3.79 -1.24 1.03 1.36 -0.18 1.33 1.42 0.5 0.64 0.66 8.15 5.23 -6.83 0.85 6.04 1.28 -0.89 3 1.81 -0 -0 0 -91.43 5.72 -24.91 13.32 -21.76 -2.57 -0 0 -23.25 -8.35 26.65 -3.77 -7.12 0 -0 -38.67 52.29 -7.91 -0 -0 0 91.89 -8.63 -0.84 -12.51 20.56 -2.28 0 0 26.18 -21.28 20.01 -7.59 7.12 -0 -0 4.57 -8.69 3.84
16.62 18.8 13.81 178.81 2.29 -174.9 0 0 0 -18.51 -0.04 -24.85 12.16 18.46 66.48 -0.1 5.77 -3.02 0.08 -1.87 -5.14 0 0 0 23.63 9.84 -10.72 -2.9 -10.53 30.71 -0.66 -0.95 -15.74 -0.02 -0.89 2.45 -0.41 2.27 1.2 -0.27 3.05 1.51 -0.06 1.54 0.87 7.45 5.43 -5.79 0.26 6.52 -1.6 -1 3.13 0.71 0 -0 0 -90.23 13.29 -26.03 15.24 -24.47 -3.32 -0 0 -25.24 -3.71 28.51 -1.77 -7.12 0 -0 -35.93 54.64 -9.42 0 -0 0 91.03 -8.01 6.5 -15.79 25.23 -3.55 0 0 18.73 -20.69 17.06 -6.32 7.12 -0 -0 4.76 -11.87 3.69
16.61 18.82 13.24 178.94 3.5 -174.62 0 0 0 -17.89 -2.47 -28.7 11.16 18.01 63.28 -0.01 3.9 -5.28 0.05 -1.38 -3.8 0 0 0 23.78 9.04 -9.17 -2.86 -10.46 30.47 -0.65 -0.01 -15.23 -0 -0.42 1.17 -0.67 3.43 1.58 -0.44 4.62 1.71 -0.12 2.32 0.85 6.78 5.63 -4.74 0.03 6.93 -4.01 -1.01 3.24 -0.22 -0 -0 0 -86.89 19.5 -26.17 16.01 -25.54 -3.65 -0 0 -20.91 -6.69 26.83 -3.03 -7.12 0 -0 -37.34 52.73 -8 -0 -0 0 89.8 -7.66 11.23 -19.35 29.85 -5.2 0 0 12.83 -19.95 13.16 -4.72 7.12 -0 -0 5.08 -16.05 3.49
16.58 18.9 12.65 179.58 4.62 -173.5 0 0 0 -16.6 -5.29 -32.1 9.35 17.03 57.29 0.04 3.51 -6.66 0 -0.2 -0.54 0 0 0 24.05 8.26 -8.14 -2.65 -10.1 29.32 -0.53 1.18 -13.39 -0 -0.37 1.01 -0.13 4.35 1.79 -0.61 5.83 1.4 -0.63 2.93 0.49 6.23 5.79 -5.47 -0.39 7.08 -4.59 -1.03 3.3 -0.27 -0 0 0 -82.82 24.46 -27.28 16.05 -25.59 -3.67 -0 0 -14.5 -10.98 24.73 -4.64 -7.12 0 -0 -39.53 50.31 -6 -0 0 0 88.11 -7.33 15.12 -22.76 33.83 -7 0 0 8.36 -26.35 19.94 -9.59 7.12 -0 -0 1.32 -7.94 1.12
16.57 18.99 12.08 180.02 3.62 -173.27 0 0 0 -15.03 -9.11 -32.76 6.96 15.3 48.73 0.08 2.92 -7.16 0.07 1.66 4.57 0 0 0 24.67 7.02 -5.42 -2.3 -9.46 27.23 -0.41 0.62 -11.94 -0.02 0.8 -2.2 -0.33 4.54 2.3 -0.4 6.1 1.6 -0.34 3.07 0.37 5.3 5.72 -5.56 -0.51 7.01 -5.38 -0.93 3.26 -0.54 0 0 0 -78.11 28.59 -24.93 15.87 -25.35 -3.59 -0 0 -10.76 -13.34 24.24 -5.56 -7.12 0 -0 -41.16 49.55 -5.45 0 0 0 86.24 -6.26 16.75 -25.62 36.83 -8.66 0 0 6.06 -27.36 21.64 -10.8 7.12 -0 -0 0.88 -5.91 0.78
16.54 19.03 11.48 180.64 2.93 -172.97 0 0 0 -13.65 -12.19 -32.47 4.55 12.86 38.83 -0.03 5.43 -6.91 0.04 -1.22 -3.34 0 0 0 25.29 6.16 -2.77 -1.96 -8.77 25.09 -0.32 0.85 -10.4 -0.06 1.56 -4.29 -0.04 4.74 2.18 -0.28 6.37 1.84 -0.35 3.21 0.7 5.06 5.59 -6.09 -0.94 6.82 -5.24 -1.01 3.17 -0.4 0 -0 0 -72.92 31.29 -22.62 14.58 -23.56 -3.06 -0 0 -5.05 -17.54 21.92 -6.73 -7.12 0 -0 -42.95 47.08 -2.7 0 -0 0 84.52 -4.64 17.74 -27.56 38.71 -9.85 0 0 5.24 -27 21.55 -10.6 7.12 -0 -0 1.09 -6.08 0.97
16.52 19.04 10.85 181.07 3.09 -172.79 0 0 0 -13.07 -13.11 -30.98 2.33 9.53 27.47 -0.15 7.67 -6.35 0.01 -0.47 -1.3 0 0 0 25.3 5.05 -0.39 -1.71 -8.23 23.42 -0.25 2.37 -8.88 -0.14 2.42 -6.67 -0.26 4.88 2.23 -0.24 6.61 2.52 -0.17 3.34 1.34 4.59 5.58 -8.45 -1.06 6.62 -4.91 -0.91 3.05 0.07 0 -0 0 -68.74 32.41 -19.55 13.29 -21.71 -2.56 -0 -0 0.17 -20.67 20.76 -7.62 -7.12 0 -0 -44.56 45.71 -0.98 0 -0 0 82.81 -1.79 18.82 -29.01 40.03 -10.77 0 0 4.47 -26.01 22.61 -10.62 7.12 -0 -0 1.84 -5.13 1.67
16.5 19 10.23 181.2 2.94 -172.38 0 0 0 -13.18 -13.02 -28.81 0.7 5.33 14.85 -0.21 8.07 -1.94 0.15 -2.48 -6.82 0 0 0 24.93 3.36 1.64 -1.48 -7.7 21.8 -0.16 3.65 -7.09 -0.17 2.63 -7.25 -0.28 4.98 1.96 -0.52 6.7 2.01 -0.45 3.38 1 4.19 5.15 -6.27 -0.57 6.26 -5.57 -0.76 2.9 -0.53 -0 0 0 -64.52 34.88 -15.42 12.1 -19.95 -2.14 -0 -0 4.58 -22.33 17.45 -7.02 -7.12 0 -0 -43.66 42.86 2.94 -0 0 0 81.65 -1.45 19.91 -29.74 40.67 -11.24 0 0 5.11 -27.02 23.44 -11.47 7.12 -0 -0 1.32 -4.03 1.23
16.47 18.91 9.59 181.99 4.13 -171.75 0 0 0 -12.55 -11.36 -25.14 0.01 0.61 1.68 -0.24 10.64 2.8 0.08 -1.83 -5.05 0 0 0 25.23 2.95 4.36 -1.19 -6.91 19.46 -0.08 4.39 -5.49 -0.2 2.89 -7.96 -0.4 5.23 1.55 -0.48 7.08 2.56 -0.27 3.57 1.77 3.65 4.85 -9.33 -0.15 5.67 -4.93 -0.48 2.58 0.12 -0 0 0 -63.49 34.34 -14.02 11.74 -19.42 -2.02 -0 -0 8.71 -22.49 19.83 -7.99 -7.12 0 -0 -45.26 44.72 0.4 -0 0 0 80.67 1.4 20.36 -30.03 40.92 -11.43 0 0 5.49 -27.89 24.75 -12.5 7.12 -0 -0 0.97 -2.43 0.93
16.41 18.84 8.89 181.85 5.04 -171.47 0 0 0 -12.63 -11.12 -24.73 0 -0 -0 -0.39 12.22 1.16 0 0.34 0.92 0 0 0 24.47 1.96 6.44 -1.07 -6.56 18.43 -0.03 4.53 -4.25 -0.06 1.55 -4.26 -0.54 5.42 0.95 -0.95 7.31 2.13 -0.63 3.68 1.71 3.27 4.24 -6.86 0.73 5.04 -6.41 -0.24 2.25 -0.78 -0 -0 0 -62.96 34.49 -16.25 10.96 -18.22 -1.76 -0 -0 12.67 -22.15 19.53 -7.75 -7.12 0 -0 -44.83 44.53 0.66 -0 -0 0 80.53 1.24 21.23 -31.03 41.76 -12.09 0 0 4.69 -27.8 19.62 -10.04 7.12 -0 -0 0.35 -8.03 0.3
16.36 18.71 8.14 181.21 6.13 -171.62 0 0 0 -13.69 -10.47 -22.86 0 0 0 -0.3 11.76 2.87 0 0.19 0.54 0 0 0 23.25 0.96 7.93 -1.24 -7.07 19.93 -0.02 4.6 -3.98 -0.4 4.06 -11.24 -1.29 5.55 1 -1.72 7.5 1.9 -1.03 3.78 1.46 3.32 3.63 -6.21 1.87 4.25 -7.28 0.07 1.8 -1.19 -0 0 0 -63.79 33.06 -21.71 9.85 -16.5 -1.43 -0 -0 15.08 -18.44 19.13 -6.24 -7.12 0 -0 -41.86 44.73 0.34 -0 0 0 81.39 1.33 21.18 -30.93 41.68 -12.02 0 0 5.31 -27.69 22.81 -11.5 7.12 -0 -0 0.82 -4.58 0.75
16.31 18.53 7.31 181.9 7.19 -171.66 0 0 0 -12.81 -11.13 -25.41 0.39 4.03 11.16 -0.28 9.66 -0.77 0.04 -1.34 -3.69 0 0 0 23.96 1.87 11.17 -1.25 -7.1 20 -0.01 2.42 -2.56 -0.39 4.01 -11.1 -1.15 5.39 0.14 -1.77 7.31 1.86 -1.06 3.68 1.93 2.57 3.15 -6.97 3.42 3.6 -7.02 0.67 1.46 -1.03 0 0 0 -67.16 31.12 -30.66 9.11 -15.33 -1.23 -0 -0 15.04 -15.23 17.51 -4.68 -7.12 0 -0 -38.48 43.85 1.31 0 0 0 82.06 1.08 21.86 -30.55 41.36 -11.77 0 0 6.07 -28.41 23.28 -12.07 7.12 -0 -0 0.44 -3.92 0.41
16.23 18.52 6.42 180.27 8.59 -171.51 0 0 0 -15.1 -11.21 -26.46 0.85 5.88 16.42 -0.46 12.45 -0.61 0.02 -0.98 -2.69 0 0 0 22.2 3.84 13.42 -1.34 -7.34 20.73 -0.01 -0.89 1.44 -0.37 3.91 -10.82 -3.09 4.96 -1.12 -2.42 6.83 1.52 -0.57 3.42 2.13 1.57 2.65 -7.79 5.08 2.94 -6.87 1.36 1.13 -0.89 0 -0 0 -72.17 28.85 -35.9 9.49 -15.93 -1.33 -0 -0 10.9 -10.61 20.77 -3.8 -7.12 0 -0 -36.65 47.15 -2.23 0 -0 0 83.3 0.24 22.7 -30.3 41.15 -11.61 0 0 6.62 -27.42 23.21 -11.55 7.12 -0 -0 1.05 -4.2 0.97
16.16 18.51 5.65 178.03 8.11 -171.58 0 0 0 -19.22 -8.98 -27.02 1.28 7.18 20.24 -0.19 7.68 -2.29 0 -0.16 -0.44 0 0 0 20.2 5.2 10.99 -2.32 -9.51 27.41 -0.09 -6.04 6.37 -0.02 1 -2.76 -4.99 4.11 -0.67 -3.56 5.78 0.98 -0.78 2.94 1.26 1.19 1.75 -8.79 6.43 1.67 -6.3 1.85 0.5 -0.54 -0 0 0 -75.94 24.53 -39.42 9.8 -16.42 -1.42 -0 -0 5.55 -8.1 22.71 -3.15 -7.12 0 -0 -35.73 49.11 -4.11 -0 0 0 85.95 -1.02 21.3 -28.6 39.66 -10.5 0 0 7.24 -27.34 24.1 -11.92 7.12 -0 -0 1.22 -3.26 1.15
16.08 18.51 4.91 177.69 8.6 -172.39 0 0 0 -20.85 -7.36 -25.41 1.66 8.13 23.1 -0.07 5.58 -5.19 0.05 -1.44 -3.97 0 0 0 19.15 6.15 7.43 -3.96 -12.11 36.11 -0.62 -8.47 14.33 -0.01 -0.47 1.29 -4.91 3.63 -0.48 -3.59 5.13 1 -0.87 2.61 1.21 -0.74 0.71 -7.21 7.99 0.55 -7.39 2.69 -0.1 -1.13 0 0 0 -81.04 19.11 -37.63 10.81 -17.99 -1.72 -0 0 -8.56 -2.17 26.46 -0.97 -7.12 0 -0 -32.99 53.22 -7.3 0 0 0 87.25 -2.71 20.8 -26.94 38.12 -9.46 0 0 7.33 -27.3 23.15 -11.47 7.12 -0 -0 1.11 -4.29 1.02
15.99 18.55 4.23 176.86 9.48 -173.25 0 0 0 -22.95 -5.69 -22.44 1.7 8.2 23.33 0.01 5.18 -7.61 0.16 -2.58 -7.1 0 0 0 17.57 7.95 2.84 -6.22 -14.64 45.85 -0.87 -12.21 17.56 -0.35 -3.8 10.5 -5.14 3.26 -0.16 -3.99 4.69 1.3 -1.18 2.41 1.37 -1.02 0.03 -8.64 8.37 -0.43 -6 2.84 -0.5 -0.39 -0 0 0 -85.17 11.99 -34.06 12.35 -20.33 -2.22 -0 0 -22.37 -0.06 29.54 -0.03 -7.12 0 -0 -33.37 56.21 -9.95 -0 0 0 88.52 -2.29 20.67 -23.63 34.77 -7.49 0 0 7.58 -26.66 21.95 -10.63 7.12 -0 -0 1.35 -5.71 1.21
15.91 18.61 3.55 175.48 9.35 -174.46 0 0 0 -25.57 -4.11 -18.51 1.51 7.76 21.98 0.1 4.36 -9.22 0.1 -2 -5.51 0 0 0 14.89 7.39 -2.3 -8.37 -16.39 53.9 -0.52 -11.8 14.31 -0.11 -2.14 5.9 -6.51 2.15 0.39 -3.87 3.16 1.02 -0.34 1.66 0.72 -1.46 -1.13 -7.28 8.88 -0.63 -4.85 3.08 -0.01 -0.24 -0 0 0 -89.66 6.95 -27.71 14.93 -24.04 -3.2 -0 0 -36.44 -1.16 30.08 -0.58 -7.12 0 -0 -34.87 56.43 -10.67 -0 0 0 87.83 -3.01 22.65 -20.43 31.16 -5.75 0 0 9.9 -23.01 19.64 -8.13 7.12 -0 -0 3.43 -8.82 2.87
15.87 18.65 2.93 174.43 8.53 -174.5 0 0 0 -27.35 -3.81 -15.88 1.4 7.48 21.14 0.21 3.54 -10.67 0.04 -1.22 -3.34 0 0 0 12.42 6.07 -9 -10.3 -17.58 60.49 -0.02 -10.83 7.95 -0.18 -2.75 7.59 -7.86 1.13 -0.05 -3.83 1.85 0.72 0.46 1 0.67 -2.24 -1.35 -7.76 10.29 -1.18 -2.23 3.72 -0.23 0.74 -0 -0 0 -92.14 1.19 -18.88 18.81 -29.19 -4.94 -0 0 -48.27 -1.6 31.49 -0.84 -7.12 0 -0 -36.52 57.48 -12.25 -0 -0 0 87.78 -3.21 22.32 -17.67 27.73 -4.4 0 0 16.48 -21.67 22.99 -8.82 7.12 -0 -0 4.58 -5.5 4.14
15.85 18.62 2.33 174 7.99 -174.6 0 0 0 -28.43 -2.16 -14.02 1.36 7.38 20.83 0.32 2.01 -11.69 0.02 -0.94 -2.59 0 0 0 11.06 5.84 -15.06 -11.5 -18.17 64.4 0.16 -9.46 3.25 -0.14 -2.42 6.66 -8.75 0.26 -0.46 -3.54 0.71 0.5 1.25 0.43 0.74 -2.78 -1.51 -7.28 11.39 -1.51 -0.94 4.21 -0.36 1.13 -0 -0 0 -93.06 -5 -11.04 23.21 -34.32 -7.26 -0 0 -57.25 -1.55 31.1 -0.8 -7.12 0 -0 -36.12 57.18 -11.82 -0 -0 0 87.82 -4.27 21.72 -16.8 26.59 -4 0 0 20.11 -16.67 20.37 -5.95 7.12 -0 -0 7.56 -8.94 6.35
15.83 18.59 1.75 173.4 6.39 -175.16 0 0 0 -29.35 -1.34 -11.97 1.45 7.62 21.55 0.37 0.62 -11.79 0.06 -1.53 -4.22 0 0 0 9.98 5.24 -19.71 -11.8 -18.3 65.35 0.24 -8.69 -2.17 -0.12 -2.2 6.07 -9.32 -0.57 0.03 -3.57 -0.43 0.49 1.52 -0.12 0.56 -3 -1.95 -6.55 13.31 -2.12 -0.24 4.43 -0.6 1.21 0 0 0 -92.06 -12.24 -4.36 26.9 -38.08 -9.44 -0 0 -61.49 -1.05 31.48 -0.55 -7.12 0 -0 -36 57.6 -12.15 0 0 0 88.4 -5.81 19.43 -15.94 25.44 -3.62 0 0 22.23 -15.63 21.5 -5.86 7.12 -0 -0 8.27 -7.92 7.13
15.84 18.52 1.2 172.6 5.63 -175.3 0 0 0 -30.41 -1.05 -10.62 1.64 8.07 22.94 0.48 -0.35 -13.03 0.07 -1.71 -4.71 0 0 0 8.79 6.21 -24.26 -11.34 -18.1 63.89 0.09 -7.28 -7.97 -0.09 -1.91 5.26 -10.47 -1.07 0.34 -3.6 -1.12 0.25 2.13 -0.44 0.22 -3.78 -2.21 -6.16 15.09 -2.49 0.63 5.1 -0.7 1.47 0 0 0 -90.25 -20.31 -0.35 29.44 -40.41 -11.04 -0 0 -63.11 1.62 32.06 0.86 -7.12 0 -0 -33.98 58.66 -12.24 0 0 0 88.98 -7.87 17.57 -15.51 24.85 -3.44 0 0 20.71 -19.29 21.89 -7.43 7.12 -0 -0 5.98 -7.02 5.24
15.88 18.5 0.64 172.6 4.43 -175.2 0 0 0 -30.31 -0.24 -8.98 1.69 8.2 23.32 0.57 -2.31 -13.64 0.27 -3.36 -9.29 0 0 0 8.61 7.67 -27.35 -9.87 -17.34 59.07 -0.13 -6.29 -11.88 -0 0.15 -0.41 -10.95 -1.62 0.42 -3.29 -1.88 0.35 2.7 -0.83 0.4 -3.87 -2.38 -6.25 15.8 -2.7 0.84 5.33 -0.76 1.59 -0 0 0 -87.78 -29.25 1.83 31.03 -41.76 -12.09 -0 0 -61.82 2.96 33.18 1.62 -7.12 0 -0 -33.75 59.88 -13.15 -0 0 0 89.51 -8.81 14.44 -14.6 23.59 -3.06 0 0 19.27 -21.72 21.31 -8.24 7.12 -0 -0 4.4 -7.26 3.82
15.93 18.51 0.07 172.04 3.98 -175 0 0 0 -30.83 0.18 -6.58 1.53 7.81 22.13 0.54 -1.46 -13.43 0.48 -4.43 -12.29 0 0 0 7.53 9.42 -29.76 -7.91 -16.05 52.22 -0.31 -6.25 -14.59 -0.02 -0.81 2.24 -11.77 -2.16 0.55 -3.35 -2.59 0.29 3.08 -1.17 0.39 -4 -2.44 -6.52 16.54 -2.78 1.15 5.58 -0.73 1.75 0 0 0 -83.58 -37.67 -0.16 31.8 -42.39 -12.61 -0 0 -62.6 0.19 31.18 0.1 -7.12 0 -0 -34.54 57.62 -11.58 0 0 0 90.6 -9.54 11.01 -13.81 22.46 -2.75 0 0 19.79 -25.62 18.25 -8.54 7.12 -0 -0 1.61 -9.9 1.31
16 18.55 -0.52 171.42 3.6 -174.66 0 0 0 -31.35 0.71 -3.48 1.18 6.9 19.41 0.46 -0.87 -12.6 0.71 -5.4 -15.06 0 0 0 6.18 12.32 -30.41 -5.59 -14.02 43.32 -0.11 -9.66 -15.52 -0.01 0.58 -1.59 -12.86 -2.49 0.44 -3.19 -3.01 0.25 3.83 -1.38 0.53 -3.92 -2.46 -6.87 16.36 -2.81 1.06 5.51 -0.75 1.78 0 0 0 -79.01 -42.53 -0.68 35.4 -45.1 -15.1 -0 0 -64.06 -0.05 30.75 -0.02 -7.12 0 -0 -34.39 57.21 -11.18 0 0 0 91.1 -10.56 8.75 -13.49 22 -2.63 0 0 20.04 -22.97 19.55 -8.07 7.12 -0 -0 3.45 -8.92 2.87
16.06 18.59 -1.13 171.34 3.75 -173.77 0 0 0 -31.24 1.91 -0.68 0.78 5.64 15.75 0.35 -0.68 -10.91 0.98 -6.29 -17.63 0 0 0 4.71 16.06 -30.53 -3.44 -11.38 33.57 0.08 -12.27 -16.34 -0.08 -1.78 4.89 -12.89 -2.72 -0.15 -3 -3.26 -0.03 4.02 -1.51 0.62 -4.25 -2.5 -7.23 16.39 -2.85 0.98 5.57 -0.76 1.83 0 0 0 -74.5 -44.16 0.12 39.94 -48.04 -18.4 -0 0 -64.97 1.13 12.52 0.24 -7.12 0 -0 -23.01 41.31 2.23 0 0 0 91.24 -11.56 6.95 -12.72 20.88 -2.35 0 0 21.23 -22.81 18.91 -7.76 7.12 -0 -0 3.49 -9.62 2.87
16.15 18.65 -1.77 170.38 3.38 -173.38 0 0 0 -31.8 3.63 4.54 0.23 3.12 8.61 0.14 0.1 -7.1 0.89 -6.02 -16.85 0 0 0 2.09 18.65 -30.17 -1.93 -8.72 24.92 0.04 -11.86 -16.27 -0.01 -0.54 1.48 -13.78 -3.03 -0.19 -3 -3.66 -0.26 4.5 -1.68 0.53 -4.65 -2.4 -7.93 16.35 -2.73 1.31 5.63 -0.67 2.03 -0 -0 0 -69.88 -45.49 -2.15 43.84 -50.19 -21.34 -0 0 -61.93 1.89 17.82 0.58 -7.12 0 -0 -24.44 46.25 -0.8 -0 -0 0 91.07 -12.67 5.07 -12.14 20.02 -2.15 0 0 25.25 -20.15 20.31 -7.26 7.12 -0 -0 5.32 -8.53 4.49
16.24 18.63 -2.43 170.15 2.94 -172.93 0 0 0 -31.26 5.48 10.56 0 0 0 0 1.16 -2.08 1.02 -6.41 -17.99 0 0 0 -1.17 24.86 -29.33 -1.17 -6.88 19.35 0.02 -13.43 -18.82 -0.01 0.79 -2.18 -13.98 -3.22 -0.76 -2.76 -3.82 -0.27 4.81 -1.79 0.89 -4.51 -2.29 -8.15 15.81 -2.57 0.98 5.45 -0.62 1.94 0 0 0 -65.08 -46.14 -6.32 47.55 -51.96 -24.23 -0 0 -63.04 -3.61 31.69 -1.9 -7.12 0 -0 -38.59 57.22 -12.83 0 0 0 91.04 -13.1 3.27 -11.1 18.44 -1.81 0 0 26.18 -18.21 20.04 -6.43 7.12 -0 -0 6.55 -9.09 5.47
16.34 18.57 -3.1 170.3 2.46 -172.95 0 0 0 -30.37 6.08 12.89 0 0 0 0.01 0.56 -1.81 1.47 -7.67 -21.7 0 0 0 -1.34 25.53 -29.06 -0.95 -6.2 17.35 -0.08 -12.71 -19.03 -0.1 1.99 -5.47 -13.48 -3.28 -0.53 -2.58 -3.97 -0.15 4.74 -1.89 0.9 -4.31 -2.22 -9.04 15.47 -2.46 0.9 5.31 -0.54 2.04 -0 0 0 -60.74 -46.12 -8.8 48.99 -52.58 -25.37 -0 0 -60.77 -3.86 28.64 -1.85 -7.12 0 -0 -36.18 54.72 -9.57 -0 0 0 90.89 -13.71 2.29 -10.49 17.5 -1.62 0 0 28.25 -18.13 24.51 -7.73 7.12 -0 -0 6.91 -4.51 6.4
16.48 18.48 -3.8 169.64 2.01 -173.61 0 0 0 -30.08 6.87 15.76 0 0 0 0 -0.04 -0.05 0.98 -6.31 -17.7 0 0 0 0.27 21.68 -29.29 -1.17 -6.86 19.29 -0.02 -10.76 -15.56 -0.05 1.39 -3.82 -14.05 -3.13 0.02 -2.55 -3.82 0.21 5.1 -1.83 0.98 -4.2 -2.36 -9.54 15.27 -2.58 0.44 5.22 -0.59 2 -0 0 0 -57.97 -45.59 -10.1 49.4 -52.75 -25.69 -0 0 -58.18 -5.9 29.41 -2.9 -7.12 0 -0 -38.67 54.95 -10.62 -0 0 0 91.11 -13.87 -0.95 -9.94 16.65 -1.46 0 0 31.46 -17.18 25.55 -7.59 7.12 -0 -0 7.58 -3.6 7.15
16.64 18.34 -4.57 169.61 1.06 -173.66 0 0 0 -29.33 5.77 14.76 0.17 2.65 7.3 0 -1.4 -1.06 1.74 -8.3 -23.64 0 0 0 2.64 18.14 -28.95 -1.51 -7.75 21.97 -0.04 -9.56 -14.29 -0.16 2.61 -7.19 -14.14 -3.31 -0.74 -2.24 -3.93 0.37 5.42 -1.94 1.62 -4.19 -2.22 -9.19 14.9 -2.3 -0.22 5.12 -0.51 1.71 -0 -0 0 -55.93 -44.15 -10.62 47.97 -52.14 -24.56 -0 0 -55.18 -8.95 29.25 -4.4 -7.12 0 -0 -41.27 54.24 -10.76 -0 -0 0 91.14 -13.9 -4.43 -9.28 15.6 -1.27 0 0 34.59 -18.48 24.91 -8.01 7.12 -0 -0 6.73 -4.05 6.28
16.81 18.28 -5.43 169.78 -0.45 -173.65 0 0 0 -28.13 4.88 16.23 0.3 3.53 9.75 0.01 -0.48 2 1.4 -7.49 -21.18 0 0 0 4.45 16.77 -27.32 -1.8 -8.44 24.06 0.3 -11.31 -10.51 -0.11 2.12 -5.85 -13.24 -3.2 -1.15 -2.25 -4.37 -0.3 4.9 -2.34 1.11 -4.27 -2.2 -8.39 14.96 -2.42 0.68 5.14 -0.58 1.86 0 -0 0 -55.6 -41.31 -8.7 44.45 -50.5 -21.81 -0 0 -52.28 -9.88 26.2 -4.4 -7.12 0 -0 -39.66 51.67 -7.5 0 -0 0 91.6 -15.22 -7.73 -8.85 14.92 -1.16 0 0 36.11 -17.68 23.14 -7.14 7.12 -0 -0 7.09 -5.97 6.36
16.96 18.29 -6.29 171.78 -1.45 -174.01 0 0 0 -25.55 3.55 15.3 0.82 5.76 16.09 0.12 1.77 6.04 1.05 -6.51 -18.27 0 0 0 8.01 16.14 -25.84 -2.13 -9.14 26.22 0.48 -12.3 -6.14 -0.02 0.81 -2.23 -10.82 -3.22 -1.82 -1.59 -4.22 -0.26 4.24 -2.23 1.39 -3.94 -2.24 -9.18 14.23 -2.65 1.71 4.85 -0.67 2.29 0 0 0 -56.51 -38.38 -5.23 40.59 -48.42 -18.88 -0 0 -52.13 -9.93 24.79 -4.2 -7.12 0 -0 -38.68 50.53 -6.06 0 0 0 91.65 -14.99 -11.57 -8.44 14.26 -1.06 0 0 38.92 -17.94 23.75 -7.43 7.12 -0 -0 6.97 -5.31 6.34
17.07 18.25 -7.05 175 -1.6 -174.88 0 0 0 -21.57 7.03 11.33 2.6 10.01 29.01 -0.1 -7.69 8.46 7.53 -15.76 -50.84 0 0 0 13.83 10.85 -25.23 -2.63 -10.08 29.23 0.02 -5.65 -7.29 -0.07 1.66 -4.57 -7.16 -2.93 -1.23 -0.45 -3.85 -0.08 3.44 -1.97 1.05 -3.2 -2.15 -9.83 12.67 -2.62 1.8 4.24 -0.7 2.38 -0 -0 0 -59.31 -34.92 -0.91 36.28 -45.71 -15.72 -0 0 -54.67 -15.78 40.14 -10.33 -7.12 0 -0 -59.15 60.27 -27.41 -0 -0 0 90.84 -13.34 -16.92 -7.63 12.95 -0.87 0 0 43.89 -17.83 23.33 -7.26 7.12 -0 -0 7.01 -5.76 6.32
17.18 18.29 -7.75 176.06 -2.47 -175.74 0 0 0 -20.6 0.69 5.34 4.68 13.02 39.43 0.93 8.47 17.31 0.09 -1.91 -5.26 0 0 0 16.22 8.1 -22.72 -2.78 -10.34 30.07 -0.14 -3.82 -9.53 -0.08 1.87 -5.15 -5.83 -2.77 -0.24 0.02 -3.69 0.2 3.24 -1.87 0.71 -2.37 -2.11 -10.06 11.92 -2.59 1.4 3.87 -0.71 2.27 0 0 0 -65.76 -28.57 4.09 35.55 -45.2 -15.2 -0 0 -58.69 -10.67 69.37 -10 -7.12 0 -0 -99.61 -69.54 121.78 0 0 0 90.31 -11.83 -18.25 -7.61 12.92 -0.86 0 0 45.06 -17.57 24.02 -7.35 7.12 -0 -0 7.22 -5.09 6.6
17.32 18.31 -8.43 176.47 -3.31 -176.39 0 0 0 -19.85 -1.16 0.13 7.27 15.56 49.89 0.41 10.05 12.49 0.01 -0.66 -1.8 0 0 0 17.73 8.33 -19.16 -2.84 -10.42 30.36 -0.2 -5.35 -12.16 -0.15 2.52 -6.94 -5.59 -2.24 0.09 0.14 -2.99 0.77 3.24 -1.55 1.04 -2.06 -2.38 -10.72 12.29 -2.99 1.76 3.92 -0.83 2.52 -0 0 0 -72.37 -25.17 5.44 29.93 -40.83 -11.36 -0 0 -55.6 -8.77 43.13 -6.02 -7.12 0 -0 -57.69 63.92 -31.26 -0 0 0 90.12 -9.93 -17.27 -7.83 13.28 -0.91 0 0 44.59 -16.74 18.78 -5.53 7.12 -0 -0 7.44 -10.56 6
17.42 18.33 -9.07 177.33 -3.36 -177.31 0 0 0 -18.99 -2.13 -4.97 9.51 17.13 57.85 0.05 10.45 8.11 0.09 -1.93 -5.32 0 0 0 19.81 7.13 -15.56 -2.71 -10.2 29.64 -0.32 -5.49 -14.14 -0.06 1.64 -4.52 -4.26 -1.69 1.12 -0.02 -2.31 1.13 2.37 -1.2 0.7 -1.68 -2.51 -11.21 12.86 -3.28 2.52 4.01 -0.88 2.85 0 0 0 -77.33 -20.34 5.65 23.55 -34.69 -7.45 -0 0 -52.72 -6.08 23.84 -2.47 -7.12 0 -0 -34.71 50.37 -5.14 0 0 0 90.22 -8.21 -13.08 -8.33 14.09 -1.03 0 0 41.47 -19.18 19.05 -6.48 7.12 -0 -0 5.87 -9.98 4.79
17.46 18.35 -9.69 177.91 -2.34 -176.93 0 0 0 -18.56 -2.5 -11.1 11.03 17.95 62.88 -0.13 10.23 4.7 0.04 1.35 3.72 0 0 0 21.03 6.02 -13.84 -2.6 -10.02 29.04 -0.44 -4.52 -15.02 -0.08 1.86 -5.11 -2.91 -1.03 0.67 -0.13 -1.4 1.15 1.49 -0.73 0.87 -1.19 -2.24 -11.94 12.24 -3.16 3.95 3.75 -0.77 3.37 0 -0 0 -82.74 -16.44 -5.87 17.57 -27.6 -4.35 -0 0 -43.87 -4.19 38.76 -2.63 -7.12 0 -0 -47.11 62.37 -22.47 0 -0 0 89.24 -6.27 -5.29 -9.02 15.19 -1.2 0 0 35.28 -21.1 20.39 -7.66 7.12 -0 -0 4.72 -8.32 4
17.49 18.36 -10.28 178.98 -0.85 -176.34 0 0 0 -17.48 -2.4 -17.43 11.77 18.29 65.25 -0.2 8.81 0.74 0.38 3.95 10.93 0 0 0 22.61 5.29 -12.63 -2.58 -9.98 28.91 -0.53 -3.53 -15.51 -0.15 2.51 -6.91 -1.19 -0.6 0.89 -0.25 -0.82 1.09 0.41 -0.42 0.63 -0.25 -1.66 -12.7 11.27 -2.57 4.66 3.34 -0.47 3.64 0 0 0 -86.06 -9.87 -20.15 14.53 -23.49 -3.04 -0 0 -35.21 9.9 51.67 7.79 -7.12 0 -0 -63.09 74.48 -48 0 0 0 88.64 -3.74 1.72 -10.87 18.09 -1.74 0 0 30.89 -16.8 18.98 -5.61 7.12 -0 -0 7.41 -10.35 6.01
17.5 18.33 -10.85 179.45 1.37 -175.81 0 0 0 -17.56 -2.61 -22.78 11.48 18.16 64.33 -0.11 6.31 -4.71 0.03 1.02 2.8 0 0 0 23.12 4.96 -11.96 -2.77 -10.32 30.02 -0.69 -1.37 -16.24 -0.04 1.26 -3.47 -0.19 0.12 1.63 -0.46 0.18 1.09 -0.37 0.1 0.21 -0.14 -1.35 -14.2 10.64 -2.26 5.35 3.16 -0.29 4.06 -0 -0 0 -88.77 -1.87 -30.64 13.91 -22.6 -2.79 -0 0 -28.75 8.94 45.73 6.43 -7.12 0 -0 -46.99 71.06 -31.25 -0 -0 0 87.63 -2.35 10.17 -13.93 22.63 -2.8 0 0 21.64 -20.18 22.24 -7.92 7.12 -0 -0 5.45 -6.52 4.82
17.51 18.32 -11.42 179.83 3.57 -175.15 0 0 0 -17.49 -2.86 -26.96 10.14 17.49 59.97 0.01 5.51 -8.18 0.15 2.52 6.95 0 0 0 23.3 4.27 -11.16 -2.84 -10.43 30.39 -0.73 0.82 -15.86 -0.2 2.85 -7.85 0.34 0.84 2.25 -0.65 1.16 1.24 -0.88 0.6 0.03 -0.06 -1.43 -14.49 9.83 -2.2 3.99 2.89 -0.36 3.67 0 -0 0 -90.1 6.48 -37.15 14.45 -23.37 -3 -0 0 -27.8 -15.55 25.6 -6.85 -7.12 0 -0 -43.98 50.25 -6.86 0 -0 0 86.55 -1.15 15.99 -18.03 28.2 -4.56 0 0 15.08 -20.77 19.09 -7.07 7.12 -0 -0 4.83 -9.73 3.96
17.51 18.36 -12.02 180.49 5.8 -174.02 0 0 0 -17.05 -3.79 -29.86 7.96 16.09 52.41 0.08 5.98 -10.38 0.05 1.49 4.09 0 0 0 23.8 5.28 -9.26 -2.6 -10.03 29.06 -0.7 1.32 -15.38 -0.1 2.04 -5.61 1.01 1.86 2.31 -0.82 2.54 1.23 -1.46 1.29 0.05 -0.77 -1.16 -14.29 9.61 -2.54 1.96 2.88 -1.06 3.04 -0 0 0 -89.53 15.04 -35.88 16.09 -25.65 -3.69 -0 0 -32.73 -13.37 27.96 -6.36 -7.12 0 -0 -44.02 52.43 -9.56 -0 0 0 85.44 -0.7 18.98 -22.54 33.58 -6.88 0 0 9.29 -24.6 22.75 -10.04 7.12 -0 -0 2.73 -5.25 2.48
17.52 18.38 -12.6 180.63 6.69 -172.78 0 0 0 -16.6 -5.64 -31.07 5.27 13.68 41.98 0.08 7.33 -12.1 0.3 3.5 9.69 0 0 0 23.82 5.22 -7.83 -2.36 -9.57 27.61 -0.62 1.15 -14.52 -0.53 4.64 -12.9 1.06 2.72 2.39 -1.07 3.67 0.78 -1.79 1.85 -0.4 -1.85 -2.1 -12.6 9.55 -3.43 -0.58 3.29 -1.65 2.28 0 -0 0 -86.91 23.9 -31.08 17.66 -27.72 -4.39 -0 0 -31.93 -14.59 28.2 -7.01 -7.12 0 -0 -45.25 52.4 -9.89 0 -0 0 84.49 -1.4 19.74 -27.19 38.36 -9.62 0 0 5.05 -28.09 24.4 -12.43 7.12 -0 -0 0.8 -2.77 0.76
17.54 18.43 -13.2 181.27 7.64 -171.91 0 0 0 -15.26 -7.67 -30.67 2.83 10.41 30.31 -0.28 11.28 -10.89 0.05 1.42 3.89 0 0 0 24.29 5.16 -5.3 -1.98 -8.83 25.27 -0.51 1.42 -13.09 -0.8 5.72 -15.97 1 3.42 2.34 -1.09 4.6 1.13 -1.78 2.32 0.02 -2.07 -2.5 -13.46 9.19 -3.91 -1.89 3.16 -1.96 2.01 0 -0 0 -82.77 29.41 -28.85 17.33 -27.3 -4.24 -0 0 -26.32 -18.76 27.47 -8.9 -7.12 0 -0 -48.07 51.12 -9.03 0 -0 0 83.89 -0.52 20.05 -31.23 41.92 -12.22 0 0 2.21 -28.98 20.5 -10.98 7.12 -0 -0 -0.29 -6.83 -0.25
17.54 18.46 -13.82 181.18 8.22 -170.95 0 0 0 -14.14 -10.31 -28.59 0.95 6.22 17.42 -0.43 12.87 -10.99 0.24 3.14 8.66 0 0 0 23.73 4.42 -3.37 -1.67 -8.13 23.12 -0.42 2.35 -11.66 -0.6 4.94 -13.74 0.37 3.93 2.12 -1.32 5.28 1.02 -1.66 2.66 0.02 -2.36 -2.68 -13.11 8.91 -4.08 -3.38 3.1 -2.12 1.46 0 -0 0 -77.73 34.28 -26.58 15.93 -25.42 -3.61 -0 0 -19.64 -21.81 26.93 -10.27 -7.12 0 -0 -50.01 50.19 -8.23 0 -0 0 82.69 -0.25 20.42 -33.77 43.91 -13.95 0 0 0.58 -30.65 23.07 -13.07 7.12 -0 -0 -0.96 -3.65 -0.9
17.54 18.46 -14.46 181.54 8.33 -170.02 0 0 0 -13.1 -10.72 -23.65 0 -0 -0 -0.47 12.01 -4.34 0.01 0.64 1.75 0 0 0 23.55 3.39 -1.12 -1.32 -7.28 20.54 -0.31 3.45 -9.88 -0.43 4.2 -11.65 0.35 4.25 1.27 -1.47 5.7 1.12 -1.73 2.88 0.62 -2.91 -2.65 -13.9 9.3 -3.99 -3.24 3.34 -2.06 1.67 0 -0 0 -72.72 36.99 -27.29 13.64 -22.21 -2.69 -0 0 -10.15 -25.69 23.39 -10.81 -7.12 0 -0 -50.05 46.96 -3.23 0 -0 0 81.75 0.8 21.03 -34.73 44.62 -14.63 0 -0 -0.09 -30.37 19.4 -11.01 7.12 -0 -0 -1.32 -7.79 -1.13
17.54 18.44 -15.08 181.73 7.45 -169.56 0 0 0 -12.18 -11.95 -26.28 0 0 0 -0.15 7.33 -5.63 0.05 1.48 4.07 0 0 0 23.46 1.76 0.91 -1.12 -6.72 18.89 -0.22 4.1 -8.4 -0.81 5.74 -16.03 0.04 4.12 1.13 -1.53 5.55 1.26 -1.6 2.8 0.81 -2.97 -2.73 -13.54 9.19 -4.09 -4.29 3.31 -2.17 1.26 -0 0 0 -68.84 38.02 -31.62 11.26 -18.69 -1.86 -0 -0 2.11 -27.27 21.14 -10.53 -7.12 0 -0 -49.45 45.02 -0.03 -0 0 0 81.3 2.17 21.07 -33.82 43.95 -13.99 0 0 1.33 -28.92 20.21 -10.8 7.12 -0 -0 -0.29 -7.17 -0.25
17.53 18.37 -15.73 182.5 6.58 -169.22 0 0 0 -11.31 -12.58 -26.75 0 0 0 -0.19 7.87 -4.67 0.12 2.21 6.09 0 0 0 23.99 0.88 2.72 -1.08 -6.61 18.56 -0.16 4.43 -7.25 -1.44 7.59 -21.49 0.72 4.04 1.09 -1.38 5.45 1.61 -1.81 2.76 1.25 -3.9 -2.96 -14.22 9.17 -4.27 -4.85 3.47 -2.27 1.23 0 -0 0 -66.31 37.47 -40.05 9.59 -16.1 -1.36 -0 -0 12.04 -31.11 20.45 -11.91 -7.12 0 -0 -51.35 43.88 2.02 0 -0 0 80.19 3.15 21.82 -32.36 42.84 -12.99 0 0 2.62 -30.09 21.93 -12.21 7.12 -0 -0 -0.79 -5.02 -0.72
17.51 18.26 -16.43 182.44 5.82 -169.18 0 0 0 -11.85 -12.85 -25.35 0 0 0 -0.28 9.43 -1.68 0 -0.01 -0.03 0 0 0 24.02 1.27 4.98 -1.13 -6.75 18.97 -0.12 3.28 -6.29 -2 8.86 -25.35 0.09 3.77 1.18 -1.47 5.09 1.56 -1.56 2.57 1.08 -3.18 -2.86 -13.8 8.32 -4.24 -5.78 3.04 -2.33 0.8 -0 0 0 -65.06 36.96 -47.93 8.55 -14.43 -1.08 -0 -0 21.34 -28.38 21.73 -11.31 -7.12 0 -0 -50.61 45.29 -0.49 -0 0 0 80.44 3.4 22.39 -30.62 41.42 -11.82 0 0 4.07 -27.91 20.2 -10.37 7.12 -0 -0 0.35 -7.38 0.3
17.47 18.13 -17.2 182.4 6.21 -169.52 0 0 0 -12.68 -12.19 -24.4 0.05 1.47 4.06 -0.2 7.88 -1.96 0.01 0.58 1.61 0 0 0 23.65 1.51 7.34 -1.27 -7.15 20.16 -0.07 3 -4.76 -1.62 8.02 -22.77 -0.15 4.29 1.14 -1.64 5.81 1.95 -1.58 2.95 1.52 -4.56 -3.6 -14.27 8.98 -5.1 -6.92 3.49 -2.8 0.62 -0 -0 0 -64.88 35.15 -49.51 8.48 -14.32 -1.07 -0 -0 22.11 -27.33 22.06 -10.98 -7.12 0 -0 -50.17 45.7 -1.18 -0 -0 0 81.06 3.26 21.18 -28.35 39.43 -10.34 0 0 5.69 -28.56 22.83 -11.93 7.12 -0 -0 0.29 -4.37 0.27
17.43 18.06 -18.06 181.76 6.68 -169.06 0 0 0 -13.83 -12.46 -26.18 0.34 3.76 10.41 -0.26 9.76 0.25 0.26 -3.28 -9.06 0 0 0 22.73 2.1 8.93 -1.38 -7.44 21.02 -0.01 1.12 -1.76 -1.24 7.05 -19.86 -1.02 4.24 -0.09 -2.37 5.78 1.47 -1.76 2.93 1.7 -2.28 -2.55 -15.18 7.18 -4.08 -6.55 2.49 -2.34 0.7 0 -0 0 -66.09 34.89 -47.46 8.96 -15.1 -1.19 -0 -0 16.5 -25.31 23.38 -10.63 -7.12 0 -0 -49.78 47.01 -3.28 0 -0 0 82.85 1.85 21.58 -25.77 36.98 -8.75 0 0 7.71 -28.74 21.72 -11.47 7.12 -0 -0 0.02 -5.55 0.02
17.42 18.04 -18.85 178.8 5.85 -169.04 0 0 0 -18.75 -10.19 -27.53 0.65 5.14 14.31 -0.03 5.68 2.99 0.06 -1.52 -4.19 0 0 0 20.37 3.58 8.19 -2.05 -8.97 25.69 -0.01 -3.15 2.5 -1.23 7.02 -19.78 -4.57 3.77 -0.1 -3.25 5.26 1.08 -0.73 2.67 1.07 -3.16 -2.88 -14.82 8.13 -4.44 -7.45 2.97 -2.55 0.42 0 -0 0 -68.27 32.61 -45.71 9.46 -15.89 -1.32 -0 -0 10.74 -25.14 23.89 -10.76 -7.12 0 -0 -50.05 47.42 -3.96 0 -0 0 84.63 0.52 20.25 -23.11 34.21 -7.2 0 0 9.83 -27.98 20.91 -10.74 7.12 -0 -0 0.39 -6.58 0.34
17.38 17.99 -19.55 177.95 4.33 -169.01 0 0 0 -20.94 -9.11 -28.12 1.11 6.71 18.85 0.01 0.87 1.42 0 -0.41 -1.13 0 0 0 19.62 4.45 4.27 -3.53 -11.5 33.99 -0.25 -6.2 9.32 -0.35 3.82 -10.58 -4.85 3.46 -0.04 -3.48 4.9 1.42 -0.81 2.49 1.4 -5.65 -3.63 -14.98 9.37 -5.09 -8.25 3.84 -2.85 0.34 -0 0 0 -71.3 26.65 -47.58 9.57 -16.06 -1.35 -0 -0 8.34 -22.05 24.91 -9.68 -7.12 0 -0 -48.58 48.67 -5.65 -0 0 0 86.49 0.32 17 -20.25 30.94 -5.66 0 0 11.31 -27.05 20.13 -9.97 7.12 -0 -0 0.89 -7.61 0.76
17.27 18.01 -20.27 176.63 3.91 -170.78 0 0 0 -23.48 -8.83 -24.89 1.43 7.56 21.38 0.01 -0.24 -1.91 0 -0.37 -1.01 0 0 0 17.04 4.14 0.8 -5.54 -13.97 43.12 -1.01 -7.53 17.99 -0.03 1.12 -3.07 -5.15 3.22 1.23 -3.69 4.59 2 -0.93 2.36 1.28 -6.37 -4.27 -14.13 8.57 -5.83 -8.66 3.67 -3.22 0.11 0 0 0 -75.64 20.95 -45.15 10.42 -17.4 -1.6 -0 -0 1.41 -19.45 26.31 -8.9 -7.12 0 -0 -47.67 50.14 -7.57 0 0 0 87.49 0.02 14.7 -17.38 27.36 -4.26 0 0 14.51 -26.42 19.89 -9.59 7.12 -0 -0 1.26 -7.99 1.07
17.21 18.04 -20.93 176.25 3.92 -171.84 0 0 0 -24.73 -8.05 -22.08 1.58 7.92 22.48 0.07 -0.68 -4.67 0 0.41 1.13 0 0 0 15.74 5.26 -3.74 -7.88 -16.03 52.15 -0.94 -10.85 17.78 -0.01 -0.65 1.78 -5.13 2.92 1.99 -3.76 4.11 1.77 -1.05 2.14 0.64 -5.54 -3.63 -12.32 7.22 -5.03 -8.33 3.12 -2.79 -0.22 -0 0 0 -80 14.72 -45.27 11.36 -18.83 -1.89 -0 0 -2.64 -15.44 28.8 -7.58 -7.12 0 -0 -46.47 52.69 -10.65 -0 0 0 88.47 -0.84 13.9 -14.77 23.82 -3.13 0 0 17.57 -22.75 22.38 -9.07 7.12 -0 -0 3.85 -5.96 3.44
