HIERARCHY
ROOT Hips
{
	OFFSET 0.00000 0.00000 0.00000
	CHANNELS 6 Xposition Yposition Zposition Zrotation Yrotation Xrotation 
	JOINT LHipJoint
	{
		OFFSET 0 0 0
		CHANNELS 3 Zrotation Yrotation Xrotation
		JOINT LeftUpLeg
		{
			OFFSET 1.77779 -1.88989 0.48267
			CHANNELS 3 Zrotation Yrotation Xrotation
			JOINT LeftLeg
			{
				OFFSET 2.53442 -6.96327 0.00000
				CHANNELS 3 Zrotation Yrotation Xrotation
				JOINT LeftFoot
				{
					OFFSET 2.71068 -7.44755 0.00000
					CHANNELS 3 Zrotation Yrotation Xrotation
					JOINT LeftToeBase
					{
						OFFSET 0.17992 -0.49431 2.22524
						CHANNELS 3 Zrotation Yrotation Xrotation
						End Site
						{
							OFFSET 0.00000 -0.00000 1.14687
						}
					}
				}
			}
		}
	}
	JOINT RHipJoint
	{
		OFFSET 0 0 0
		CHANNELS 3 Zrotation Yrotation Xrotation
		JOINT RightUpLeg
		{
			OFFSET -1.58469 -1.88989 0.48267
			CHANNELS 3 Zrotation Yrotation Xrotation
			JOINT RightLeg
			{
				OFFSET -2.60386 -7.15404 0.00000
				CHANNELS 3 Zrotation Yrotation Xrotation
				JOINT RightFoot
				{
					OFFSET -2.73334 -7.50979 0.00000
					CHANNELS 3 Zrotation Yrotation Xrotation
					JOINT RightToeBase
					{
						OFFSET -0.25618 -0.70384 2.21822
						CHANNELS 3 Zrotation Yrotation Xrotation
						End Site
						{
							OFFSET -0.00000 -0.00000 1.16381
						}
					}
				}
			}
		}
	}
	JOINT LowerBack
	{
		OFFSET 0 0 0
		CHANNELS 3 Zrotation Yrotation Xrotation
		JOINT Spine
		{
			OFFSET 0.03410 2.01612 -0.22230
			CHANNELS 3 Zrotation Yrotation Xrotation
			JOINT Spine1
			{
				OFFSET 0.03465 2.03012 0.00937
				CHANNELS 3 Zrotation Yrotation Xrotation
				JOINT Neck
				{
					OFFSET 0 0 0
					CHANNELS 3 Zrotation Yrotation Xrotation
					JOINT Neck1
					{
						OFFSET -0.00219 1.70459 0.20857
						CHANNELS 3 Zrotation Yrotation Xrotation
						JOINT Head
						{
							OFFSET 0.02518 1.72339 -0.22179
							CHANNELS 3 Zrotation Yrotation Xrotation
							End Site
							{
								OFFSET 0.00282 1.74122 -0.09823
							}
						}
					}
				}
				JOINT LeftShoulder
				{
					OFFSET 0 0 0
					CHANNELS 3 Zrotation Yrotation Xrotation
					JOINT LeftArm
					{
						OFFSET 3.36358 1.00547 -0.37661
						CHANNELS 3 Zrotation Yrotation Xrotation
						JOINT LeftForeArm
						{
							OFFSET 5.06507 -0.00000 0.00000
							CHANNELS 3 Zrotation Yrotation Xrotation
							JOINT LeftHand
							{
								OFFSET 3.60196 -0.00000 0.00000
								CHANNELS 3 Zrotation Yrotation Xrotation
								JOINT LeftFingerBase
								{
									OFFSET 0 0 0
									CHANNELS 3 Zrotation Yrotation Xrotation
									JOINT LeftHandIndex1
									{
										OFFSET 0.45035 -0.00000 0.00000
										CHANNELS 3 Zrotation Yrotation Xrotation
										End Site
										{
											OFFSET 0.36308 -0.00000 0.00000
										}
									}
								}
								JOINT LThumb
								{
									OFFSET 0 0 0
									CHANNELS 3 Zrotation Yrotation Xrotation
									End Site
									{
										OFFSET 0.36862 -0.00000 0.36862
									}
								}
							}
						}
					}
				}
				JOINT RightShoulder
				{
					OFFSET 0 0 0
					CHANNELS 3 Zrotation Yrotation Xrotation
					JOINT RightArm
					{
						OFFSET -3.50159 0.80383 -0.71526
						CHANNELS 3 Zrotation Yrotation Xrotation
						JOINT RightForeArm
						{
							OFFSET -5.36394 -0.00000 0.00000
							CHANNELS 3 Zrotation Yrotation Xrotation
							JOINT RightHand
							{
								OFFSET -3.58035 -0.00000 0.00000
								CHANNELS 3 Zrotation Yrotation Xrotation
								JOINT RightFingerBase
								{
									OFFSET 0 0 0
									CHANNELS 3 Zrotation Yrotation Xrotation
									JOINT RightHandIndex1
									{
										OFFSET -0.66375 -0.00000 0.00000
										CHANNELS 3 Zrotation Yrotation Xrotation
										End Site
										{
											OFFSET -0.53513 -0.00000 0.00000
										}
									}
								}
								JOINT RThumb
								{
									OFFSET 0 0 0
									CHANNELS 3 Zrotation Yrotation Xrotation
									End Site
									{
										OFFSET -0.54330 -0.00000 0.54330
									}
								}
							}
						}
					}
				}
			}
		}
	}
}
MOTION
Frames: 89
Frame Time: 0.0333332
4.42 17.85 -20.58 -7.28 -8.39 -0.88 0 0 0 -6.84 -14.55 -24.44 0.88 5.96 16.68 0.07 5.43 -9.66 0 -0.31 -0.86 0 0 0 34.52 7.61 8.59 -1.83 -8.51 24.27 -1.39 3.02 -21.52 -0.03 -1.07 2.93 4.19 1.75 11.45 2.24 2.98 0.78 -0.48 1.39 -5.51 -2.23 -3.55 -16.69 0.89 -4.55 19.96 0.1 -2.2 9.09 -0 -0 0 -87.72 5.74 24.19 14.48 -23.41 -3.02 -0 0 -6.83 29.43 26.49 14.13 -7.12 0 -0 -0.65 59.76 -0.23 -0 -0 0 86.81 9.18 17.03 -17.15 27.06 -4.16 0 -0 -1.42 -20.08 22.7 -8.03 7.12 -0 -0 5.55 -6.06 4.96
4.47 17.76 -19.85 -7.34 -8.63 -0.65 0 0 0 -6.84 -14.8 -23.58 0.53 4.65 12.91 0 5.5 -7.95 0.05 -1.44 -3.97 0 0 0 34.34 7.31 9.93 -2.09 -9.05 25.94 -1.37 3.28 -21.26 -0.01 -0.78 2.14 4.72 2.08 11.54 1.86 3.46 1.29 -1.24 1.62 -4.95 -1.58 -3.9 -19.05 0.91 -5.17 20.42 -0.14 -2.42 9.68 0 -0 0 -86.96 4.46 25.8 13.95 -22.66 -2.81 -0 0 -6.63 30.08 28.34 15.38 -7.12 0 -0 -0.56 61.92 -0.23 0 -0 0 87.1 10.86 16.16 -17.3 27.25 -4.22 0 -0 -1.61 -20.21 23.15 -8.23 7.12 -0 -0 5.51 -5.59 4.97
4.59 17.79 -18.91 -7.09 -11.55 -1.34 0 0 0 -8.02 -13.71 -22.23 0.93 6.14 17.2 0.08 6.83 -11.57 0.08 1.85 5.1 0 0 0 33.12 7.61 13.23 -2.38 -9.62 27.75 -1.14 5.48 -19.08 -0 0.4 -1.11 5.3 2.83 9.81 1.93 4.38 1.54 -1.51 2.11 -3.64 -2.25 -3.63 -16.36 0.86 -4.65 20.1 0.08 -2.26 9.08 0 -0 0 -87.71 6.01 24.45 13.5 -22.01 -2.64 -0 0 -4.02 29.68 21.12 11.6 -7.12 0 -0 1.09 53.94 0.24 0 -0 0 86.46 10.09 16.43 -16.93 26.77 -4.06 0 -0 -0.88 -20.35 22.64 -8.12 7.12 -0 -0 5.38 -6.09 4.8
4.6 17.75 -18.21 -7.04 -8.21 -1.33 0 0 0 -10.42 -11.43 -23.59 1.29 7.2 20.31 0.19 1.29 -8.72 0.01 -0.66 -1.82 0 0 0 32.7 4.29 11.55 -3.09 -10.84 31.76 -0.77 5.16 -15.6 -0.03 1.08 -2.96 4.68 1.95 10.7 2.07 3.25 0.99 -0.93 1.52 -4.83 -1.93 -3.79 -16.13 0.77 -4.95 20.61 -0.04 -2.38 9.21 -0 -0 0 -87.65 6.47 23.48 13.35 -21.8 -2.58 -0 0 -0.7 26.73 27.76 13.2 -7.12 0 -0 -4.3 60.44 -1.62 -0 -0 0 86.49 9.18 15.31 -16.84 26.65 -4.02 0 -0 -0.08 -19.88 22.93 -8.02 7.12 -0 -0 5.7 -5.87 5.11
4.65 17.8 -17.33 -5.37 -7.25 -1.8 0 0 0 -13.39 -10.91 -22.6 1.53 7.82 22.16 0.03 0.71 -3.8 0.07 -1.76 -4.84 0 0 0 29.97 2.29 9.98 -4.2 -12.43 37.26 -0.24 4.44 -8.74 -0.07 1.7 -4.68 2.72 1.78 10.68 1.93 2.82 0.25 0.05 1.34 -5.7 -2.12 -3.73 -15.21 0.6 -4.83 22.04 -0.05 -2.36 9.54 0 0 0 -87.97 8.31 24.37 12.61 -20.72 -2.31 -0 0 -5.43 31.01 22.85 13.14 -7.12 0 -0 2.17 56.15 0.6 0 0 0 86.36 6.69 14.51 -16.82 26.62 -4.01 0 0 0.68 -19.21 23.44 -7.89 7.12 -0 -0 6.16 -5.44 5.58
4.7 17.83 -16.49 -3.72 -5.7 -2.53 0 0 0 -16.49 -9.2 -21.76 2.01 8.89 25.44 0.02 -2.52 -2.89 0.01 -0.58 -1.6 0 0 0 27.45 0.92 6.4 -6.04 -14.46 45.13 -0.01 1.57 3.29 -0 -0.15 0.42 1.26 1.51 10.32 1.41 2.23 0.46 0.43 1.08 -5.32 -2.17 -3.91 -15.42 0.94 -5.16 22.6 0.02 -2.48 9.79 -0 0 0 -87.51 7.66 23.69 11.72 -19.38 -2.01 -0 0 -5 27.17 29.45 14.16 -7.12 0 -0 -4.62 62.32 -1.95 -0 0 0 87.11 5.58 12.08 -16.45 26.13 -3.84 0 0 1.65 -20.23 22.93 -8.17 7.12 -0 -0 5.48 -5.8 4.92
4.79 17.85 -15.68 -3.29 -5.81 -2.95 0 0 0 -17.93 -7.71 -20.14 2.26 9.39 27.01 0.03 -3.89 -3.95 0.01 0.77 2.13 0 0 0 26.28 2.45 2.03 -8.42 -16.42 54.05 -0.85 -2.78 16.72 -0.6 -4.94 13.75 1.6 1.73 10.24 1.12 2.54 0.59 -0.11 1.23 -5.1 -2.09 -4.14 -15.56 1.18 -5.56 22.7 0.04 -2.62 9.87 -0 -0 0 -86.82 7.29 22.77 12 -19.81 -2.1 -0 0 -1.31 26.65 18.92 9.24 -7.12 0 -0 -1.58 50.95 -0.23 -0 -0 0 87.96 4.03 9.44 -16.24 25.84 -3.75 0 0 1.76 -19.68 23.62 -8.15 7.12 -0 -0 5.88 -5.18 5.36
4.85 17.88 -14.94 -1.68 -6.23 -3.5 0 0 0 -20.6 -6.43 -17.62 2.38 9.62 27.77 0.08 -3.39 -5.28 0.02 0.88 2.42 0 0 0 24.2 5.1 -2.51 -11.19 -18.03 63.39 -0.94 -4.39 17.34 -0.57 -4.84 13.46 0.32 1.79 10.94 0.77 2.46 0.57 0.24 1.21 -5.56 -1.98 -3.84 -15.69 0.78 -5.06 22.65 -0.06 -2.43 9.85 -0 0 0 -86.35 7.18 23.84 12.06 -19.89 -2.12 -0 0 -5.85 28.3 17.17 9.03 -7.12 0 -0 0.39 49.32 0.04 -0 0 0 88.28 2.99 8.95 -15.68 25.08 -3.51 0 0 0.81 -20.69 22.8 -8.32 7.12 -0 -0 5.18 -5.87 4.64
4.9 17.92 -14.2 -0.38 -5.91 -3.83 0 0 0 -22.87 -5.29 -14.99 2.38 9.62 27.76 0.13 -2.83 -6.52 0.07 1.69 4.65 0 0 0 22.28 6.36 -7.64 -13.42 -18.93 70.42 -0.23 -1.39 8.67 -0.46 -4.36 12.1 -0.62 1.63 11.04 0.53 2.12 0.65 0.58 1.06 -5.56 -2.22 -3.65 -15.54 0.7 -4.71 22.44 0.01 -2.3 9.75 0 0 0 -85.86 6.15 23.51 11.96 -19.75 -2.09 -0 0 -4.95 28.43 26.01 13.36 -7.12 0 -0 -1.63 59 -0.56 0 0 0 88.47 2.7 7.75 -14.61 23.61 -3.07 0 0 2.37 -19.9 22.95 -8.03 7.12 -0 -0 5.69 -5.84 5.1
4.93 17.94 -13.49 0.09 -5.73 -3.85 0 0 0 -24.08 -4.52 -12.61 2.43 9.71 28.03 0.27 -3 -9.19 0.2 2.87 7.92 0 0 0 21.24 7.79 -12.74 -14.64 -19.3 74.14 -0.01 -2.01 2.1 -0.14 -2.37 6.54 -0.8 1.43 10.91 0.54 1.83 0.65 0.74 0.93 -5.49 -2 -3.47 -15.72 0.05 -4.37 22.87 -0.22 -2.19 9.91 0 0 0 -85.61 5.51 22.43 12.38 -20.37 -2.23 -0 0 -4.72 28.73 26.79 13.88 -7.12 0 -0 -1.57 59.9 -0.57 0 0 0 88.76 2.53 5.46 -13.43 21.92 -2.61 0 0 5.56 -19.71 23.2 -8.03 7.12 -0 -0 5.83 -5.6 5.26
4.96 17.95 -12.81 0.17 -4.82 -3.77 0 0 0 -24.8 -3.88 -10.33 2.42 9.68 27.96 0.39 -2.87 -11.2 0.08 1.86 5.12 0 0 0 20.48 8.27 -17.9 -14.85 -19.35 74.79 -0.01 -0.86 -2.58 -0.2 -2.91 8.03 -0.74 0.93 10.91 0.73 1.18 0.63 1 0.61 -5.5 -2.07 -3.28 -15.9 -0.13 -4.03 23.14 -0.23 -2.06 10.03 0 0 0 -85.2 4.63 22.18 12.82 -21.02 -2.39 -0 0 -5.35 28.37 24.43 12.59 -7.12 0 -0 -1.18 57.28 -0.35 0 0 0 88.93 2.28 4.15 -12.76 20.93 -2.37 0 0 6.82 -19.27 22.38 -7.58 7.12 -0 -0 6.03 -6.53 5.34
4.97 17.94 -12.14 0.69 -3.51 -3.44 0 0 0 -25.92 -3.68 -8.1 2.37 9.6 27.7 0.52 -2.88 -12.99 0 0.41 1.12 0 0 0 19.21 8.26 -22.71 -14.1 -19.14 72.51 -0.14 0.28 -7 -0.07 -1.67 4.59 -1.38 0.21 11.07 1.07 0.16 0.28 1.88 0.13 -5.93 -2.36 -2.97 -15.62 -0.62 -3.4 23.11 -0.27 -1.86 9.96 0 0 0 -84.97 4.28 23.33 13.58 -22.13 -2.67 -0 0 -5.38 28.08 27.22 13.72 -7.12 0 -0 -2.5 60.21 -0.93 0 0 0 88.63 0.94 4.75 -12.87 21.09 -2.41 0 0 5.99 -19.89 21.9 -7.68 7.12 -0 -0 5.61 -6.93 4.91
4.97 17.9 -11.48 0.92 -2.79 -3.34 0 0 0 -26.56 -3.4 -5.86 2.42 9.69 27.98 0.71 -2.74 -15.18 0.01 0.48 1.31 0 0 0 18.52 8.61 -26.68 -12.61 -18.64 67.92 -0.24 0.44 -9.18 -0.04 -1.35 3.71 -1.61 -0.03 11.4 1.17 -0.18 0.46 2.16 -0.03 -5.91 -2.4 -3 -16.3 -0.47 -3.44 22.77 -0.22 -1.86 9.97 -0 -0 0 -83.85 3.17 26.39 14.88 -23.97 -3.18 -0 0 -6.35 29.78 32.23 16.97 -7.12 0 -0 -2.89 65.96 -1.46 -0 -0 0 88.86 0.35 5.06 -13.31 21.74 -2.57 0 0 4.45 -20.95 20.43 -7.61 7.12 -0 -0 4.82 -8.3 4.09
4.96 17.86 -10.81 1.36 -2.06 -2.87 0 0 0 -27.27 -2.51 -3.59 2.26 9.39 27.04 0.86 -3.42 -16.66 0.09 1.92 5.29 0 0 0 17.77 8.69 -29.9 -10.44 -17.65 60.96 -0.35 0.15 -11.2 -0.03 -1.1 3.02 -2.19 -0.36 11.46 1.27 -0.68 0.57 2.68 -0.26 -5.79 -2.11 -3.07 -16.83 -0.81 -3.52 22 -0.4 -1.91 9.78 -0 0 0 -82.82 1.66 28.5 15.71 -25.12 -3.52 -0 0 -6.1 29.46 27.97 14.84 -7.12 0 -0 -1.17 61.35 -0.47 -0 0 0 88.94 0.41 4.73 -13.19 21.57 -2.52 0 0 4.63 -21.16 21.08 -7.93 7.12 -0 -0 4.73 -7.59 4.08
4.95 17.85 -10.13 1.97 -1.59 -2.28 0 0 0 -28.06 -1.06 -0.62 1.89 8.62 24.63 0.98 -3.91 -17.77 0 0.02 0.05 0 0 0 16.86 8.89 -31.87 -7.72 -15.91 51.55 -0.31 -1 -10.93 -0 -0.03 0.07 -2.94 -0.56 11.43 1.3 -1.05 0.39 3.2 -0.42 -5.93 -2.35 -3.01 -16.73 -0.4 -3.48 21.46 -0.2 -1.86 9.59 0 -0 0 -81.93 0.98 29.76 16.78 -26.57 -3.99 -0 0 -5.68 29.4 17.6 9.67 -7.12 0 -0 1.42 49.99 0.17 0 -0 0 89.11 -0.43 5.14 -13.6 22.17 -2.68 0 0 4.09 -21.26 21.03 -7.95 7.12 -0 -0 4.67 -7.62 4.02
4.91 17.85 -9.45 2.24 -1.38 -1.6 0 0 0 -28.33 0.19 2.45 1.43 7.57 21.42 0.97 -3.93 -17.72 0 0.15 0.42 0 0 0 16.43 9.82 -32.17 -4.8 -13.16 39.96 -0.14 -3.53 -9.21 -0 -0.14 0.39 -3.39 -0.7 10.92 1.37 -1.27 0.52 3.54 -0.52 -5.48 -2.32 -3.03 -16.74 -0.3 -3.53 20.94 -0.17 -1.87 9.41 0 -0 0 -80.84 -0.41 31.17 17.67 -27.73 -4.39 -0 0 -7.07 28.18 26.48 13.43 -7.12 0 -0 -2.1 59.44 -0.74 0 -0 0 89.3 -0.38 5.42 -13.67 22.26 -2.7 0 0 3.66 -22.11 17.95 -7.14 7.12 -0 -0 3.88 -10.74 3.09
4.87 17.81 -8.74 2.92 -0.75 -0.72 0 0 0 -28.83 1.73 5.34 1.05 6.51 18.27 0.92 -4.24 -17.22 0 0.31 0.86 0 0 0 14.67 12.4 -30.86 -2.39 -9.64 27.8 -0.02 -6.98 -10.5 -0.02 0.95 -2.62 -4.11 -0.86 10.52 1.16 -1.57 0.33 3.78 -0.65 -5.42 -1.93 -3.12 -17.31 -0.38 -3.73 21.23 -0.31 -1.94 9.61 -0 -0 0 -79.81 -1.38 32.22 18.38 -28.64 -4.73 -0 0 -7.98 29.84 20.37 11.29 -7.12 0 -0 1.41 53.14 0.28 -0 -0 0 89.81 -0.9 5.56 -14 22.73 -2.83 0 0 3 -19.86 19.41 -6.84 7.12 -0 -0 5.45 -9.51 4.49
4.8 17.78 -8.01 2.86 0.06 -0.4 0 0 0 -28.21 2.77 8.78 0.79 5.69 15.89 0.86 -5.11 -16.54 0 -0.24 -0.66 0 0 0 12.55 17.3 -27.5 -0.93 -6.15 17.22 -0.08 -10.87 -16.64 -0.01 -0.68 1.87 -4.38 -1.11 10.17 1.32 -1.9 0.57 4.13 -0.83 -4.92 -1.89 -3.25 -17.79 -0.48 -3.88 21.04 -0.37 -2.01 9.63 -0 -0 0 -79.27 -2.66 32.32 18.92 -29.32 -4.99 -0 0 -8.4 28.79 21.85 11.56 -7.12 0 -0 -0.02 54.57 -0 -0 -0 0 90.05 -0.49 3.61 -13.34 21.78 -2.58 0 0 5.3 -21.05 20.04 -7.51 7.12 -0 -0 4.72 -8.69 3.97
4.72 17.72 -7.25 3.03 1.2 -0.05 0 0 0 -27.68 2.88 11.41 0.76 5.55 15.48 0.77 -6.14 -15.63 0.16 -2.57 -7.09 0 0 0 11.73 18.17 -26.45 -0.59 -4.93 13.7 -0.08 -12.05 -18.15 -0.01 0.61 -1.67 -4.89 -1.57 10.1 1.5 -2.57 0.3 4.7 -1.14 -5.07 -2.13 -3.03 -17.7 -0.36 -3.55 21.38 -0.25 -1.86 9.74 -0 -0 0 -79.19 -2.81 31.95 19.14 -29.6 -5.1 -0 0 -8.07 30.7 27.18 15.17 -7.12 0 -0 0.62 60.82 0.24 -0 -0 0 89.98 -1.35 5.1 -13.57 22.12 -2.66 0 0 3.24 -19.92 20.5 -7.23 7.12 -0 -0 5.48 -8.38 4.64
4.63 17.67 -6.48 2.42 1.41 -0.22 0 0 0 -26.5 2.53 13.27 1.04 6.48 18.2 0.7 -6.93 -14.95 0.5 -4.54 -12.59 0 0 0 14.75 14.28 -28.1 -1.01 -6.39 17.91 -0.14 -8.16 -14.12 -0.01 0.66 -1.83 -4.39 -1.58 10.24 1.61 -2.52 0.39 4.53 -1.12 -5.08 -1.99 -3.21 -17.43 -0.45 -3.82 21.17 -0.33 -1.99 9.61 0 0 0 -79.1 -2.96 31.47 19.15 -29.61 -5.11 -0 0 -7.35 31.55 26.56 15.35 -7.12 0 -0 1.85 60.37 0.69 0 0 0 90.38 -1.64 4.43 -13.44 21.92 -2.61 0 0 3.34 -20.01 20.18 -7.16 7.12 -0 -0 5.4 -8.69 4.54
4.55 17.71 -5.62 2.44 1.47 -0.69 0 0 0 -26.22 1.87 14.75 1.39 7.45 21.04 0.35 -7.62 -11.1 0.96 -6.23 -17.47 0 0 0 15.4 14.19 -28.25 -1.68 -8.17 23.22 -0.07 -5.54 -9.65 -0 -0.19 0.51 -4.58 -1.59 10.07 1.63 -2.55 0.41 4.65 -1.14 -4.94 -2.02 -3.08 -17.2 -0.52 -3.61 21.61 -0.33 -1.91 9.72 0 -0 0 -79.48 -2.43 30.96 18.7 -29.05 -4.89 -0 0 -7.91 32.01 26.4 15.53 -7.12 0 -0 2.45 60.31 0.92 0 -0 0 90.42 -2.14 3.56 -12.93 21.19 -2.43 0 0 4.23 -19.98 21 -7.42 7.12 -0 -0 5.48 -7.85 4.7
4.48 17.78 -4.77 0.18 1.02 -1.54 0 0 0 -23.64 0.89 14.08 2.49 9.82 28.4 -0.16 -9.89 -3.69 1.23 -7.05 -19.85 0 0 0 18.47 14.47 -26.35 -2.07 -9 25.8 -0.01 -3.16 -4.89 -0.03 1.13 -3.1 -2.39 -1.65 10.66 2.39 -2.35 0.39 4.21 -1.07 -5.37 -2.11 -2.93 -16.92 -0.93 -3.29 22.05 -0.41 -1.82 9.82 0 0 0 -80.72 -1.42 29.4 18.08 -28.26 -4.59 -0 0 -7.57 31.97 24.91 14.72 -7.12 0 -0 2.8 58.65 0.93 0 0 0 89.99 -2.02 2.02 -11.89 19.64 -2.07 0 0 6.41 -20.19 21 -7.51 7.12 -0 -0 5.35 -7.82 4.59
4.4 17.77 -3.91 -0.11 0.37 -1.9 0 0 0 -21.89 2.9 10.85 4.24 12.48 37.44 -0.66 -15.25 -0.4 6.04 -14.47 -45.14 0 0 0 19.87 14.26 -25.62 -2.75 -10.29 29.91 -0.04 -1.37 -4.58 -0.01 -0.73 1.99 -2.23 -1.43 10.38 2.34 -2.04 0.23 4.02 -0.92 -5.42 -2.13 -2.97 -16.27 -0.71 -3.41 22.39 -0.34 -1.85 9.82 0 0 0 -81.55 0.1 28.07 17.5 -27.51 -4.31 -0 0 -6.71 29.48 29.09 15.37 -7.12 0 -0 -1.62 62.56 -0.69 0 0 0 90.15 -2.63 0.51 -11.61 19.22 -1.97 0 0 8.26 -19.76 20.88 -7.3 7.12 -0 -0 5.61 -8 4.8
4.31 17.88 -3.1 -1.51 0.06 -2.46 0 0 0 -19.02 2.94 5.93 6.31 14.72 46.22 -1.76 -22.72 7.79 5.08 -13.47 -41.15 0 0 0 22.68 14.27 -23.48 -3.29 -11.15 32.79 -0.07 -0.77 -5.35 -0.28 -3.42 9.45 -1.04 -1.29 10.9 2.59 -1.68 0.19 3.58 -0.76 -5.81 -2.03 -3.07 -16.91 -0.75 -3.56 23.3 -0.41 -1.92 10.26 0 0 0 -82.08 1.85 28.15 17.63 -27.68 -4.37 -0 0 -7.83 28.68 20.99 11.09 -7.12 0 -0 0.06 53.6 0.01 0 0 0 90.17 -2.87 1.38 -11.72 19.38 -2.01 0 0 7.5 -19.82 19.43 -6.84 7.12 -0 -0 5.47 -9.5 4.52
4.23 18.03 -2.33 -3.54 -0.58 -2.77 0 0 0 -15.54 1.77 -1.43 9 16.81 56.08 0.93 -13.69 27.78 0.17 -2.66 -7.32 0 0 0 26.31 14.39 -19.71 -3.25 -11.09 32.58 -0.1 -1.18 -6.61 -0.33 -3.71 10.28 0.88 -1.09 11.27 2.99 -1.14 0.07 2.84 -0.54 -6.21 -1.85 -3.06 -16.65 -0.75 -3.61 23.37 -0.45 -1.92 10.23 0 -0 0 -82.34 2.84 29.07 17.38 -27.35 -4.26 -0 0 -6.38 29.68 15.58 8.7 -7.12 0 -0 1.95 47.77 0.13 0 -0 0 89.8 -2.46 2.82 -11.59 19.19 -1.97 0 0 7.21 -18.34 23.15 -7.43 7.12 -0 -0 6.67 -5.87 6
4.18 18.09 -1.6 -4.1 -1.11 -3.1 0 0 0 -13.99 1.95 -7.62 11.41 18.13 64.09 0.2 -12.93 20.69 0.06 -1.58 -4.34 0 0 0 28.15 14.13 -15.82 -3 -10.69 31.25 -0.16 -1.14 -8.05 -0.25 -3.22 8.88 1.56 -0.85 11.48 2.85 -0.74 0.22 2.24 -0.37 -6.2 -1.78 -3.14 -16.51 -0.62 -3.78 23.31 -0.44 -1.98 10.19 -0 0 0 -82.72 3.37 29.39 16.95 -26.79 -4.06 -0 0 -5.47 30.36 14.28 8.22 -7.12 0 -0 2.73 46.4 0.09 -0 0 0 89.64 -1.31 3.99 -11.58 19.17 -1.96 0 0 7.87 -17.15 24.12 -7.19 7.12 -0 -0 7.49 -5.06 6.86
4.14 18.14 -0.89 -4.49 -1.51 -3.38 0 0 0 -13.03 1.65 -12.82 12.72 18.68 68.24 -0.26 -11.27 11.36 0.1 -2.07 -5.7 0 0 0 29.58 13.82 -12.47 -2.95 -10.62 30.99 -0.24 -2.33 -10.46 -0.26 -3.28 9.07 2.01 -0.52 11.52 2.72 -0.26 0.33 1.77 -0.14 -6.12 -2.01 -3.28 -16.14 -0.13 -4.05 23.36 -0.25 -2.07 10.15 0 -0 0 -83.3 3.71 28.95 16.4 -26.05 -3.82 -0 0 -4.58 31.36 12.07 7.26 -7.12 0 -0 3.83 44 -0.09 0 -0 0 89.28 -0.26 5.51 -11.82 19.54 -2.04 0 0 7.2 -15.76 21.67 -5.95 7.12 -0 -0 8.2 -7.74 7.1
4.13 18.1 -0.19 -4.62 -1.74 -3.46 0 0 0 -12.66 0.87 -17.36 13.28 18.88 69.99 -0.35 -10.48 5.22 0 -0.05 -0.13 0 0 0 30.48 13.49 -10 -3.07 -10.8 31.62 -0.43 -2.41 -13.45 -0.34 -3.75 10.37 2.29 -0.23 11.29 2.53 0.14 0.39 1.34 0.04 -5.94 -1.78 -3.36 -15.96 -0.34 -4.18 23.57 -0.38 -2.13 10.19 0 -0 0 -84.19 4.23 27.92 15.92 -25.42 -3.61 -0 0 -5.16 27.06 27.51 13.28 -7.12 0 -0 -3.81 60.25 -1.42 0 -0 0 88.85 0.92 7.1 -12.18 20.07 -2.16 0 0 5.97 -16.35 20.6 -5.89 7.12 -0 -0 7.77 -8.75 6.56
4.12 18.12 0.5 -5.18 -2.23 -3.51 0 0 0 -12 -0.49 -21.35 12.73 18.68 68.29 -0.27 -10 -0.42 0.23 -3.1 -8.56 0 0 0 31.74 12.61 -7.22 -3.03 -10.74 31.4 -0.61 -1.81 -15.53 -0.47 -4.39 12.17 3.14 0.12 11.52 2.35 0.73 0.22 0.58 0.3 -6.23 -1.71 -3.46 -15.61 -0.09 -4.41 23.74 -0.33 -2.2 10.19 0 0 0 -84.49 4.87 27.95 15.5 -24.84 -3.43 -0 0 -5.12 27.95 22.24 11.36 -7.12 0 -0 -1.01 54.82 -0.24 0 0 0 88.61 1.55 9.19 -12.97 21.24 -2.44 0 0 5.6 -17.81 19.5 -6.12 7.12 -0 -0 6.78 -9.69 5.58
4.13 18.06 1.19 -5.73 -2.37 -3.42 0 0 0 -11.36 -2.49 -24.68 11.37 18.11 63.98 -0.09 -8.6 -4.09 0.26 -3.27 -9.04 0 0 0 32.73 11.33 -5 -3.02 -10.73 31.39 -0.81 -1.4 -17.59 -0.32 -3.62 10.02 4.08 0.32 11.44 2.23 1.11 0.14 -0.13 0.46 -6.25 -1.7 -3.57 -15.42 0.02 -4.6 23.7 -0.32 -2.27 10.14 0 -0 0 -84.93 5.9 28.33 15.66 -25.06 -3.5 -0 0 -6.24 27.54 26.73 13.2 -7.12 0 -0 -2.94 59.55 -1.04 0 -0 0 87.96 2.21 12.08 -14.16 22.96 -2.89 0 0 3.53 -18.62 19.56 -6.44 7.12 -0 -0 6.26 -9.52 5.17
4.14 18.04 1.89 -6.26 -3.32 -3.18 0 0 0 -10.53 -3.68 -26.62 9.51 17.12 57.83 0.11 -6.69 -6.96 0.16 -2.57 -7.09 0 0 0 33.62 10.52 -2.24 -2.86 -10.47 30.5 -1.01 -0.66 -19.28 -0.29 -3.45 9.53 5.01 0.75 11.41 2.13 1.79 0.15 -0.88 0.76 -6.17 -1.58 -3.58 -15.46 -0.04 -4.61 23.28 -0.35 -2.28 9.99 0 -0 0 -85.23 6.34 29.02 15.64 -25.03 -3.49 -0 0 -6.41 28.58 26.61 13.71 -7.12 0 -0 -1.68 59.68 -0.6 0 -0 0 87.3 3.47 14.56 -14.92 24.04 -3.19 0 0 0.96 -17.88 13.81 -4.4 7.12 -0 -0 6.52 -15.57 4.56
4.16 17.97 2.57 -6.46 -3.79 -2.77 0 0 0 -9.97 -5.52 -27.78 7.14 15.45 49.4 0.22 -4.01 -8.34 0.13 -2.28 -6.29 0 0 0 33.94 9.43 0.23 -2.69 -10.18 29.55 -1.24 0.16 -21 -0.26 -3.3 9.11 5.39 1.02 11.32 2.01 2.19 0.2 -1.27 0.95 -6.03 -1.73 -3.55 -15.86 0.38 -4.62 22.99 -0.19 -2.24 9.98 0 -0 0 -85.58 6.88 29.62 15.71 -25.13 -3.52 -0 0 -8.02 29.3 19.1 10.4 -7.12 0 -0 1.08 51.63 0.18 0 -0 0 86.61 4.64 16.62 -16.01 25.53 -3.65 0 -0 -0.8 -19.86 20.4 -7.18 7.12 -0 -0 5.51 -8.49 4.66
4.18 17.95 3.28 -6.76 -4.05 -2.22 0 0 0 -8.84 -8.2 -27.03 4.37 12.64 38.02 0.22 -1.57 -8.45 0.01 -0.71 -1.95 0 0 0 34.43 8.5 3.32 -2.34 -9.54 27.5 -1.37 0.03 -22.13 -0.19 -2.83 7.82 5.87 1.32 10.88 1.94 2.6 0.22 -1.67 1.14 -5.71 -1.61 -3.61 -16.48 0.33 -4.72 22.95 -0.25 -2.28 10.08 0 0 0 -85.81 7.18 31.07 15.15 -24.35 -3.29 -0 0 -14.02 30.82 11.04 6.52 -7.12 0 -0 3.37 42.75 -0.19 0 0 0 86.11 5.53 17.64 -17.16 27.07 -4.16 0 -0 -1.5 -19.94 20.65 -7.29 7.12 -0 -0 5.48 -8.21 4.66
4.2 17.92 4.02 -6.98 -4.74 -1.69 0 0 0 -7.59 -11.36 -24.89 2.19 9.24 26.56 0.2 1.8 -9.21 0.06 -1.59 -4.36 0 0 0 34.5 7.24 6.65 -1.9 -8.65 24.69 -1.35 0.27 -21.87 -0.13 -2.33 6.41 6.09 1.66 10.43 1.91 3.05 0.12 -1.87 1.36 -5.53 -1.44 -3.68 -16.31 0.2 -4.82 22.37 -0.33 -2.33 9.83 -0 -0 0 -86.07 8.09 30.76 15.65 -25.04 -3.5 -0 0 -10.92 28.61 18.06 9.6 -7.12 0 -0 0.55 50.35 0.07 -0 -0 0 85.64 7.05 17.88 -17.1 26.99 -4.13 0 -0 -1.5 -20.06 21.62 -7.66 7.12 -0 -0 5.47 -7.19 4.77
4.24 17.87 4.77 -7.32 -5.14 -1.3 0 0 0 -6 -14.65 -22.93 0.95 6.21 17.4 0.17 4.63 -10.88 0.07 -1.66 -4.57 0 0 0 34.51 5.74 9.4 -1.66 -8.11 23.06 -1.39 0.99 -21.97 -0.06 -1.61 4.44 6.5 1.81 10.18 1.95 3.28 0.07 -2.08 1.47 -5.4 -1.43 -3.59 -16.83 0.27 -4.7 22.37 -0.3 -2.27 9.93 0 0 0 -86.42 8.54 29.92 15.42 -24.72 -3.4 -0 0 -7.4 28.93 21.46 11.43 -7.12 0 -0 0.22 54.17 0.05 0 0 0 85.31 8.05 17.99 -17.44 27.43 -4.29 0 -0 -1.7 -20.17 20.88 -7.46 7.12 -0 -0 5.35 -7.94 4.58
4.3 17.78 5.53 -7.09 -5.58 -1.01 0 0 0 -6.64 -13.9 -22.43 0.51 4.59 12.75 0.18 5.5 -11.82 0.15 -2.53 -6.98 0 0 0 33.76 4.86 11.17 -1.77 -8.37 23.85 -1.41 1.79 -21.93 -0.02 -0.8 2.21 6.46 1.98 10.09 1.85 3.51 -0.13 -2.19 1.57 -5.54 -1.47 -3.61 -16.75 0.24 -4.7 21.83 -0.29 -2.27 9.72 -0 -0 0 -86.78 9.04 29.99 14.84 -23.93 -3.16 -0 0 -7.8 29.97 18.34 10.29 -7.12 0 -0 1.88 50.91 0.27 -0 -0 0 85.2 7.97 17.58 -17.72 27.8 -4.42 0 -0 -1.24 -21.05 21.62 -8.07 7.12 -0 -0 4.85 -7.04 4.24
4.36 17.72 6.33 -6.71 -5.03 -1.63 0 0 0 -8.82 -12.3 -22.24 0.66 5.18 14.43 0.13 4.36 -9.84 0.22 -3.02 -8.33 0 0 0 33.27 4.14 13.1 -2.12 -9.12 26.17 -1.29 1.95 -20.9 -0.04 1.29 -3.55 6.12 1.9 10.25 1.83 3.35 0.12 -2 1.51 -5.39 -1.59 -3.65 -17.07 0.49 -4.78 21.68 -0.2 -2.29 9.74 -0 -0 0 -87.22 9.21 29.75 14.06 -22.82 -2.85 -0 0 -8.85 29.73 11.8 6.66 -7.12 0 -0 2.33 43.5 -0.09 -0 -0 0 85.04 8.32 16.89 -17.81 27.91 -4.46 0 -0 -1.82 -20.82 20.49 -7.58 7.12 -0 -0 4.9 -8.26 4.16
4.44 17.7 7.2 -6.51 -4.91 -2.22 0 0 0 -10.44 -11.57 -21.96 1.1 6.66 18.71 0.11 0.42 -6.43 0.09 -1.96 -5.4 0 0 0 32.25 2.62 13.78 -2.76 -10.3 29.95 -0.92 3.21 -17.29 -0.12 2.21 -6.07 6.18 1.96 9.9 1.8 3.4 0.23 -2.06 1.55 -5.07 -1.56 -3.87 -16.56 0.54 -5.1 21.26 -0.22 -2.44 9.51 0 0 0 -87.41 9.24 28.85 13.31 -21.74 -2.57 -0 0 -5.89 29.4 17.25 9.48 -7.12 0 -0 1.47 49.59 0.17 0 0 0 85.09 7.85 15.26 -17.31 27.27 -4.23 0 -0 -0.83 -20.33 22.09 -7.93 7.12 -0 -0 5.35 -6.66 4.71
4.54 17.73 8.11 -4.86 -3.84 -3.07 0 0 0 -13.11 -11.86 -20.57 1.42 7.53 21.28 -0.03 -3.35 0.07 0.1 -2.08 -5.72 0 0 0 29.8 1.43 12.42 -4.12 -12.31 36.84 -0.3 2.96 -9.79 -0.14 2.44 -6.73 4.73 1.65 9.69 1.44 2.81 0.02 -1.54 1.28 -5.27 -1.91 -3.74 -16.05 1 -4.98 21.99 0.02 -2.36 9.69 0 -0 0 -87.71 9.77 27.31 12.39 -20.39 -2.24 -0 0 -4.87 30.06 15.21 8.64 -7.12 0 -0 2.36 47.41 0.14 0 -0 0 85.44 6.66 13.38 -16.48 26.17 -3.86 0 0 0.25 -20.86 22.36 -8.25 7.12 -0 -0 5.03 -6.3 4.47
4.6 17.74 8.98 -3.77 -3.21 -3.6 0 0 0 -15.34 -10.36 -19.85 1.96 8.78 25.1 -0.08 -6.01 -1.48 0.24 -3.14 -8.67 0 0 0 27.62 0.91 7.74 -6.41 -14.82 46.62 -0.06 -0.06 4.59 -0 0.41 -1.13 3.52 1.67 9.65 1.23 2.7 -0.3 -1.07 1.24 -5.63 -1.74 -3.93 -15.84 0.81 -5.25 22.45 -0.11 -2.49 9.8 0 0 0 -87.53 9.69 25.52 11.72 -19.39 -2.01 -0 0 -2.06 27.83 21.22 10.82 -7.12 0 -0 -0.88 53.68 -0.19 0 0 0 86.24 4.83 9.86 -16.01 25.54 -3.65 0 0 2.09 -20.76 22.61 -8.29 7.12 -0 -0 5.12 -6.05 4.57
4.66 17.81 9.81 -2.59 -3.89 -4.41 0 0 0 -17.66 -7.91 -17.53 2.2 9.27 26.63 -0.11 -7.27 -2.08 0.03 -1.06 -2.91 0 0 0 25.79 2.47 2.91 -9.11 -16.88 56.47 -0.85 -5.62 16.47 -0.97 -6.28 17.6 2.31 1.85 10.04 0.98 2.78 -0.02 -0.69 1.32 -5.59 -1.76 -3.86 -16.18 1.13 -5.21 22.07 0 -2.44 9.74 0 -0 0 -87.5 9.69 23.48 11.96 -19.74 -2.09 -0 0 -3.14 28.26 18.91 9.88 -7.12 0 -0 0.05 51.23 0.01 0 -0 0 87 4.04 7.9 -15.58 24.95 -3.47 0 0 1.98 -19.84 22.09 -7.73 7.12 -0 -0 5.65 -6.74 4.98
4.7 17.86 10.57 -0.39 -4.03 -4.86 0 0 0 -20.99 -7.05 -14.58 2.27 9.41 27.08 -0.02 -7 -4.33 0 0.33 0.91 0 0 0 23.07 4.05 -3.15 -12.04 -18.41 66.12 -0.94 -11.12 17.85 -1.41 -7.51 21.25 -0 1.74 10.41 0.45 2.34 0.1 0.12 1.16 -5.75 -1.67 -3.58 -16.35 1.07 -4.82 21.44 0.02 -2.26 9.54 -0 -0 0 -87.01 9.18 23.3 12.14 -20.01 -2.15 -0 0 -4.27 28.31 20.17 10.52 -7.12 0 -0 -0.14 52.62 -0.03 -0 -0 0 87.85 3.73 6.71 -14.71 23.74 -3.11 0 0 2.9 -20.74 22.36 -8.2 7.12 -0 -0 5.11 -6.32 4.54
4.71 17.91 11.3 0.23 -3.42 -5.16 0 0 0 -22.53 -7.1 -11.49 2.35 9.56 27.57 0.13 -6.46 -7.28 0.02 0.83 2.28 0 0 0 22.22 4.22 -9.02 -14.07 -19.14 72.43 0.08 -11.19 6.64 -0.25 -3.23 8.93 -0.75 1.29 10.61 0.4 1.65 0.15 0.59 0.84 -5.83 -2.09 -3.36 -15.93 1.35 -4.46 21 0.25 -2.1 9.32 -0 0 0 -86.15 8.48 24.85 11.95 -19.74 -2.09 -0 0 -8.21 29.98 13.93 7.91 -7.12 0 -0 2.4 45.94 0.06 -0 0 0 88.38 3.68 5.2 -13.55 22.09 -2.66 0 0 4.62 -20.18 22.37 -7.96 7.12 -0 -0 5.46 -6.39 4.84
4.72 17.96 12.03 0.36 -2.91 -5.59 0 0 0 -23.52 -7.12 -7.82 2.27 9.41 27.08 0.29 -5.52 -9.81 0 -0.21 -0.57 0 0 0 21.94 4.99 -13.6 -14.77 -19.33 74.53 0.22 -10.18 2.59 -0.59 -4.9 13.63 -1.05 0.92 10.56 0.51 1.13 0.39 0.96 0.59 -5.55 -1.96 -3.2 -15.69 0.87 -4.17 21.02 0.1 -2.01 9.26 0 0 0 -85.49 7.05 23.8 12.02 -19.84 -2.11 -0 0 -4.55 29.02 20.18 10.83 -7.12 0 -0 0.59 52.78 0.11 0 0 0 89.05 3.06 3.39 -13.02 21.31 -2.46 0 0 7.17 -19.15 22.76 -7.65 7.12 -0 -0 6.14 -6.15 5.48
4.71 17.95 12.72 0.28 -3.2 -5.7 0 0 0 -23.98 -6.39 -5.6 2.4 9.66 27.89 0.48 -4.56 -12.33 0 -0.03 -0.09 0 0 0 22.02 7.2 -17.78 -14.58 -19.28 73.95 0.18 -7.6 -1.98 -0.49 -4.49 12.46 -1.17 0.74 10.77 0.67 0.88 0.34 1.23 0.47 -5.71 -1.83 -3.05 -15.81 0.55 -3.92 21.5 -0 -1.92 9.44 0 0 0 -84.52 5.85 23.47 12.54 -20.62 -2.29 -0 0 -3.29 28.22 23.24 11.96 -7.12 0 -0 -0.99 55.96 -0.27 0 0 0 89.6 1.78 3.4 -12.92 21.17 -2.42 0 0 6.9 -18.95 22.23 -7.4 7.12 -0 -0 6.22 -6.72 5.49
4.71 17.9 13.41 0.95 -3.07 -5.6 0 0 0 -25.28 -5.73 -3.17 2.43 9.72 28.06 0.66 -4.26 -14.48 0.03 1.1 3.02 0 0 0 20.84 8.81 -21.78 -13.56 -18.98 70.87 -0.02 -4.72 -7.53 -0.18 -2.76 7.62 -1.81 0.51 10.72 0.6 0.49 0.32 1.58 0.3 -5.7 -1.71 -2.85 -15.4 0.29 -3.61 20.94 -0.06 -1.8 9.16 0 0 0 -83.32 5.24 27.07 13.2 -21.59 -2.53 -0 0 -7.59 31.88 12.35 7.58 -7.12 0 -0 4.29 44.39 -0.06 0 0 0 89.83 0.76 4.01 -12.93 21.18 -2.43 0 0 6.39 -19.43 23.98 -8.16 7.12 -0 -0 6.07 -4.85 5.57
4.69 17.82 14.09 1.33 -2.66 -5.45 0 0 0 -26.08 -5.11 -0.98 2.39 9.64 27.81 0.8 -4.25 -16.01 0.06 1.54 4.23 0 0 0 19.99 9.7 -25.26 -11.82 -18.31 65.41 -0.23 -4.67 -11.98 -0.01 0.52 -1.42 -2.48 0.14 10.74 0.71 -0.08 0.58 2.15 0.03 -5.42 -1.82 -2.67 -15.91 0.09 -3.26 20.25 -0.07 -1.66 9.01 0 0 0 -82.27 3.5 26.99 14.53 -23.48 -3.04 -0 0 -5.69 27.69 26.47 13.16 -7.12 0 -0 -2.66 59.31 -0.93 0 0 0 89.91 0.34 4.84 -13.1 21.43 -2.49 0 0 6 -19.06 23.44 -7.83 7.12 -0 -0 6.25 -5.46 5.66
4.67 17.79 14.78 1.9 -2.27 -5.12 0 0 0 -27.02 -4.06 2.02 2.16 9.19 26.39 1.01 -4.29 -18.01 0.04 1.32 3.63 0 0 0 18.83 10.3 -27.59 -9.35 -17.03 57.3 -0.15 -6.98 -12.97 -0 0.06 -0.18 -3.05 -0.1 11.13 0.61 -0.48 0.5 2.44 -0.15 -5.7 -2.23 -2.52 -16.39 0.55 -3.05 19.85 0.17 -1.54 8.97 -0 -0 0 -81.08 2.46 29.31 16.3 -25.93 -3.78 -0 0 -7.42 29.9 33.12 17.45 -7.12 0 -0 -3.29 66.92 -1.74 -0 -0 0 90.26 -1 5.6 -13.83 22.5 -2.76 0 0 4.77 -19.1 21.41 -7.2 7.12 -0 -0 6.07 -7.55 5.25
4.63 17.75 15.47 2.19 -2.12 -4.56 0 0 0 -27.28 -2.5 4.82 1.77 8.37 23.86 1.1 -4.66 -18.79 0.03 1.06 2.91 0 0 0 17.94 11.61 -28.78 -6.55 -14.94 47.16 0.15 -9.88 -11.17 -0.01 0.52 -1.42 -3.52 -0.25 11 0.7 -0.74 0.54 2.84 -0.27 -5.55 -2.2 -2.54 -16.38 0.18 -2.99 18.86 0.06 -1.55 8.62 -0 -0 0 -80.24 0.93 28.93 16.58 -26.3 -3.9 -0 0 -6.64 29.03 18.65 10.06 -7.12 0 -0 0.88 51.08 0.13 -0 -0 0 90.42 -1.58 5.38 -14.17 22.98 -2.9 0 0 4.45 -19.13 21.99 -7.4 7.12 -0 -0 6.09 -6.94 5.34
4.6 17.74 16.18 1.99 -2.4 -3.53 0 0 0 -27.05 -1.17 7.81 1.29 7.18 20.26 1.07 -4.48 -18.59 0.02 0.93 2.57 0 0 0 17.35 13.26 -28.78 -3.68 -11.73 34.77 0.49 -12.37 -6.46 -0.03 -1.19 3.28 -3.27 -0.35 10.52 0.82 -0.81 0.45 2.83 -0.31 -5.38 -2.07 -2.42 -17.08 0.09 -2.81 18.55 0.02 -1.46 8.64 0 -0 0 -79.32 -1.09 29.72 16.85 -26.66 -4.02 -0 0 -7.66 28.15 21 10.86 -7.12 0 -0 -0.5 53.51 -0.1 0 -0 0 90.57 -2.34 6.22 -14.66 23.67 -3.09 0 0 2.93 -19.33 19.24 -6.59 7.12 -0 -0 5.78 -9.77 4.74
4.56 17.7 16.9 2.79 -1.95 -2.75 0 0 0 -27.51 0.97 11.37 0.83 5.82 16.27 1.05 -5.35 -18.33 0 0.24 0.66 0 0 0 15.27 15.06 -27.52 -1.67 -8.14 23.13 0.5 -12.64 -7.22 -0.02 -0.93 2.57 -4.11 -0.63 10.21 0.73 -1.27 0.39 3.27 -0.52 -5.22 -2.07 -2.37 -17.05 -0.04 -2.72 17.6 -0 -1.43 8.31 -0 -0 0 -79.06 -2.57 28.81 17.37 -27.34 -4.26 -0 0 -7.59 30.1 23.8 13.17 -7.12 0 -0 0.93 56.99 0.27 -0 -0 0 90.64 -2.11 4.71 -14.14 22.93 -2.88 0 0 4.89 -18.48 19.97 -6.51 7.12 -0 -0 6.37 -9.12 5.32
4.48 17.64 17.64 2.7 -1.23 -1.95 0 0 0 -26.88 1.89 14.03 0.64 5.13 14.29 0.97 -5.81 -17.6 0.01 -0.64 -1.75 0 0 0 13.29 18.77 -25.17 -0.61 -5 13.9 0.21 -11.72 -13.33 -0 -0.11 0.29 -4.23 -0.93 9.95 0.9 -1.67 0.19 3.56 -0.71 -5.24 -2.3 -2.37 -17.69 0.19 -2.69 17.83 0.11 -1.41 8.51 -0 -0 0 -78.95 -3.44 28.35 17.93 -28.07 -4.52 -0 0 -7.94 29.66 23.8 12.94 -7.12 0 -0 0.45 56.89 0.13 -0 -0 0 90.69 -2.67 4.25 -13.78 22.41 -2.74 0 0 4.21 -19.41 22.92 -7.81 7.12 -0 -0 5.99 -5.95 5.37
4.41 17.57 18.41 2.46 -0.79 -2.12 0 0 0 -26.29 2.01 16.72 0.66 5.21 14.5 0.83 -7.18 -16.26 0.13 -2.28 -6.29 0 0 0 14.06 17.14 -25.45 -0.66 -5.19 14.44 -0.06 -8.51 -13.2 -0.02 0.89 -2.44 -4.09 -1.15 10.56 1.14 -1.96 0.12 3.8 -0.84 -5.63 -2.51 -2.33 -16.76 0.11 -2.58 16.64 0.15 -1.38 7.95 0 0 0 -79.33 -4.06 27.7 17.9 -28.03 -4.5 -0 0 -7.89 29.66 24.51 13.29 -7.12 0 -0 0.24 57.66 0.08 0 0 0 90.56 -3.17 3.44 -13.44 21.94 -2.62 0 0 5.11 -19.86 21.28 -7.47 7.12 -0 -0 5.58 -7.57 4.82
4.31 17.51 19.22 2.01 -0.87 -2.07 0 0 0 -25.76 1.27 17.93 0.97 6.28 17.6 0.64 -8.43 -14.51 0.02 -0.93 -2.55 0 0 0 15.83 15.62 -26.55 -1.27 -7.16 20.18 -0.12 -5.61 -10.83 -0 0.26 -0.73 -3.83 -1.14 10.51 1.33 -1.9 0.28 3.84 -0.82 -5.44 -2.32 -2.2 -17.29 -0.05 -2.41 16.51 0.08 -1.3 7.99 0 0 0 -79.72 -4.52 27.31 17.84 -27.95 -4.47 -0 0 -8.15 29.56 22.51 12.25 -7.12 0 -0 0.66 55.45 0.17 0 0 0 90.61 -3.06 1.98 -13.04 21.35 -2.47 0 0 6.73 -19.43 21.33 -7.31 7.12 -0 -0 5.85 -7.59 5.06
4.2 17.58 20.08 0.64 -0.44 -1.96 0 0 0 -24.09 0.53 18.33 1.5 7.74 21.92 0.24 -8.71 -9.97 0.61 -5.02 -13.96 0 0 0 17.64 15.87 -26.94 -1.83 -8.51 24.26 0.13 -6.89 -5.22 -0.06 1.63 -4.49 -2.6 -1.39 10.65 1.82 -2.06 0.03 3.7 -0.92 -5.79 -2.31 -2.16 -17.73 -0.27 -2.3 16.89 0.01 -1.27 8.19 -0 0 0 -80.46 -3.8 26.96 17.95 -28.1 -4.53 -0 0 -8.15 30 24.97 13.7 -7.12 0 -0 0.5 58.24 0.16 -0 0 0 90.61 -2.85 0 -12.34 20.31 -2.22 0 0 8.83 -19.49 20.21 -6.97 7.12 -0 -0 5.74 -8.74 4.82
4.13 17.64 20.98 -0.37 -1.05 -2.41 0 0 0 -23.05 0.48 15.92 2.82 10.4 30.29 -0.23 -9.59 -1.32 0.14 -2.4 -6.62 0 0 0 19.84 14.31 -25.64 -2.29 -9.45 27.21 0.03 -3.43 -2.26 -0.01 -0.63 1.72 -1.43 -1.42 10.57 2.17 -1.93 0.03 3.38 -0.88 -5.78 -2.21 -1.99 -17.57 -0.8 -1.98 16.97 -0.14 -1.17 8.18 0 -0 0 -81.78 -2.73 25.57 17.5 -27.52 -4.32 -0 0 -7.17 29.79 24.36 13.29 -7.12 0 -0 0.44 57.53 0.13 0 -0 0 90.34 -2.98 -1.25 -11.65 19.28 -1.99 0 0 9.32 -20.25 21.46 -7.69 7.12 -0 -0 5.35 -7.32 4.64
4.03 17.73 21.84 -1.6 -1.33 -2.69 0 0 0 -20.66 0.66 11.46 4.73 13.07 39.65 -0.34 -11.99 10.94 1.04 -6.49 -18.21 0 0 0 22.42 13.49 -23.83 -2.65 -10.11 29.35 -0.01 -1.73 -3.12 -0.07 -1.65 4.55 -0.45 -1.34 10.58 2.54 -1.68 -0.02 3.18 -0.78 -5.87 -2.25 -1.99 -17.75 -0.69 -1.99 17.56 -0.11 -1.17 8.41 -0 0 0 -82.82 -1.04 25.18 17.61 -27.65 -4.37 -0 0 -7.52 27.96 24.97 12.63 -7.12 0 -0 -1.81 57.77 -0.57 -0 0 0 90.43 -2.84 -3.04 -11.3 18.74 -1.87 0 0 10.24 -20.66 21.27 -7.79 7.12 -0 -0 5.07 -7.47 4.38
3.92 17.86 22.65 -2.82 -1.39 -3.04 0 0 0 -18.62 -0.89 5.92 7.21 15.5 49.65 1.19 -4.01 22.38 1.32 7.28 20.55 0 0 0 24.96 13.01 -20.34 -2.67 -10.14 29.43 -0.02 -1.96 -4.07 -0.31 -3.6 9.95 0.55 -1.11 10.97 2.79 -1.24 -0.05 2.82 -0.58 -6.16 -2.07 -2.19 -17.9 -0.75 -2.29 17.9 -0.2 -1.3 8.55 0 0 0 -83.42 0.5 26.19 17.88 -28.01 -4.49 -0 0 -7.72 28.1 23.18 11.87 -7.12 0 -0 -1.11 55.87 -0.3 0 0 0 90.53 -2.79 -1.93 -11.43 18.94 -1.91 0 0 8.58 -20.76 20.85 -7.68 7.12 -0 -0 4.97 -7.89 4.26
3.85 17.95 23.43 -4.54 -1.68 -3.37 0 0 0 -16.03 -2.02 0.41 9.7 17.24 58.47 0.83 -11.16 24.62 0.09 1.92 5.28 0 0 0 27.9 12.53 -16.72 -2.63 -10.07 29.2 -0.07 -1.89 -5.92 -0.39 -3.99 11.05 2.27 -0.9 11.07 3.12 -0.71 0.21 2.11 -0.37 -5.98 -2.1 -2.36 -17.43 -0.27 -2.63 17.27 -0.07 -1.41 8.26 -0 0 0 -83.62 1.13 28.21 17.86 -27.97 -4.48 -0 0 -7.6 26.13 25.4 11.88 -7.12 0 -0 -4.01 57.81 -1.26 -0 0 0 90.34 -1.94 -0.07 -11.37 18.85 -1.89 0 0 7.84 -19.5 24.73 -8.43 7.12 -0 -0 6.09 -4.06 5.68
3.8 18.04 24.18 -5.03 -1.77 -3.66 0 0 0 -14.84 -2.96 -5.26 11.74 18.28 65.17 -0.1 -11.9 15.53 0 -0.31 -0.85 0 0 0 29.28 11.37 -13.42 -2.55 -9.93 28.75 -0.16 -1.27 -8.03 -0.35 -3.81 10.54 2.9 -0.62 10.96 2.98 -0.29 0.4 1.54 -0.18 -5.74 -2.01 -2.5 -17.07 0.06 -2.92 17.36 -0 -1.51 8.23 -0 0 0 -84.1 2.19 28.26 17.93 -28.07 -4.52 -0 0 -5.75 27.97 20.11 10.35 -7.12 0 -0 -0.49 52.49 -0.09 -0 0 0 90.09 -0.78 2.27 -11.64 19.26 -1.98 0 0 9.19 -16.95 23.17 -6.84 7.12 -0 -0 7.54 -6.05 6.77
3.76 18.09 24.92 -5.39 -2.17 -3.75 0 0 0 -13.9 -3.81 -10.32 12.82 18.72 68.57 -0.37 -11.08 6.93 0.12 -2.24 -6.16 0 0 0 30.42 10.29 -10.13 -2.4 -9.66 27.87 -0.26 -0.69 -9.96 -0.32 -3.62 10.02 3.3 -0.22 10.58 2.88 0.26 0.55 1.12 0.08 -5.36 -2.13 -2.65 -16.69 0.44 -3.18 17.41 0.12 -1.61 8.19 -0 0 0 -84.56 2.81 28.33 17.51 -27.52 -4.32 -0 0 -5.45 28.72 18.66 9.94 -7.12 0 -0 0.56 51.04 0.08 -0 0 0 89.69 0.25 5.68 -11.98 19.77 -2.1 0 0 7.31 -17.37 21.4 -6.51 7.12 -0 -0 7.17 -7.8 6.18
3.71 18.15 25.62 -5.76 -2.79 -3.71 0 0 0 -12.89 -4.47 -16.75 12.95 18.76 68.97 -0.36 -10.62 4.44 0.01 -0.62 -1.72 0 0 0 31.59 9.64 -6.99 -2.23 -9.32 26.81 -0.36 -0.72 -11.65 -0.28 -3.38 9.33 3.72 0.34 10.93 2.74 1.09 0.29 0.6 0.47 -5.82 -2.14 -2.87 -16.63 0.54 -3.52 18.1 0.11 -1.76 8.42 -0 -0 0 -84.92 4.46 28.5 17.52 -27.54 -4.33 -0 0 -6.95 27.39 21.12 10.58 -7.12 0 -0 -1.32 53.49 -0.28 -0 -0 0 89.45 0.89 7.94 -12.41 20.42 -2.24 0 0 5.9 -18.8 22.44 -7.4 7.12 -0 -0 6.33 -6.53 5.61
3.69 18.08 26.33 -5.75 -3.21 -3.62 0 0 0 -12.21 -5.94 -20.12 12.38 18.55 67.18 -0.24 -9.6 -0.84 0 -0.16 -0.43 0 0 0 32.2 9.63 -4.86 -2.43 -9.72 28.07 -0.6 -0.78 -14.97 -0.2 -2.86 7.88 3.92 0.82 10.94 2.39 1.73 0.25 0.02 0.77 -5.84 -1.79 -2.95 -16.63 0.52 -3.72 18.14 0.02 -1.83 8.43 0 0 0 -84.79 5.74 30 17.55 -27.57 -4.34 -0 0 -11.41 29.92 18.97 10.6 -7.12 0 -0 1.74 51.6 0.28 0 0 0 89.17 1.08 12.02 -14.09 22.87 -2.86 0 0 3.95 -17.92 17.91 -5.68 7.12 -0 -0 6.63 -11.31 5.23
3.68 18.01 27.01 -6.36 -3.22 -3.37 0 0 0 -10.97 -7.57 -23.66 11.08 17.98 63.06 -0.07 -8.07 -4.01 0 -0.01 -0.04 0 0 0 33.23 8.83 -2.99 -2.52 -9.88 28.59 -0.83 -0.76 -17.52 -0.19 -2.84 7.83 4.99 1.02 10.9 2.25 2.1 0.51 -0.77 0.94 -5.49 -2.28 -3.14 -17.29 1.27 -3.98 17.79 0.31 -1.9 8.46 0 -0 0 -84.86 6.08 29.38 17.32 -27.27 -4.23 -0 0 -9.81 28.76 18.98 10.12 -7.12 0 -0 0.54 51.4 0.09 0 -0 0 88.56 2.7 15.26 -15.19 24.4 -3.3 0 0 1.13 -19.53 22.16 -7.62 7.12 -0 -0 5.86 -6.71 5.16
3.68 17.91 27.7 -7.01 -3.43 -3.31 0 0 0 -9.92 -8.17 -26.02 9.26 16.97 56.99 0.13 -5.04 -6.8 0.1 -1.99 -5.48 0 0 0 34.3 8.02 -0.71 -2.54 -9.91 28.69 -1.09 -0.69 -20.03 -0.16 -2.57 7.08 5.86 1.29 11.53 2.23 2.62 0.37 -1.38 1.15 -5.93 -2.04 -3.08 -17.07 1.01 -3.92 17.48 0.2 -1.88 8.3 -0 0 0 -85.05 7.46 29.09 17.16 -27.06 -4.16 -0 0 -9.35 29.12 17.94 9.74 -7.12 0 -0 1.08 50.32 0.14 -0 0 0 88.02 3.75 17.32 -16.07 25.62 -3.68 0 -0 -0.36 -20.2 21.72 -7.75 7.12 -0 -0 5.39 -7.07 4.71
3.68 17.84 28.39 -7.72 -3.65 -2.87 0 0 0 -8.49 -9.32 -27.56 6.67 15.05 47.63 0.15 -2.78 -6.85 0.01 -0.79 -2.17 0 0 0 35.48 7.64 2.21 -2.31 -9.49 27.33 -1.26 -1.3 -21.73 -0.13 -2.35 6.48 6.66 1.53 11.54 2.31 3.05 0.45 -1.8 1.35 -5.79 -1.96 -3.12 -17.07 0.91 -3.95 16.62 0.16 -1.91 8.01 -0 -0 0 -85.63 7.64 27.79 16.54 -26.25 -3.88 -0 0 -7.69 28.82 18.92 10.11 -7.12 0 -0 0.61 51.35 0.1 -0 -0 0 87.29 5.03 19.38 -17.27 27.21 -4.21 0 -0 -1.78 -20.15 22.37 -7.95 7.12 -0 -0 5.48 -6.4 4.86
3.68 17.79 29.14 -7.96 -3.83 -2.08 0 0 0 -7.67 -10.49 -27.38 3.88 11.99 35.71 0.1 -0.74 -5.82 0.04 -1.22 -3.36 0 0 0 35.85 6.84 4.89 -2.04 -8.95 25.63 -1.32 -1.47 -22.26 -0.1 -2.06 5.66 6.94 1.88 10.77 2.25 3.47 0.43 -2.05 1.56 -5.33 -2.15 -3.18 -16.91 1.25 -4.05 16.24 0.3 -1.93 7.87 0 0 0 -86.19 7.88 26.14 15.65 -25.05 -3.5 -0 0 -6.17 27.94 20.87 10.7 -7.12 0 -0 -0.68 53.32 -0.14 0 0 0 86.7 6.66 20.24 -17.7 27.77 -4.41 0 -0 -2.15 -20.04 22.91 -8.08 7.12 -0 -0 5.6 -5.86 5.02
3.7 17.7 29.89 -8.6 -4.03 -1.42 0 0 0 -6.46 -11.65 -26.12 1.78 8.4 23.94 0.15 0.63 -7.65 0.06 -1.64 -4.52 0 0 0 36.32 5.4 7.75 -1.73 -8.29 23.59 -1.44 -0.49 -22.86 -0.08 -1.87 5.13 7.62 2.13 10.3 2.3 3.85 0.42 -2.41 1.74 -5 -1.96 -3.21 -17.69 1.26 -4.13 16.29 0.25 -1.95 8.02 0 -0 0 -86.57 8.45 25.22 14.88 -23.98 -3.18 -0 0 -6.07 28.53 18.76 9.92 -7.12 0 -0 0.35 51.12 0.05 0 -0 0 86.34 8.27 20.46 -17.83 27.94 -4.47 0 -0 -2.03 -20.22 22.89 -8.15 7.12 -0 -0 5.48 -5.84 4.92
3.74 17.63 30.69 -8.8 -5.07 -0.84 0 0 0 -4.96 -14.29 -23.35 0.58 4.88 13.56 0.08 4.35 -8.56 0.16 -2.58 -7.11 0 0 0 35.88 4.1 10.16 -1.61 -8 22.73 -1.49 0.78 -22.88 -0 -0.27 0.75 7.98 2.57 9.69 2.21 4.41 0.33 -2.73 2.02 -4.67 -1.28 -3.23 -18.22 0.57 -4.19 16.94 -0.12 -2 8.3 -0 -0 0 -87.06 9.3 23.54 14.47 -23.4 -3.01 -0 0 -3.88 27.5 21.14 10.63 -7.12 0 -0 -1.21 53.53 -0.25 -0 -0 0 86.26 9.28 20.19 -17.81 27.91 -4.46 0 -0 -1.87 -20.08 22.82 -8.07 7.12 -0 -0 5.56 -5.95 4.98
3.81 17.54 31.51 -8.16 -5.47 -0.63 0 0 0 -5.92 -14.15 -22.62 0.38 3.97 10.99 0.04 4.85 -8.08 0.6 -4.97 -13.83 0 0 0 34.69 3.52 12.07 -1.8 -8.44 24.05 -1.51 1.59 -22.76 -0.06 1.54 -4.25 7.54 2.69 9.59 2.03 4.52 0.1 -2.7 2.07 -4.86 -1.47 -3.29 -18.25 0.65 -4.25 17.32 -0.07 -2.03 8.44 -0 0 0 -87.65 10.44 22.71 13.6 -22.16 -2.68 -0 0 -3.91 28.53 19.32 10.2 -7.12 0 -0 0.25 51.74 0.04 -0 0 0 86.15 9.9 19.85 -17.55 27.58 -4.34 0 -0 -1.21 -20.09 22.15 -7.85 7.12 -0 -0 5.5 -6.63 4.85
3.88 17.47 32.38 -7.45 -5.27 -1.18 0 0 0 -8.31 -12.22 -23.61 0.77 5.62 15.68 0.05 0.58 -4.49 0.57 -4.86 -13.5 0 0 0 33.51 2.59 13.89 -2.21 -9.28 26.68 -1.31 3.03 -20.84 -0.12 2.2 -6.05 7 2.67 9.24 1.86 4.38 0.36 -2.53 2.04 -4.42 -1.38 -3.32 -18.07 0.66 -4.32 17.5 -0.09 -2.06 8.47 -0 -0 0 -87.93 10.93 22.17 12.64 -20.75 -2.32 -0 0 -3.34 26.38 15.34 7.48 -7.12 0 -0 -1.19 47 -0.06 -0 -0 0 86.44 10.16 18.35 -17.47 27.48 -4.3 0 -0 -0.3 -20.14 22.85 -8.11 7.12 -0 -0 5.53 -5.91 4.95
3.95 17.52 33.29 -5.72 -4.84 -2.3 0 0 0 -11.11 -12 -23.32 1.36 7.39 20.88 -0.06 -4.36 0.45 0.06 -1.6 -4.41 0 0 0 31.06 1.34 14.94 -2.94 -10.6 30.94 -0.82 3.5 -16.32 -0.31 3.57 -9.88 5.43 2.71 9.52 1.43 4.26 0.54 -2.1 2.01 -4.49 -1.58 -3.56 -17.02 1.04 -4.69 17.15 0.05 -2.22 8.19 -0 0 0 -88.14 11.2 21.85 11.52 -19.08 -1.94 -0 0 -3.4 27.42 19.12 9.64 -7.12 0 -0 -0.84 51.31 -0.13 -0 0 0 86.86 9.38 16.52 -17.46 27.46 -4.3 0 0 0.34 -20.32 22.56 -8.09 7.12 -0 -0 5.39 -6.17 4.8
4.04 17.58 34.22 -4.17 -3.99 -2.97 0 0 0 -14.01 -11.72 -22.21 1.9 8.66 24.74 -0.1 -5.46 1.9 0.02 -0.95 -2.61 0 0 0 28.57 0.76 12.75 -4.44 -12.73 38.36 -0.13 3.06 -6.33 -0.17 2.67 -7.37 4.24 2.62 9 0.99 3.96 0.51 -1.84 1.88 -4.29 -1.64 -3.83 -16.83 1.06 -5.08 18.12 0.01 -2.4 8.49 -0 0 0 -88.16 10.94 19.65 10.55 -17.59 -1.64 -0 -0 0.18 25 29.55 12.95 -7.12 0 -0 -7.25 61.86 -2.98 -0 0 0 87.79 7.8 13.58 -17.16 27.07 -4.16 0 0 0.83 -20.77 22.65 -8.31 7.12 -0 -0 5.12 -6.01 4.57
4.15 17.66 35.1 -4.23 -4.37 -3.29 0 0 0 -15.45 -10.32 -21.1 2.49 9.81 28.37 -0.11 -6.22 0.19 0 -0.38 -1.04 0 0 0 27.4 1.26 8.34 -6.59 -14.97 47.29 -0.15 0.04 7.38 -0.04 1.35 -3.72 4.81 2.63 8.91 1.08 4.03 0.39 -2.07 1.91 -4.33 -1.83 -3.75 -16.24 1.23 -4.98 18.5 0.11 -2.35 8.52 0 0 0 -88.48 10.78 17.56 10.06 -16.83 -1.49 -0 -0 2.25 23.75 29.26 12.14 -7.12 0 -0 -8.53 61.25 -3.39 0 0 0 88.14 6.19 12.07 -16.89 26.71 -4.04 0 0 0.63 -20.1 22.39 -7.94 7.12 -0 -0 5.51 -6.38 4.89
4.23 17.73 35.9 -3 -5.16 -3.92 0 0 0 -17.91 -10.63 -17.82 2.77 10.32 30.02 0.02 -3.71 -3.38 0 -0.03 -0.07 0 0 0 25.48 3.39 2.6 -9.56 -17.15 57.99 -1.19 -6.83 19.5 -0.32 -3.65 10.1 3.62 2.71 9.78 0.88 4.05 0.47 -1.67 1.93 -4.8 -1.56 -3.56 -16.59 0.94 -4.72 18.78 -0 -2.23 8.66 -0 -0 0 -88.39 11.28 18.79 10.76 -17.91 -1.7 -0 0 -0.51 25.11 28.01 12.41 -7.12 0 -0 -6.3 60.3 -2.36 -0 -0 0 88.46 5.06 12.04 -16.86 26.68 -4.03 0 0 0.86 -19.48 22.67 -7.76 7.12 -0 -0 5.92 -6.19 5.28
4.26 17.76 36.67 -0.87 -5.05 -4.5 0 0 0 -21.43 -10.51 -14.36 2.83 10.41 30.31 0.12 -2.45 -6.22 0 0.15 0.4 0 0 0 22.51 3.85 -3.7 -12.56 -18.62 67.77 -0.68 -10.42 15.34 -0.38 -3.95 10.93 1.15 2.5 10.12 0.6 3.48 0.89 -0.51 1.7 -4.71 -1.65 -3.31 -16.76 1.11 -4.37 18.07 0.11 -2.06 8.45 0 -0 0 -88.01 10.33 21.58 11.05 -18.36 -1.79 -0 0 -4.89 27.83 24.17 12.2 -7.12 0 -0 -1.7 56.88 -0.49 0 -0 0 88.32 5.01 12.64 -16.35 26 -3.8 0 0 2.06 -19.45 23.08 -7.88 7.12 -0 -0 5.98 -5.77 5.38
4.28 17.78 37.4 -0.52 -5.12 -4.87 0 0 0 -22.66 -9.03 -11.47 2.84 10.43 30.39 0.25 -2.52 -8.91 0.01 -0.63 -1.73 0 0 0 21.8 4.07 -9.74 -14.7 -19.31 74.33 0.07 -10.07 5.88 -0.41 -4.12 11.41 0.51 2.24 10.48 0.73 3.07 1.03 0.03 1.51 -4.82 -2.07 -2.93 -15.55 1.8 -3.88 17.08 0.49 -1.8 7.92 -0 0 0 -87.37 9.34 23.06 11.41 -18.91 -1.91 -0 0 -5.68 28.43 18.39 9.69 -7.12 0 -0 0.31 50.69 0.04 -0 0 0 88.64 4.67 11.95 -15.9 25.39 -3.6 0 0 3.79 -19.91 22.38 -7.85 7.12 -0 -0 5.63 -6.42 4.99
4.29 17.81 38.12 0.07 -4.66 -4.99 0 0 0 -23.99 -8.2 -8.69 2.73 10.24 29.75 0.37 -2.75 -10.82 0 0.36 1 0 0 0 20.98 4.88 -15.47 -15.71 -19.55 77.37 0.23 -8.92 -0.58 -0.26 -3.3 9.13 -0.19 1.72 10.34 0.69 2.29 1.24 0.5 1.14 -4.54 -1.58 -2.68 -15.74 1.22 -3.55 17.67 0.26 -1.66 8.12 0 -0 0 -86.52 7.53 23.58 11.8 -19.5 -2.03 -0 0 -3.68 27.16 23.85 11.72 -7.12 0 -0 -2.33 56.39 -0.65 0 -0 0 89.17 4.75 10.99 -15.43 24.74 -3.4 0 0 4.53 -20.12 21.54 -7.66 7.12 -0 -0 5.43 -7.27 4.72
4.3 17.8 38.83 1.28 -3.82 -4.85 0 0 0 -26.08 -7.5 -5.91 2.69 10.17 29.54 0.54 -2.79 -13.23 0 0.21 0.59 0 0 0 19.22 5.81 -20.84 -15.68 -19.55 77.29 0.13 -6.32 -2.88 -0.28 -3.38 9.33 -1.34 1.17 10.31 0.5 1.43 1.17 1.08 0.74 -4.61 -1.42 -2.33 -15.5 0.96 -3.06 17.84 0.2 -1.45 8.12 -0 -0 0 -85.37 5.68 25.8 12.05 -19.88 -2.12 -0 0 -4.62 29.24 17.59 9.6 -7.12 0 -0 1.26 49.94 0.15 -0 -0 0 89.61 3.7 10.59 -15.83 25.29 -3.57 0 0 3.01 -19.9 22.41 -7.86 7.12 -0 -0 5.64 -6.4 5
4.3 17.74 39.48 0.6 -3.4 -4.41 0 0 0 -25.66 -6.79 -4.48 2.8 10.36 30.16 0.73 -3.29 -15.38 0 0.25 0.69 0 0 0 20 7.76 -25.41 -14.62 -19.29 74.09 -0.03 -4.18 -7.16 -0.09 -1.98 5.46 -0.79 0.72 10.69 0.85 0.91 0.93 1.2 0.47 -5.05 -3.36 -3.19 -14.73 2.7 -4.15 17.32 0.98 -1.93 7.91 0 0 0 -84.11 3.57 27.95 12.1 -19.96 -2.14 -0 0 -5.21 31.15 13.33 7.94 -7.12 0 -0 3.56 45.43 0.04 0 0 0 89.8 2.47 11.1 -16.21 25.81 -3.74 0 0 1.29 -19.51 20.96 -7.22 7.12 -0 -0 5.78 -7.96 4.95
4.29 17.71 40.19 1.78 -2.48 -4.42 0 0 0 -27.47 -5.73 -1.36 2.56 9.94 28.78 0.88 -3.33 -16.92 0 -0.43 -1.19 0 0 0 18.35 8.53 -28.55 -12.59 -18.63 67.86 -0.2 -3.08 -10.14 -0.02 -0.93 2.55 -2 0.26 10.61 0.64 0.14 1.21 1.78 0.11 -4.7 -2.92 -3.07 -15.21 2.09 -3.96 17.69 0.73 -1.87 8.09 -0 -0 0 -83.2 1.01 27.13 12.46 -20.5 -2.26 -0 0 -2.14 31.97 15.12 9.25 -7.12 0 -0 4.23 47.6 0.27 -0 -0 0 90.02 1.53 11.83 -16.75 26.52 -3.97 0 0 0.41 -19.46 22.26 -7.62 7.12 -0 -0 5.91 -6.62 5.22
4.28 17.7 40.88 2.15 -1.57 -3.87 0 0 0 -27.99 -4.57 1.34 2.23 9.32 26.81 0.97 -4.33 -17.69 0 -0.07 -0.2 0 0 0 17.64 9.38 -30.71 -9.73 -17.26 58.59 -0.22 -4.16 -11.47 -0 -0.4 1.1 -2.5 -0.21 10.97 0.75 -0.55 1.04 2.27 -0.21 -5.04 -3.27 -3.04 -14.93 2.64 -3.93 17 0.97 -1.83 7.83 0 -0 0 -82.06 -1.55 29.05 12.71 -20.86 -2.35 -0 0 -4.57 28.64 19.95 10.55 -7.12 0 -0 0.24 52.44 0.04 0 -0 0 90 0.21 12.47 -17.42 27.4 -4.28 0 0 0.33 -19.41 22.34 -7.63 7.12 -0 -0 5.94 -6.54 5.25
4.25 17.68 41.58 2.95 -0.82 -2.92 0 0 0 -28.76 -3.02 4.2 1.72 8.25 23.47 0.98 -5.37 -17.68 0.04 1.22 3.36 0 0 0 16.3 10.59 -31.64 -6.49 -14.88 46.9 -0.05 -6.91 -10.99 -0.01 -0.49 1.34 -3.56 -0.57 10.53 0.68 -1.14 0.89 2.88 -0.48 -4.89 -2.83 -2.76 -14.44 2.54 -3.63 16.03 0.91 -1.67 7.4 -0 -0 0 -81.04 -3.4 31.97 13.42 -21.9 -2.61 -0 0 -11.99 34.33 15.18 10.14 -7.12 0 -0 6.55 48.06 0.5 -0 -0 0 90.09 -0.09 12.31 -17.07 26.95 -4.12 0 0 1.05 -18.91 20.98 -6.99 7.12 -0 -0 6.16 -8.02 5.27
4.2 17.69 42.31 2.91 -0.07 -2.1 0 0 0 -28.3 -0.81 7.08 1.24 7.06 19.89 0.95 -5.69 -17.44 0.03 -1.14 -3.14 0 0 0 15.7 12.63 -30.14 -3.3 -11.17 32.85 0.24 -10.33 -9.92 -0 -0.23 0.65 -3.98 -0.98 10.56 0.99 -1.72 0.64 3.54 -0.75 -5.11 -3.2 -2.88 -15.71 2.73 -3.73 17.17 1.01 -1.71 8.02 -0 0 0 -80.44 -5.71 29.86 14.05 -22.8 -2.85 -0 0 -6.97 29.51 20.1 11.01 -7.12 0 -0 1.12 52.78 0.21 -0 0 0 90.16 -0.17 10.56 -15.94 25.44 -3.62 0 0 2.74 -17.67 21.33 -6.61 7.12 -0 -0 6.97 -7.83 6
4.16 17.66 43.07 3.52 1.4 -1.43 0 0 0 -28.34 0.69 11.03 0.79 5.67 15.82 0.82 -7.28 -16.17 0.07 -1.67 -4.59 0 0 0 13.29 15.53 -27.49 -1.32 -7.27 20.52 0.31 -12.75 -13.35 -0.04 1.29 -3.55 -4.45 -1.37 9.45 0.88 -2.26 0.58 3.73 -1.02 -4.49 -3.76 -3.18 -14.55 3.59 -4.21 16.65 1.34 -1.9 7.69 -0 0 0 -79.96 -7.35 30.86 14.67 -23.69 -3.09 -0 0 -7.89 29.25 20.46 11.07 -7.12 0 -0 0.77 53.13 0.15 -0 0 0 90.4 -1.08 8.99 -15.31 24.58 -3.35 0 0 2.41 -17.76 21.33 -6.64 7.12 -0 -0 6.92 -7.82 5.95
4.1 17.61 43.84 3.01 2.34 -1.06 0 0 0 -27.02 1.29 13.44 0.75 5.52 15.38 0.72 -8.81 -15.43 0.16 -2.61 -7.19 0 0 0 12.31 19.09 -24.98 -0.61 -5.01 13.94 0.14 -14.02 -18.23 -0.05 1.43 -3.94 -4.32 -1.71 9.64 1.27 -2.68 0.88 4.1 -1.24 -4.23 -3.5 -3.29 -16.75 3.54 -4.35 17.21 1.24 -1.93 8.26 0 0 0 -79.71 -9.86 31.3 15.06 -24.23 -3.25 -0 0 -8.03 28.93 17.49 9.43 -7.12 0 -0 0.96 49.78 0.11 0 0 0 90.62 -0.76 7.89 -14.77 23.82 -3.13 0 0 2.19 -17.9 21.34 -6.71 7.12 -0 -0 6.82 -7.78 5.88
4.05 17.5 44.61 3.66 2.2 -1.2 0 0 0 -27.51 1.1 15.31 0.97 6.28 17.61 0.67 -9.31 -15.05 0.19 -2.8 -7.71 0 0 0 14.26 13.94 -27.77 -1.06 -6.54 18.37 -0.04 -8.23 -12.46 -0.02 0.94 -2.59 -5.01 -1.47 10.05 1.17 -2.45 0.74 4.39 -1.1 -4.6 -3.27 -3.21 -15.56 3.41 -4.29 16.46 1.18 -1.92 7.79 -0 0 0 -79.82 -10.51 32.81 15.56 -24.92 -3.46 -0 0 -8.7 33.08 19.07 12.02 -7.12 0 -0 5.02 52.33 0.91 -0 0 0 90.78 -2.03 5.91 -14.34 23.22 -2.96 0 0 3.45 -18.01 25.77 -8.04 7.12 -0 -0 7.09 -3.25 6.73
3.98 17.48 45.47 2.34 1.77 -1.27 0 0 0 -26.11 0.62 16.45 1.42 7.53 21.29 0.49 -9.5 -13.19 1.4 -7.48 -21.15 0 0 0 16.68 14.66 -28.07 -1.83 -8.5 24.25 0.07 -7.33 -8.77 -0.01 -0.56 1.54 -3.81 -1.46 9.78 1.61 -2.28 0.63 4.14 -1.04 -4.61 -3.7 -3.59 -15.95 3.8 -4.79 17.16 1.31 -2.14 8.13 -0 0 0 -80.17 -10.11 33.57 16.19 -25.78 -3.73 -0 0 -7.95 32.34 17.55 10.81 -7.12 0 -0 4.4 50.45 0.59 -0 0 0 91 -2.69 3.97 -13.27 21.68 -2.55 0 0 4.66 -19.09 23.9 -7.98 7.12 -0 -0 6.27 -4.99 5.74
3.91 17.52 46.36 1.35 1.54 -1.58 0 0 0 -24.83 0.4 14.94 2.41 9.67 27.92 -0.15 -12.19 -6.29 1.66 -8.12 -23.09 0 0 0 17.67 17.16 -26.64 -2.28 -9.43 27.15 0.06 -5.28 -5.28 -0 -0.35 0.97 -3 -1.62 9.41 2.09 -2.37 1.09 4.16 -1.12 -3.93 -3.38 -3.21 -17.09 3.2 -4.2 17.47 1.12 -1.88 8.39 -0 -0 0 -81.07 -9.91 33.11 16.83 -26.64 -4.01 -0 0 -6.57 34.24 17.59 11.63 -7.12 0 -0 6.35 50.86 0.92 -0 -0 0 90.77 -1.91 2.56 -12.3 20.26 -2.21 0 0 6.9 -19.03 22.26 -7.44 7.12 -0 -0 6.18 -6.68 5.45
