HIERARCHY
ROOT Hips
{
	OFFSET 0.00000 0.00000 0.00000
	CHANNELS 6 Xposition Yposition Zposition Zrotation Yrotation Xrotation 
	JOINT LHipJoint
	{
		OFFSET 0 0 0
		CHANNELS 3 Zrotation Yrotation Xrotation
		JOINT LeftUpLeg
		{
			OFFSET 1.41261 -1.82971 0.84908
			CHANNELS 3 Zrotation Yrotation Xrotation
			JOINT LeftLeg
			{
				OFFSET 2.52554 -6.93888 0.00000
				CHANNELS 3 Zrotation Yrotation Xrotation
				JOINT LeftFoot
				{
					OFFSET 2.56654 -7.05152 0.00000
					CHANNELS 3 Zrotation Yrotation Xrotation
					JOINT LeftToeBase
					{
						OFFSET 0.21698 -0.59616 1.85369
						CHANNELS 3 Zrotation Yrotation Xrotation
						End Site
						{
							OFFSET 0.00000 -0.00000 0.97832
						}
					}
				}
			}
		}
	}
	JOINT RHipJoint
	{
		OFFSET 0 0 0
		CHANNELS 3 Zrotation Yrotation Xrotation
		JOINT RightUpLeg
		{
			OFFSET -1.12808 -1.82971 0.84907
			CHANNELS 3 Zrotation Yrotation Xrotation
			JOINT RightLeg
			{
				OFFSET -2.53425 -6.96280 0.00000
				CHANNELS 3 Zrotation Yrotation Xrotation
				JOINT RightFoot
				{
					OFFSET -2.58413 -7.09983 0.00000
					CHANNELS 3 Zrotation Yrotation Xrotation
					JOINT RightToeBase
					{
						OFFSET -0.26437 -0.72636 1.92241
						CHANNELS 3 Zrotation Yrotation Xrotation
						End Site
						{
							OFFSET -0.00000 -0.00000 1.02667
						}
					}
				}
			}
		}
	}
	JOINT LowerBack
	{
		OFFSET 0 0 0
		CHANNELS 3 Zrotation Yrotation Xrotation
		JOINT Spine
		{
			OFFSET -0.02096 2.02288 -0.14752
			CHANNELS 3 Zrotation Yrotation Xrotation
			JOINT Spine1
			{
				OFFSET 0.03477 2.03136 -0.02358
				CHANNELS 3 Zrotation Yrotation Xrotation
				JOINT Neck
				{
					OFFSET 0 0 0
					CHANNELS 3 Zrotation Yrotation Xrotation
					JOINT Neck1
					{
						OFFSET 0.00174 1.74359 0.19336
						CHANNELS 3 Zrotation Yrotation Xrotation
						JOINT Head
						{
							OFFSET -0.03054 1.76140 -0.17751
							CHANNELS 3 Zrotation Yrotation Xrotation
							End Site
							{
								OFFSET -0.00863 1.77239 -0.08120
							}
						}
					}
				}
				JOINT LeftShoulder
				{
					OFFSET 0 0 0
					CHANNELS 3 Zrotation Yrotation Xrotation
					JOINT LeftArm
					{
						OFFSET 3.68685 1.32687 -0.67367
						CHANNELS 3 Zrotation Yrotation Xrotation
						JOINT LeftForeArm
						{
							OFFSET 4.76468 -0.00000 -0.00000
							CHANNELS 3 Zrotation Yrotation Xrotation
							JOINT LeftHand
							{
								OFFSET 3.52712 -0.00000 -0.00000
								CHANNELS 3 Zrotation Yrotation Xrotation
								JOINT LeftFingerBase
								{
									OFFSET 0 0 0
									CHANNELS 3 Zrotation Yrotation Xrotation
									JOINT LeftHandIndex1
									{
										OFFSET 0.85956 -0.00000 -0.00000
										CHANNELS 3 Zrotation Yrotation Xrotation
										End Site
										{
											OFFSET 0.69300 -0.00000 -0.00000
										}
									}
								}
								JOINT LThumb
								{
									OFFSET 0 0 0
									CHANNELS 3 Zrotation Yrotation Xrotation
									End Site
									{
										OFFSET 0.70358 -0.00000 0.70358
									}
								}
							}
						}
					}
				}
				JOINT RightShoulder
				{
					OFFSET 0 0 0
					CHANNELS 3 Zrotation Yrotation Xrotation
					JOINT RightArm
					{
						OFFSET -3.31304 1.28268 -0.97357
						CHANNELS 3 Zrotation Yrotation Xrotation
						JOINT RightForeArm
						{
							OFFSET -4.90577 -0.00000 -0.00000
							CHANNELS 3 Zrotation Yrotation Xrotation
							JOINT RightHand
							{
								OFFSET -3.42692 -0.00000 0.00000
								CHANNELS 3 Zrotation Yrotation Xrotation
								JOINT RightFingerBase
								{
									OFFSET 0 0 0
									CHANNELS 3 Zrotation Yrotation Xrotation
									JOINT RightHandIndex1
									{
										OFFSET -0.74096 -0.00000 -0.00000
										CHANNELS 3 Zrotation Yrotation Xrotation
										End Site
										{
											OFFSET -0.59738 -0.00000 -0.00000
										}
									}
								}
								JOINT RThumb
								{
									OFFSET 0 0 0
									CHANNELS 3 Zrotation Yrotation Xrotation
									End Site
									{
										OFFSET -0.60650 -0.00000 0.60650
									}
								}
							}
						}
					}
				}
			}
		}
	}
}
MOTION
Frames: 192
Frame Time: 0.0333332
1.8 17.86 4.76 -1.69 -3.69 0.93 0 0 0 -18.56 1.07 -0.88 0.53 4.65 12.92 0.61 -2.6 -14.13 2.6 -10.02 -29.04 0 0 0 20.24 2.79 -2.52 -0.86 -5.91 16.54 -0.57 -1.45 -14.84 -0.58 -4.89 13.6 -2.97 -1.16 4.92 2.43 -1.65 -0.48 4.31 -0.75 -3.1 -10.73 -10.96 -3.6 10.73 -14.59 2.31 4.23 -7.16 2.85 -0 0 0 -98.46 2.98 -1.13 17.82 -27.93 -4.47 -0 -0 6.39 7.71 -11.36 -1.53 -7.12 0 -0 -13.58 18.69 8.76 -0 0 0 89.62 4.93 9.24 -10.77 17.94 -1.71 0 0 8.31 -6.27 -36.63 3.75 7.12 -0 -0 34.24 -63.53 -16.34
1.81 17.86 4.76 -2.09 -3.77 0.8 0 0 0 -18.15 0.85 -1.06 0.59 4.92 13.67 0.74 -2.82 -15.54 1.96 -8.79 -25.13 0 0 0 20.69 2.98 -2.25 -0.86 -5.9 16.49 -0.62 -1.36 -15.4 -1.13 -6.76 19 -2.54 -1.12 5.18 2.47 -1.58 -0.24 4.1 -0.73 -3.02 -10.44 -11.36 -4.81 10.37 -15.05 2.91 3.95 -7.35 3.22 -0 -0 0 -98.38 2.78 -1.31 17.33 -27.28 -4.24 -0 -0 7 8.06 -11.72 -1.65 -7.12 0 -0 -13.32 18.32 8.69 -0 -0 0 89.66 4.98 6.6 -10.03 16.79 -1.48 0 0 8.43 -5.48 -35.87 3.22 7.12 -0 -0 34.12 -62.71 -15.62
1.82 17.85 4.77 -2.13 -3.84 0.73 0 0 0 -18.16 0.62 -1.16 0.64 5.1 14.2 0.75 -2.63 -15.65 1.81 -8.47 -24.14 0 0 0 20.69 2.94 -2.19 -0.86 -5.92 16.54 -0.62 -1.24 -15.37 -1.01 -6.39 17.93 -2.53 -1.05 5.35 2.46 -1.48 -0.1 4.09 -0.68 -2.98 -10.54 -11.37 -4.81 10.66 -15.05 2.52 4.06 -7.35 3.13 0 -0 0 -98.34 2.95 -1.05 17.39 -27.36 -4.26 -0 -0 6.81 8.04 -11.8 -1.66 -7.12 0 -0 -13.32 18.24 8.72 0 -0 0 89.76 4.73 2.58 -9.71 16.28 -1.39 0 0 10.73 0.1 -37.84 -0.06 7.12 -0 -0 42.05 -62.79 -19.97
1.83 17.85 4.77 -1.74 -4.24 0.63 0 0 0 -18.64 1.06 -1.04 0.61 5.02 13.96 0.76 -2.66 -15.73 1.82 -8.47 -24.17 0 0 0 20.21 3.3 -2.24 -0.91 -6.07 16.98 -0.64 -0.99 -15.51 -1 -6.36 17.83 -2.94 -0.98 5.35 2.32 -1.42 -0.03 4.17 -0.65 -2.9 -10.5 -11.2 -4.55 10.57 -14.83 2.42 4.07 -7.25 3.03 -0 0 0 -98.16 3.04 -1.05 17.38 -27.36 -4.26 -0 -0 6.92 8.03 -11.88 -1.66 -7.12 0 -0 -13.33 18.16 8.75 -0 0 0 89.86 4.27 1.55 -9.27 15.59 -1.27 0 0 12.46 -1.94 -38.1 1.2 7.12 -0 -0 40.41 -63.52 -19.74
1.85 17.85 4.77 -1.65 -4.41 0.66 0 0 0 -18.75 1.56 -1.07 0.59 4.9 13.63 0.75 -2.92 -15.62 1.87 -8.6 -24.54 0 0 0 20.07 3.61 -2.26 -0.92 -6.11 17.12 -0.65 -1.08 -15.62 -1.08 -6.6 18.54 -2.94 -1.05 5.31 2.27 -1.51 -0.07 4.12 -0.7 -2.91 -10.05 -11.02 -4.89 9.43 -14.58 3.37 3.65 -7.13 3.22 0 -0 0 -98.01 3.26 -1.14 17.48 -27.49 -4.31 -0 -0 6.86 8.03 -11.51 -1.61 -7.12 0 -0 -13.35 18.53 8.66 0 -0 0 90.16 4 0.38 -8.92 15.04 -1.18 0 0 15.08 -5.94 -37.1 3.59 7.12 -0 -0 35.15 -63.83 -17.07
1.87 17.84 4.77 -1.43 -4.29 0.71 0 0 0 -19.07 1.58 -0.97 0.56 4.78 13.27 0.73 -3.01 -15.39 1.88 -8.62 -24.62 0 0 0 19.75 3.46 -2.46 -0.94 -6.17 17.27 -0.65 -1.06 -15.65 -1.04 -6.5 18.23 -3.03 -1.13 5.28 2.24 -1.62 -0.14 4.14 -0.75 -2.95 -10.32 -10.88 -4.7 9.3 -14.4 3.69 3.67 -7.05 3.28 -0 0 0 -97.93 3.23 -0.96 17.44 -27.44 -4.29 -0 -0 6.99 8.03 -11.4 -1.6 -7.12 0 -0 -13.36 18.64 8.63 -0 0 0 89.98 3.3 2.8 -9.24 15.54 -1.26 0 0 12.96 -5.66 -37.72 3.47 7.12 -0 -0 36.22 -64.24 -18
1.88 17.84 4.76 -1.44 -4.26 0.75 0 0 0 -19.07 1.74 -1.02 0.54 4.71 13.07 0.73 -3.3 -15.31 1.87 -8.59 -24.51 0 0 0 19.7 3.44 -2.62 -0.95 -6.22 17.42 -0.65 -1.03 -15.67 -1.08 -6.59 18.52 -3.06 -1.21 5.25 2.3 -1.73 -0.15 4.23 -0.8 -2.94 -10.21 -10.85 -5.03 8.61 -14.35 4.73 3.41 -7.04 3.58 -0 -0 0 -97.83 3.21 -0.4 17.52 -27.54 -4.32 -0 -0 6.56 8.11 -12.6 -1.78 -7.12 0 -0 -13.24 17.45 8.9 -0 -0 0 89.9 3.17 3.99 -9.44 15.86 -1.32 0 0 11.94 -5.48 -37.8 3.37 7.12 -0 -0 36.52 -64.26 -18.18
1.89 17.85 4.74 -1.47 -4.44 0.7 0 0 0 -19.04 1.88 -0.9 0.51 4.59 12.75 0.71 -3.22 -15.13 1.75 -8.33 -23.73 0 0 0 19.7 3.64 -2.74 -0.97 -6.28 17.61 -0.66 -0.92 -15.67 -1.1 -6.67 18.75 -3.16 -1.19 5.36 2.36 -1.71 -0.12 4.35 -0.79 -2.97 -10.05 -10.44 -4.77 8.32 -13.83 5.17 3.35 -6.79 3.59 0 -0 0 -97.75 3.25 0.46 17.81 -27.92 -4.46 -0 -0 6.09 7.97 -12.76 -1.77 -7.12 0 -0 -13.32 17.3 9.01 0 -0 0 89.9 3.26 4.99 -9.61 16.12 -1.36 0 0 11.2 -6.32 -37.03 3.82 7.12 -0 -0 34.67 -63.87 -16.84
1.89 17.84 4.72 -1.31 -4.55 0.65 0 0 0 -19.2 1.97 -0.88 0.5 4.54 12.61 0.69 -3.22 -14.96 1.77 -8.38 -23.87 0 0 0 19.51 3.59 -2.88 -0.99 -6.33 17.74 -0.66 -0.74 -15.63 -1.11 -6.68 18.78 -3.43 -1.11 5.46 2.31 -1.63 -0.07 4.45 -0.75 -2.98 -9.72 -10.04 -4.15 7.9 -13.36 5.41 3.24 -6.58 3.46 0 -0 0 -97.51 3.14 1.47 18.05 -28.23 -4.57 -0 -0 5.54 8.02 -13 -1.81 -7.12 0 -0 -13.28 17.06 9.05 0 -0 0 89.97 3.35 6.51 -9.92 16.62 -1.45 0 0 9.79 -6.8 -36.88 4.09 7.12 -0 -0 34 -63.88 -16.49
1.89 17.85 4.69 -1.58 -4.67 0.72 0 0 0 -18.9 1.73 -0.97 0.51 4.57 12.69 0.68 -2.94 -14.87 1.79 -8.41 -23.98 0 0 0 19.82 3.64 -2.97 -0.97 -6.28 17.61 -0.64 -0.7 -15.4 -1.15 -6.81 19.16 -3.24 -1.03 5.38 2.32 -1.51 0.01 4.34 -0.69 -2.86 -9.4 -9.54 -3.76 7.37 -12.74 6.32 3.08 -6.29 3.57 0 -0 0 -97.26 2.92 1.95 18.2 -28.41 -4.64 -0 -0 5.52 8.06 -13.16 -1.85 -7.12 0 -0 -13.25 16.91 9.07 0 -0 0 90.11 3.62 8.26 -10.16 16.99 -1.52 0 0 8.28 -7.41 -36.94 4.47 7.12 -0 -0 33.44 -64.09 -16.35
1.87 17.85 4.67 -1.51 -4.72 0.69 0 0 0 -18.94 1.64 -0.96 0.51 4.56 12.66 0.68 -2.79 -14.9 1.86 -8.57 -24.45 0 0 0 19.81 3.64 -3.06 -0.98 -6.3 17.65 -0.64 -0.69 -15.35 -1.1 -6.66 18.7 -3.35 -0.95 5.41 2.19 -1.42 0.03 4.26 -0.65 -2.87 -8.53 -8.48 -4.09 6.08 -11.37 9.23 2.59 -5.64 4.27 -0 0 0 -96.88 2.82 2.43 18.23 -28.45 -4.66 -0 -0 5.28 8.04 -13.13 -1.84 -7.12 0 -0 -13.26 16.94 9.07 -0 0 0 90.35 3.75 9.62 -10.31 17.22 -1.56 0 0 7.01 -8.59 -35.94 5.07 7.12 -0 -0 31.02 -63.58 -14.68
1.85 17.85 4.64 -1.55 -4.71 0.6 0 0 0 -18.84 1.49 -1.09 0.53 4.68 13.01 0.69 -2.68 -15.03 1.89 -8.63 -24.66 0 0 0 19.93 3.68 -3.1 -0.99 -6.32 17.73 -0.62 -0.81 -15.23 -1.04 -6.48 18.18 -3.19 -0.78 5.33 2.1 -1.18 -0.08 4.06 -0.53 -2.97 -7.11 -6.66 -5.68 3.87 -8.92 16.36 1.72 -4.48 6.4 -0 0 0 -96.76 2.8 2.34 18.03 -28.19 -4.56 -0 -0 5.81 7.96 -12.92 -1.79 -7.12 0 -0 -13.32 17.15 9.05 -0 0 0 90.32 3.63 10.56 -10.41 17.38 -1.6 0 0 5.88 -9.22 -35.69 5.41 7.12 -0 -0 30.08 -63.54 -14.16
1.84 17.84 4.61 -1.18 -4.69 0.09 0 0 0 -19.17 1.75 -0.79 0.54 4.73 13.13 0.69 -2.83 -14.98 1.89 -8.63 -24.65 0 0 0 19.59 3.53 -2.9 -1.03 -6.46 18.13 -0.65 -0.62 -15.5 -1.07 -6.58 18.48 -3.4 -0.47 5.33 1.86 -0.78 0.36 3.89 -0.34 -2.55 -4.34 -4.24 -8.64 1.65 -5.64 25.44 0.69 -2.88 9.62 0 0 0 -96.46 2.24 3.38 17.97 -28.12 -4.54 -0 -0 5.56 8.01 -12.79 -1.78 -7.12 0 -0 -13.29 17.27 8.99 0 0 0 90.28 4.22 10.69 -10.68 17.79 -1.68 0 0 4.79 -9.58 -34.86 5.51 7.12 -0 -0 28.78 -62.92 -13.08
1.82 17.83 4.58 -1.1 -4.43 -0.25 0 0 0 -19.21 1.66 -0.86 0.6 4.95 13.77 0.71 -2.9 -15.24 1.97 -8.81 -25.2 0 0 0 19.55 3.09 -2.9 -1.06 -6.55 18.38 -0.66 -0.46 -15.47 -1.07 -6.57 18.45 -3.14 -0.16 5.52 1.76 -0.35 0.69 3.61 -0.14 -2.35 -2.63 -2.19 -9.66 1.17 -3.05 32.22 0.5 -1.56 12.27 -0 0 0 -96.25 2.32 5.37 18.27 -28.51 -4.68 -0 -0 4.8 8.3 -12.96 -1.87 -7.12 0 -0 -13.09 17.1 8.9 -0 0 0 90.06 4.21 10.16 -11.41 18.91 -1.91 0 0 5.74 -6.42 -36.53 3.83 7.12 -0 -0 33.96 -63.49 -16.15
1.8 17.83 4.54 -1.42 -4.08 -0.51 0 0 0 -18.76 1.27 -0.93 0.65 5.15 14.33 0.72 -2.97 -15.27 1.85 -8.55 -24.4 0 0 0 20.04 3.06 -2.64 -1.05 -6.52 18.29 -0.65 -0.88 -15.53 -1.13 -6.74 18.95 -2.55 0.12 5.87 1.77 0.04 0.98 3.25 0.04 -2.28 -1.51 -0.96 -8.34 1.11 -1.57 36.07 0.49 -0.77 13.59 0 -0 0 -95.94 2.38 6.86 18.34 -28.59 -4.71 -0 -0 4.67 8.01 -12.92 -1.8 -7.12 0 -0 -13.29 17.15 9.03 0 -0 0 89.89 4.32 9.67 -11.44 18.97 -1.92 0 0 5.35 -6.19 -37.42 3.77 7.12 -0 -0 35.3 -64.14 -17.41
1.78 17.84 4.46 -1.23 -3.79 -0.5 0 0 0 -18.87 1 -1.38 0.67 5.22 14.54 0.69 -3.17 -14.96 1.84 -8.53 -24.34 0 0 0 19.95 3.42 -2.98 -1.08 -6.6 18.54 -0.62 -1.39 -15.47 -1.07 -6.58 18.46 -2.55 0.34 6.45 1.71 0.33 1.58 3.17 0.17 -2.01 -1.15 -0.35 -6.96 1.26 -0.83 39.1 0.61 -0.39 14.69 0 -0 0 -95.88 1.63 7.17 18.3 -28.55 -4.69 -0 -0 4.73 7.96 -13 -1.8 -7.12 0 -0 -13.32 17.07 9.07 0 -0 0 89.7 4.88 10.73 -11.42 18.92 -1.91 0 0 1.33 -8.96 -35.98 5.29 7.12 -0 -0 30.69 -63.72 -14.6
1.77 17.85 4.3 -1.22 -3.71 -0.21 0 0 0 -18.8 0.74 -2.43 0.69 5.32 14.81 0.65 -3.32 -14.52 1.78 -8.4 -23.94 0 0 0 19.95 3.61 -4.04 -1.11 -6.69 18.8 -0.59 -1.46 -15.07 -1.15 -6.81 19.15 -2.36 0.53 7.91 1.64 0.55 2.49 2.97 0.27 -1.9 -1.11 -0.1 -5.63 1.37 -0.54 40.89 0.7 -0.25 15.27 0 0 0 -95.64 0.89 8.19 18.98 -29.39 -5.02 -0 -0 3.75 8.32 -11.71 -1.7 -7.12 0 -0 -13.14 18.32 8.57 0 0 0 89.41 5.85 13.41 -12 19.81 -2.1 0 -0 -1.24 -10.9 -35.96 6.45 7.12 -0 -0 28.62 -64.22 -13.87
1.76 17.89 4.05 -1.2 -4.01 0.86 0 0 0 -18.76 0.09 -4.36 0.68 5.26 14.66 0.56 -3.01 -13.39 1.89 -8.63 -24.64 0 0 0 19.85 4.51 -6.13 -1.12 -6.73 18.91 -0.5 -1.57 -14.04 -1.15 -6.81 19.14 -2.81 0.37 9.91 2.07 0.27 3.82 3.7 0.1 -1.6 -2.1 0.44 -5.11 1.03 0.61 41.44 0.9 0.04 15.42 0 -0 0 -96.34 -0.13 9.04 20.49 -31.22 -5.78 -0 -0 1.93 8.21 -12.83 -1.84 -7.12 0 -0 -13.15 17.22 8.91 0 -0 0 87.96 7.88 16.77 -13.24 21.64 -2.54 0 0 0.06 -5.73 -37.37 3.48 7.12 -0 -0 35.7 -63.98 -17.5
1.77 17.93 3.69 -1.39 -4.08 2.89 0 0 0 -18.39 -1.12 -7.82 0.68 5.27 14.67 0.45 -2.99 -11.93 1.83 -8.5 -24.25 0 0 0 19.78 5.64 -9.9 -1.16 -6.85 19.27 -0.39 -1.76 -12.63 -1.3 -7.22 20.36 -2.5 0.51 13 1.93 0.42 5.1 3.37 0.16 -1.97 -1.66 0.58 -4.87 0.7 0.83 40.94 0.7 0.16 15.1 -0 0 0 -95.69 -0.66 12.1 23.09 -34.19 -7.19 -0 0 -0.47 8.38 -13.04 -1.9 -7.12 0 -0 -13.03 17 8.88 -0 0 0 87.41 9.92 20.65 -15.12 24.32 -3.28 0 -0 -2.66 -5.82 -37.58 3.56 7.12 -0 -0 35.88 -64.17 -17.75
1.78 17.95 3.2 -1.41 -3.93 6.9 0 0 0 -17.89 -3.39 -14.54 0.8 5.7 15.93 0.33 -2.91 -10.27 1.49 -7.71 -21.84 0 0 0 19.2 7.3 -16.32 -1.22 -7.01 19.76 -0.26 -2.15 -10.74 -1.44 -7.6 21.5 -2.41 0.75 16.32 1.82 0.67 6.26 3.16 0.28 -2.53 -1.46 0.65 -5.17 0.64 0.93 39.61 0.64 0.24 14.5 -0 -0 0 -94.71 -2.5 15.42 25.69 -36.9 -8.7 -0 0 -2.66 8.37 -13.23 -1.93 -7.12 0 -0 -13.03 16.82 8.94 -0 -0 0 86.48 12.87 23.57 -17.49 27.51 -4.31 0 -0 -5.59 -5.34 -37.51 3.26 7.12 -0 -0 36.28 -63.99 -17.82
1.77 17.93 2.62 -1.51 -3.02 11.62 0 0 0 -16.74 -6.22 -22.82 1.02 6.41 17.98 0.26 -3.11 -8.98 1.03 -6.46 -18.12 0 0 0 18.45 8.83 -24.48 -1.39 -7.47 21.11 -0.17 -2.69 -9.25 -1.61 -8.01 22.75 -2.17 0.89 20.99 1.84 0.81 7.74 3.01 0.34 -3.37 -1.17 0.66 -6.5 0.57 0.94 37.83 0.56 0.3 13.95 0 -0 0 -93.14 -5.29 19.18 29.26 -40.25 -10.93 -0 0 -4.65 8.23 -13.43 -1.92 -7.12 0 -0 -13.12 16.64 9.05 0 -0 0 85.01 17.19 25.65 -20.39 31.11 -5.73 0 -0 -7.15 -4.35 -37.69 2.66 7.12 -0 -0 37.51 -63.86 -18.4
1.77 17.8 2.05 -1.15 -2.07 16.66 0 0 0 -15.72 -9.01 -33.07 1.61 8 22.72 0.25 -4.44 -8.91 0.8 -5.7 -15.91 0 0 0 16.81 9.97 -34.72 -1.97 -8.81 25.2 -0.17 -2.02 -8.75 -1.83 -8.51 24.27 -2.07 0.96 26.18 1.89 0.83 9.27 3.02 0.33 -4.28 -1.21 0.68 -7.95 0.24 1.11 35.21 0.45 0.35 13.08 0 0 0 -90.91 -8.74 22.79 33.87 -43.99 -14.02 -0 0 -6.5 8.47 -13.75 -2.03 -7.12 0 -0 -12.94 16.31 9.02 0 0 0 82.38 22.12 27.44 -24.07 35.24 -7.75 0 -0 -9.3 -4.12 -38.12 2.55 7.12 -0 -0 38.3 -64.13 -19.09
1.78 17.44 1.53 -1.02 -1.3 20.81 0 0 0 -14.45 -10.54 -45.06 3.03 10.74 31.4 0.25 -7.42 -9.6 0.6 -4.95 -13.76 0 0 0 15.46 10.54 -46.38 -3.38 -11.29 33.27 -0.24 0.4 -9.16 -1.62 -8.02 22.79 -1.73 1.15 31.71 2.06 1.07 10.83 2.94 0.43 -5.11 -1.35 0.58 -8.67 -0.01 1.08 31.75 0.36 0.32 11.79 -0 -0 0 -87.87 -13.32 25.21 38.8 -47.34 -17.55 -0 0 -6.76 8.46 -15.45 -2.27 -7.12 0 -0 -12.88 14.63 9.45 -0 -0 0 78.18 27.73 28.2 -27.86 38.99 -10.03 0 -0 -11.33 -5.55 -38.08 3.43 7.12 -0 -0 36.82 -64.49 -18.55
1.78 16.81 1.12 -1.45 -0.84 23.93 0 0 0 -12.64 -10.56 -58.08 5.7 14.13 43.75 0.2 -11.5 -10.73 0.26 -3.31 -9.14 0 0 0 14.6 10.89 -58.61 -5.98 -14.41 44.89 -0.37 3.69 -10.78 -1.44 -7.59 21.49 -0.91 1.57 36.98 2.16 1.76 11.4 2.12 0.74 -5.77 -1.31 0.18 -8.6 0.08 0.49 28.68 0.31 0.1 10.59 -0 -0 0 -83.98 -18.71 26.36 42.94 -49.72 -20.65 -0 0 -7.4 9.35 -16.06 -2.61 -7.12 0 -0 -12.28 13.98 9.17 -0 -0 0 72.92 33.13 26.57 -30.8 41.57 -11.94 0 -0 -12.38 -4.67 -38.68 2.92 7.12 -0 -0 38.52 -64.72 -19.73
1.75 15.88 0.83 -1.06 -0.56 24.81 0 0 0 -11.58 -10.39 -69.07 9.56 17.16 58.01 0.56 -15.46 -16.14 0.55 -4.77 -13.25 0 0 0 12.84 10.46 -69.78 -9.95 -17.38 59.32 -0.59 6.6 -13.81 -1.64 -8.07 22.92 -0.95 1.86 41.01 1.78 2.01 12.27 1.6 0.84 -6.08 -1.11 0.02 -8.46 0.09 0.22 27 0.25 0.01 9.94 0 0 0 -79.67 -23.6 25.31 45.44 -50.98 -22.58 -0 0 -8.39 9.71 -16.06 -2.71 -7.12 0 -0 -12.03 13.95 8.98 0 0 0 67.82 37.47 23.48 -32.75 43.13 -13.25 0 -0 -12.63 -4.94 -37.92 3.04 7.12 -0 -0 37.2 -64.2 -18.52
1.72 14.76 0.6 -1.79 0.33 23.23 0 0 0 -9.21 -9.64 -77.75 14.2 19.17 72.82 0.85 -17.92 -19.38 0.42 -4.16 -11.52 0 0 0 12.84 9.49 -78.06 -14.55 -19.27 73.89 -1.04 8.22 -18.26 -1.22 -7 19.71 -0.07 1.85 45.21 1.76 2.31 12.69 0.96 0.97 -6.75 -0.87 -0.16 -7.88 -0.13 -0.01 25.34 0.11 -0.09 9.24 0 0 0 -76.08 -26.97 23.06 46.81 -51.63 -23.65 -0 0 -9.2 9.77 -14.95 -2.54 -7.12 0 -0 -12.02 15.04 8.69 0 0 0 63.3 39.58 19.98 -35.07 44.86 -14.86 0 -0 -14.02 -4.94 -38.28 3.06 7.12 -0 -0 37.7 -64.48 -19.04
1.69 13.56 0.41 -2.02 0.79 21.84 0 0 0 -7.19 -9.09 -85.96 18.72 19.96 86.26 1.17 -19.33 -22.11 0.32 -3.63 -10.05 0 0 0 11.07 9.58 -86.18 -19.11 -19.98 87.41 -1.65 8.22 -22.97 -0.84 -5.84 16.31 0.31 1.81 48.7 1.33 2.39 11.73 0.3 1.02 -7.3 -0.55 -0.21 -7.78 -0.12 -0.15 23.94 0.04 -0.12 8.73 -0 0 0 -73.51 -28.52 20.45 49.62 -52.84 -25.87 -0 0 -11.68 10.68 -15.08 -2.81 -7.12 0 -0 -11.41 14.85 8.27 -0 0 0 60.57 40.35 16.82 -37.86 46.75 -16.86 0 -0 -14.63 -5.92 -38.07 3.66 7.12 -0 -0 36.42 -64.59 -18.4
1.68 12.45 0.19 -0.92 3.04 17.87 0 0 0 -6.64 -10.96 -89.8 22.43 19.86 97.12 1.68 -18.8 -24.99 0.39 -4 -11.07 0 0 0 8.87 7.15 -90.68 -23.12 -19.77 99.15 -2.01 6.03 -25.6 -0.66 -5.18 14.43 1.48 0.36 53.1 0.95 1.34 11.77 -0.21 0.59 -7.76 -0.57 -0.41 -7.46 -0.01 -0.44 22.18 0.06 -0.24 8.08 -0 0 0 -72.54 -30.26 18.93 53.02 -54.14 -28.6 -0 0 -15.64 12.33 -14.58 -3.15 -7.12 0 -0 -10.31 15.23 7.36 -0 0 0 58.33 41.07 14.38 -40.52 48.38 -18.83 0 -0 -16 -5.67 -38.43 3.53 7.12 -0 -0 37.17 -64.8 -19.01
1.66 11.27 -0.01 -0.92 3.12 15.03 0 0 0 -4.68 -11.08 -95.72 25.98 19.12 107.75 2.08 -17.54 -26.95 0.49 -4.49 -12.45 0 0 0 6.62 7.95 -96.4 -26.6 -18.92 109.64 -2.21 3.4 -27.27 -0.71 -5.39 15.01 1.41 0.32 54.19 0.6 1.24 11.89 -0.52 0.56 -7.72 -0.85 -0.51 -7.34 0.28 -0.59 20.85 0.19 -0.3 7.62 0 0 0 -72.46 -30.84 18.51 54.91 -54.79 -30.14 -0 0 -15.51 11.74 -14.11 -2.9 -7.12 0 -0 -10.71 15.75 7.54 0 0 0 57.3 41.84 13.71 -40.68 48.47 -18.94 0 -0 -15.02 -6 -37.58 3.67 7.12 -0 -0 35.7 -64.22 -17.7
1.67 10.12 -0.19 -0.86 3.33 12.29 0 0 0 -2.87 -11.53 -101.83 28.95 17.96 117.06 2.14 -16.47 -27.08 0.46 -4.34 -12.04 0 0 0 4.48 7.54 -102.62 -29.49 -17.69 118.81 -2.17 3.41 -27.03 -1.23 -7.02 19.78 1.92 -0.22 53.24 0.18 0.82 12.33 -1.03 0.42 -7.13 -1.08 -0.48 -6.88 0.22 -0.52 18.97 0.21 -0.29 6.92 0 -0 0 -72.8 -30.87 19.5 54.06 -54.51 -29.45 -0 0 -15.18 11.4 -14.2 -2.83 -7.12 0 -0 -10.94 15.68 7.72 0 -0 0 56.77 42.78 14.13 -39.02 47.48 -17.71 0 -0 -12.98 -5.56 -37.28 3.38 7.12 -0 -0 35.75 -63.86 -17.43
1.65 9.15 -0.37 -1.28 2.78 8.36 0 0 0 -2.14 -9.65 -105.7 31.11 16.74 124.28 2.04 -16.32 -26.47 0.46 -4.37 -12.11 0 0 0 4.36 6.91 -106.32 -31.5 -16.48 125.64 -2.02 3.23 -26.09 -1.31 -7.24 20.43 1.92 -0.18 52.84 0.02 0.82 12.59 -1.2 0.43 -6.79 -1.46 -0.36 -6.16 0.86 -0.42 16.8 0.49 -0.22 6.1 0 0 0 -73.98 -30.63 20.04 51.07 -53.42 -27.03 -0 0 -12.07 9.27 -15.27 -2.46 -7.12 0 -0 -12.35 14.76 9.01 0 0 0 57.82 43.32 15.68 -36.97 46.17 -16.22 0 -0 -11.24 -5.69 -37.09 3.44 7.12 -0 -0 35.39 -63.75 -17.13
1.65 8.39 -0.54 -1.68 2.33 4.22 0 0 0 -1.86 -7.91 -108.14 32.58 15.67 129.57 1.78 -16.16 -24.9 0.41 -4.12 -11.41 0 0 0 5.04 5.2 -108.52 -32.84 -15.47 130.51 -1.86 4.24 -24.79 -1.5 -7.74 21.92 2.2 -0.28 50.66 0.06 0.77 13.31 -1.27 0.43 -5.74 -1.5 -0.34 -5.79 1.27 -0.46 14.85 0.61 -0.21 5.43 -0 0 0 -76.85 -30.38 20.23 50.26 -53.1 -26.38 -0 0 -12.96 7.62 -14.6 -1.93 -7.12 0 -0 -13.47 15.52 9.65 -0 0 0 60.55 42.42 17.27 -37.54 46.54 -16.63 0 -0 -11.34 -5.52 -36.96 3.32 7.12 -0 -0 35.4 -63.6 -17.02
1.62 7.79 -0.75 -1.53 1.25 -1.32 0 0 0 -2.52 -5.47 -107.44 33.54 14.86 133.19 1.74 -15.85 -24.58 0.5 -4.53 -12.57 0 0 0 5.61 4.07 -108.1 -33.72 -14.69 133.91 -1.67 4.78 -23.35 -1.61 -8.01 22.75 1.7 0.24 49.19 0.29 1.12 13.64 -0.93 0.57 -5.19 -2.27 -0.44 -6.21 2.12 -0.62 13.68 1 -0.27 5.15 -0 0 0 -81.13 -29.88 19.79 51.72 -53.67 -27.56 -0 0 -20.05 7.23 -12 -1.51 -7.12 0 -0 -13.87 18.08 9.15 -0 0 0 63.19 40.07 18.82 -39.24 47.61 -17.88 0 -0 -11.84 -4.86 -36.98 2.92 7.12 -0 -0 36.09 -63.44 -17.26
1.58 7.24 -0.98 -1.25 0.02 -9.49 0 0 0 -3.52 -1.56 -103.12 34.33 14.1 136.37 1.71 -16.8 -24.59 0.52 -4.6 -12.78 0 0 0 6.82 2.84 -103.94 -34.43 -14 136.76 -1.54 5.09 -22.33 -1.74 -8.3 23.64 0.87 0.83 49.07 0.47 1.43 13.67 -0.47 0.68 -5.15 -1.96 -0.34 -6.24 2.17 -0.5 12.23 0.96 -0.2 4.7 0 0 0 -83.55 -27.86 19.45 55.12 -54.86 -30.31 -0 0 -23.48 8 -10.59 -1.48 -7.12 0 -0 -13.43 19.43 8.43 0 0 0 66.64 36.7 20.75 -41.05 48.68 -19.22 0 -0 -11.75 -5.11 -36.89 3.07 7.12 -0 -0 35.73 -63.43 -17.06
1.52 6.87 -1.21 -1.05 -1.99 -19.53 0 0 0 -4.14 6.37 -95.03 34.7 13.72 137.88 1.58 -20.33 -24.94 0.41 -4.11 -11.37 0 0 0 9.04 1.63 -95.53 -34.69 -13.72 137.86 -1.48 5.86 -21.8 -2 -8.87 25.39 0.59 1.72 50.86 0.8 2.38 13.05 -0.38 1.07 -6.09 -2.43 -0.3 -5.21 2.87 -0.47 9.54 1.37 -0.19 4.08 0 -0 0 -84.89 -25.48 19.91 58.85 -55.99 -33.38 -0 0 -21.8 6.61 -11.2 -1.29 -7.12 0 -0 -14.35 18.89 9.22 0 -0 0 69.62 32.53 21.14 -43.33 49.93 -20.96 0 -0 -10.51 -4.56 -37.25 2.77 7.12 -0 -0 36.73 -63.58 -17.72
1.48 6.96 -1.43 0.39 -3.51 -24.74 0 0 0 -4.78 12.07 -88.07 34.2 14.23 135.84 1.37 -23.77 -25.14 0.3 -3.55 -9.81 0 0 0 8.96 0.85 -89.49 -34.25 -14.18 136.04 -1.3 8.02 -20.43 -2.45 -9.75 28.16 -1.12 2.71 46.85 1.16 2.8 14.11 0.65 1.22 -5.55 -2.8 -0.16 -5.57 3.44 -0.32 10.53 1.65 -0.1 4.51 0 -0 0 -87.54 -22.41 19.05 60.58 -56.46 -34.82 -0 0 -26.25 12.65 -11.34 -2.53 -7.12 0 -0 -10.15 18.47 6.51 0 -0 0 74.61 29.38 21.48 -43.54 50.03 -21.11 0 -0 -13.75 -7 -37.47 4.27 7.12 -0 -0 34.54 -64.41 -17.2
1.51 6.92 -1.64 0.94 -4.16 -28.57 0 0 0 -4.72 14.85 -84.37 33.94 14.48 134.8 1.02 -25.7 -24.12 0.23 -3.12 -8.6 0 0 0 9.55 -0.79 -84.86 -34.03 -14.4 135.13 -1.38 8.61 -21.06 -1.78 -8.4 23.93 -1.24 2.58 46.05 1.56 2.67 12.74 1.17 1.15 -6.94 -2.59 -0.13 -6.61 2.79 -0.19 9.42 1.4 -0.05 4.3 0 -0 0 -89.3 -15.85 18.92 69.72 -58.39 -42.54 -0 0 -28.59 12.91 -10.19 -2.32 -7.12 0 -0 -10.01 19.61 6.16 0 -0 0 77.35 23.3 21.58 -47.65 52 -24.31 0 -0 -16.17 -7.62 -39.35 4.85 7.12 -0 -0 36.49 -66.07 -19.67
1.53 6.85 -1.77 0.91 -4.43 -31.71 0 0 0 -4.04 16.66 -81.76 33.85 14.57 134.42 0.71 -27.12 -23.23 0.15 -2.5 -6.89 0 0 0 9.54 -2 -81.34 -33.94 -14.49 134.76 -1.3 10.58 -20.59 -2.29 -9.45 27.21 -1.38 2.2 43.93 2.02 2.23 12.53 1.95 0.93 -6.65 -1.49 0.2 -8.16 1.54 0.3 7.77 0.8 0.17 4 -0 -0 0 -90.58 -10.48 18.57 84.06 -59.87 -54.86 -0 0 -27.18 14.13 -11.72 -2.93 -7.12 0 -0 -9.11 17.99 5.93 -0 -0 0 78.69 19.11 21.76 -54.01 54.49 -29.41 0 -0 -15.53 -6.09 -39.4 3.87 7.12 -0 -0 38.11 -65.66 -20.31
1.54 6.77 -1.82 0.43 -4.75 -34.07 0 0 0 -2.92 18.69 -79.91 33.84 14.58 134.39 0.46 -28.73 -22.85 0.11 -2.12 -5.84 0 0 0 10.25 -1.66 -79.8 -33.84 -14.58 134.39 -1.16 9.43 -19.41 -2.21 -9.28 26.68 -1.08 1.84 41.52 2.58 2 12.75 2.51 0.81 -5.74 -0.88 0.49 -9.83 0.83 0.7 6.03 0.48 0.36 3.71 -0 0 0 -91.94 -6.04 19.54 96.91 -59.82 -65.98 -0 0 -21.31 20.6 -16.6 -6.13 -7.12 0 -0 -4.79 12.36 3.67 -0 0 0 80.19 13.75 21.65 -69.4 58.33 -42.26 0 -0 -14.16 -11.14 -39.67 7.17 7.12 -0 -0 33.29 -67.37 -18.74
1.58 6.73 -1.85 1.61 -3.92 -34.62 0 0 0 -4.85 17.6 -79.47 33.8 14.62 134.23 0.48 -28.03 -22.51 0.09 -1.91 -5.25 0 0 0 8.1 -2.55 -80.05 -33.89 -14.54 134.57 -1.04 10.4 -18.55 -2.38 -9.61 27.72 -1.99 1.72 38.83 2.34 1.54 12.41 2.94 0.59 -5.28 -2.26 0.94 -11.4 2.45 1.41 4.86 1.31 0.76 3.59 -0 0 0 -92.87 -1.71 22.88 109.69 -58.48 -76.96 -0 0 -16.88 27.52 -23.79 -11.87 -7.12 0 -0 -1.06 3.55 1 -0 0 0 81.52 7.27 25.44 -95.3 59.89 -64.59 0 -0 -13.03 -16.03 -35.79 9.54 7.12 -0 -0 22.8 -65.49 -11.56
1.59 6.72 -1.87 1.66 -3.75 -35.22 0 0 0 -4.94 17.73 -78.89 33.77 14.65 134.1 0.45 -28.09 -22.4 0.1 -2.02 -5.56 0 0 0 7.92 -2.72 -79.47 -33.87 -14.55 134.51 -1.04 10.42 -18.51 -2.32 -9.51 27.41 -1.96 1.43 37.57 2.1 1.21 11.83 2.8 0.45 -5.48 -0.13 1.1 -14.07 -0.17 1.52 6.52 0.08 0.73 4.23 -0 0 0 -93.09 2.05 27 118.54 -56.69 -84.44 -0 0 -9.89 26.45 -28.94 -13.53 -7.12 0 -0 -2.47 -1.69 2.55 -0 0 0 82.19 2.71 33.52 -115.46 57.4 -81.86 0 -0 -10.45 -13.26 -31.65 7.05 7.12 -0 -0 21.82 -60.99 -8.74
1.58 6.72 -1.9 1.33 -3.67 -35.74 0 0 0 -4.5 17.7 -78.27 33.73 14.69 133.93 0.37 -28.33 -22.14 0.08 -1.87 -5.14 0 0 0 8.26 -2.76 -78.77 -33.82 -14.6 134.3 -1.04 10.17 -18.54 -2.36 -9.58 27.63 -1.31 1.18 37.13 1.82 1.12 11.3 2.2 0.45 -5.9 0.23 1.33 -15.27 -0.75 1.82 7.13 -0.12 0.85 4.62 -0 0 0 -92.43 3.58 32.52 120.78 -56.1 -86.3 -0 0 -3.34 25.77 -32.14 -14.4 -7.12 0 -0 -3.4 -4.87 3.69 -0 0 0 82.12 1.33 41.51 -120.03 56.3 -85.68 0 -0 -0.35 -10.65 -27.12 4.9 7.12 -0 -0 21.17 -56.22 -6.02
1.58 6.69 -1.89 0.93 -3.38 -35.9 0 0 0 -4.19 17.05 -78.3 33.77 14.64 134.12 0.35 -28.18 -21.9 0.08 -1.81 -4.98 0 0 0 8.5 -3.28 -78.77 -33.86 -14.56 134.47 -1.06 10.12 -18.69 -2.42 -9.69 27.97 -0.69 1.02 36.35 1.57 1.13 11.27 1.61 0.47 -5.65 0.14 1.5 -16.49 -0.94 2.08 7.18 -0.13 0.96 4.83 -0 -0 0 -91.83 2.3 37.53 117.54 -56.93 -83.6 -0 -0 4.97 24.23 -35.42 -14.62 -7.12 0 -0 -4.84 -7.85 5.47 -0 -0 0 82.32 2.3 46.7 -114.18 57.67 -80.78 0 0 16.54 -15.72 -26.06 7.05 7.12 -0 -0 15.4 -56.24 -4.32
1.6 6.67 -1.85 -0.94 -0.51 -35.17 0 0 0 -4.54 11.1 -79.26 33.87 14.56 134.49 0.45 -26.24 -21.22 0.1 -2.04 -5.61 0 0 0 8.47 -8.72 -79.91 -34.05 -14.38 135.21 -1.13 11.28 -19.39 -2.5 -9.83 28.43 1.09 -0.38 34.69 1.43 -0.01 11.5 0.92 -0.02 -4.91 0.49 1.63 -17.39 -1.83 2.26 6.6 -0.45 0.99 4.81 -0 -0 0 -91.53 0.61 42.36 112.26 -58.04 -79.16 -0 -0 12.69 23.92 -36.57 -14.8 -7.12 0 -0 -5.22 -8.94 5.99 -0 -0 0 82.85 3.07 48.39 -107.35 58.83 -74.97 0 0 30.15 -26.99 -28.36 13.6 7.12 -0 -0 4.29 -61.14 -1.69
1.56 6.68 -1.8 -1.21 -0.08 -34.66 0 0 0 -4.29 10.37 -79.55 33.9 14.52 134.62 0.37 -26.41 -20.91 0.05 -1.48 -4.08 0 0 0 8.83 -8.5 -79.95 -34.1 -14.33 135.43 -1.22 10.6 -20.04 -2.41 -9.67 27.92 1.07 -0.13 34.17 1.4 0.3 11.49 0.8 0.13 -4.74 0.43 1.95 -17.36 -2.04 2.71 5.68 -0.47 1.21 4.52 -0 -0 0 -91.66 0.52 44.69 111.62 -58.16 -78.61 -0 -0 22.29 24.24 -34.32 -14.25 -7.12 0 -0 -4.63 -6.74 5.16 -0 -0 0 83.92 2.37 47.87 -108.23 58.71 -75.72 0 0 29.78 -28.14 -29.13 14.59 7.12 -0 -0 3.28 -62.24 -1.38
1.54 6.69 -1.79 0.31 -2.34 -34.51 0 0 0 -4.33 14.31 -79.69 33.94 14.49 134.78 0.36 -27.09 -21.28 0.05 -1.42 -3.9 0 0 0 8.74 -2.67 -79.89 -34.08 -14.35 135.35 -1.21 8.42 -19.68 -2.38 -9.62 27.75 -0.06 1.37 35.61 1.16 1.79 10.92 0.62 0.83 -5.76 0.85 2.42 -17.33 -2.57 3.31 5.89 -0.65 1.47 4.61 -0 -0 0 -91.52 0.89 45.52 113.01 -57.9 -79.79 -0 -0 19.47 26.52 -32.96 -15.19 -7.12 0 -0 -3.13 -5.9 3.44 -0 -0 0 84.35 1.05 47.69 -108.79 58.62 -76.2 0 0 25.56 -28.77 -27.48 14.22 7.12 -0 -0 1.8 -60.65 -0.69
1.54 6.69 -1.74 0.16 -2.09 -33.61 0 0 0 -4.55 13.8 -80.66 34.03 14.4 135.13 0.38 -26.85 -21.25 0.04 -1.36 -3.74 0 0 0 8.68 -2.3 -80.86 -34.17 -14.26 135.72 -1.24 7.93 -19.89 -2.25 -9.37 26.95 0.05 1.46 35.32 1.1 1.94 10.78 0.44 0.91 -5.94 1.23 2.69 -17.31 -3.07 3.65 6.19 -0.83 1.61 4.72 0 -0 0 -90.73 0.94 46.51 113.56 -57.8 -80.25 -0 -0 16.66 27.16 -33.11 -15.65 -7.12 0 -0 -2.81 -6.22 3.1 0 -0 0 84.11 0.23 47.77 -110.16 58.41 -77.36 0 0 22.32 -29.29 -26.73 14.16 7.12 -0 -0 0.89 -59.98 -0.33
1.53 6.68 -1.7 -1.95 -3 -33.42 0 0 0 -1.9 15.59 -81.67 34.19 14.24 135.8 0.21 -28.25 -21.21 0.06 -1.52 -4.17 0 0 0 11.51 -1.22 -80.49 -34.16 -14.27 135.66 -1.31 6.65 -20.49 -2.14 -9.15 26.27 1.91 1.15 35.92 1.78 2.26 10.83 0.07 1.07 -5.92 1.4 2.97 -17.51 -3.39 4.01 6.42 -0.92 1.77 4.84 -0 -0 0 -90.21 0.65 47.47 114.84 -57.53 -81.34 -0 -0 15.25 26.92 -32.89 -15.42 -7.12 0 -0 -2.9 -5.94 3.19 -0 -0 0 83.66 0.19 48 -111.8 58.13 -78.76 0 0 21.63 -29.29 -27.21 14.38 7.12 -0 -0 1.07 -60.49 -0.41
1.54 6.67 -1.68 -1.65 -2.35 -33.18 0 0 0 -2.77 14.72 -81.83 34.21 14.22 135.89 0.22 -27.89 -21.02 0.04 -1.23 -3.38 0 0 0 10.69 -2.23 -80.94 -34.23 -14.2 135.94 -1.33 7.27 -20.59 -2.13 -9.14 26.23 1.38 1.27 35.8 1.75 2.21 11.34 0.34 1.05 -5.35 1.45 3.11 -17.88 -3.41 4.19 6.47 -0.92 1.85 4.92 -0 0 0 -90.17 0.1 47.94 116.66 -57.14 -82.87 -0 -0 14.96 26.63 -32.75 -15.17 -7.12 0 -0 -3.03 -5.71 3.32 -0 0 0 83.45 0.62 47.8 -114.06 57.7 -80.67 0 0 22.12 -29.39 -27.6 14.62 7.12 -0 -0 1.11 -60.93 -0.43
1.54 6.67 -1.68 -1.48 -2.47 -33 0 0 0 -3.11 15.16 -82.29 34.22 14.21 135.91 0.13 -28.14 -20.68 0.02 -0.99 -2.72 0 0 0 10.58 -2.13 -81.27 -34.23 -14.2 135.95 -1.3 7.43 -20.37 -2.2 -9.27 26.66 1.07 1.53 36.12 1.82 2.44 11.63 0.49 1.15 -5.16 1.31 3 -17.9 -3.2 4.05 6.38 -0.84 1.8 4.89 0 0 0 -90.6 0 47.85 118.53 -56.69 -84.44 -0 -0 14.59 26.65 -32.7 -15.17 -7.12 0 -0 -3.01 -5.67 3.3 0 0 0 83.62 0.52 47.18 -116.02 57.28 -82.32 0 0 22.81 -29.29 -27.98 14.74 7.12 -0 -0 1.38 -61.32 -0.55
1.53 6.67 -1.69 -2.09 -2.85 -32.8 0 0 0 -2.32 16.3 -83.01 34.24 14.2 135.97 -0.09 -29.08 -20.06 0.01 -0.68 -1.88 0 0 0 11.55 -1.75 -81.54 -34.19 -14.24 135.8 -1.28 6.98 -20.23 -2.28 -9.42 27.13 1.57 1.41 36.49 1.91 2.47 11.7 0.32 1.17 -5.2 1.41 3 -17.49 -2.99 4.02 6.39 -0.8 1.8 4.82 -0 -0 0 -90.98 0.48 46.98 120.09 -56.29 -85.73 -0 -0 15.15 26.96 -32.56 -15.31 -7.12 0 -0 -2.81 -5.6 3.08 -0 -0 0 84.32 0.2 46.64 -116.98 57.06 -83.14 0 0 23.13 -29.07 -27.72 14.49 7.12 -0 -0 1.54 -60.98 -0.6
1.52 6.67 -1.71 -2.09 -2.73 -32.86 0 0 0 -2.4 16.64 -83.1 34.21 14.22 135.88 -0.25 -29.51 -19.46 0 -0.29 -0.79 0 0 0 11.54 -2.17 -81.62 -34.17 -14.26 135.72 -1.26 7.27 -20.03 -2.35 -9.56 27.56 1.39 1.35 36.8 1.92 2.33 11.76 0.47 1.09 -5.24 1.22 3.06 -17.1 -2.6 4.1 6.67 -0.64 1.86 4.83 0 0 0 -91.3 0.93 46.13 121 -56.04 -86.49 -0 -0 15.04 27.54 -32.94 -15.84 -7.12 0 -0 -2.56 -6.15 2.82 0 0 0 84.35 0.38 46.46 -116.71 57.12 -82.91 0 0 23.07 -29.12 -27.34 14.35 7.12 -0 -0 1.32 -60.59 -0.5
1.53 6.66 -1.7 -1.5 -2.91 -32.93 0 0 0 -3 17.46 -82.91 34.22 14.21 135.9 -0.19 -29.6 -19.89 0 -0.3 -0.83 0 0 0 11.01 -2.21 -81.69 -34.19 -14.24 135.78 -1.24 7.61 -19.92 -2.36 -9.57 27.61 0.98 1.57 36.68 1.83 2.45 11.86 0.55 1.15 -5.11 1.27 3.05 -16.43 -2.75 4.1 6.62 -0.7 1.86 4.72 -0 -0 0 -91.28 0.93 45.95 121.02 -56.03 -86.51 -0 -0 14.64 27.67 -33.08 -15.97 -7.12 0 -0 -2.52 -6.32 2.78 -0 -0 0 84.33 0.37 46.25 -117.33 56.98 -83.43 0 0 22.88 -29.06 -27.47 14.38 7.12 -0 -0 1.45 -60.72 -0.56
1.54 6.66 -1.7 -1.15 -3.31 -32.93 0 0 0 -3.27 18.4 -83.08 34.24 14.19 136 -0.21 -29.69 -19.85 0 -0.16 -0.45 0 0 0 10.85 -1.93 -81.83 -34.19 -14.24 135.79 -1.2 7.79 -19.62 -2.34 -9.54 27.5 0.99 1.76 36.4 1.84 2.67 11.98 0.48 1.26 -4.88 0.86 2.93 -16.45 -2.47 4.01 7.14 -0.56 1.82 4.87 0 0 0 -90.98 0.54 46.14 120.7 -56.12 -86.24 -0 -0 13.99 27.78 -32.95 -15.99 -7.12 0 -0 -2.43 -6.22 2.69 0 0 0 84.19 0.46 45.91 -117.54 56.93 -83.61 0 0 23.04 -28.92 -27.44 14.28 7.12 -0 -0 1.6 -60.65 -0.61
1.53 6.66 -1.7 -1.01 -3.36 -33.02 0 0 0 -3.29 18.69 -82.93 34.22 14.21 135.92 -0.25 -29.9 -19.81 0 -0.13 -0.35 0 0 0 10.84 -2.04 -81.71 -34.18 -14.25 135.75 -1.2 7.97 -19.63 -2.38 -9.61 27.73 0.97 1.79 36.47 1.85 2.71 11.97 0.48 1.28 -4.91 1.03 2.92 -16.24 -2.69 3.99 7.24 -0.66 1.8 4.87 0 0 0 -91.01 0.5 45.93 120.33 -56.22 -85.93 -0 -0 13.7 27.85 -33.09 -16.09 -7.12 0 -0 -2.42 -6.39 2.68 0 0 0 84.2 0.39 45.81 -117.4 56.96 -83.49 0 0 23.32 -29.07 -27.42 14.36 7.12 -0 -0 1.41 -60.66 -0.54
1.53 6.66 -1.7 -1.01 -3.08 -33.06 0 0 0 -3.39 18.25 -82.78 34.21 14.22 135.86 -0.22 -29.79 -19.85 0 -0.17 -0.46 0 0 0 10.75 -2.52 -81.61 -34.19 -14.24 135.78 -1.22 8.08 -19.75 -2.37 -9.61 27.71 1.01 1.62 36.56 1.87 2.52 11.92 0.55 1.18 -5 1.18 3 -16.19 -2.87 4.1 7.48 -0.73 1.84 4.95 -0 -0 0 -91.2 0.74 45.74 120.45 -56.19 -86.03 -0 -0 13.73 27.82 -33.04 -16.05 -7.12 0 -0 -2.43 -6.32 2.68 -0 -0 0 84.12 0.48 45.89 -117.38 56.97 -83.47 0 0 23.29 -29.19 -27.46 14.45 7.12 -0 -0 1.28 -60.74 -0.49
1.52 6.66 -1.7 -0.91 -3.13 -33.11 0 0 0 -3.41 18.2 -82.76 34.21 14.23 135.85 -0.23 -29.67 -19.75 0 -0.19 -0.51 0 0 0 10.7 -2.32 -81.64 -34.19 -14.24 135.8 -1.22 7.91 -19.73 -2.29 -9.45 27.2 1.1 1.56 36.66 1.87 2.48 11.87 0.52 1.17 -5.09 0.98 2.95 -16.19 -2.87 4.07 7.66 -0.69 1.82 5 -0 -0 0 -91.35 0.77 45.53 120.48 -56.18 -86.06 -0 -0 14.08 27.62 -32.81 -15.83 -7.12 0 -0 -2.49 -6.03 2.74 -0 -0 0 84.2 0.54 46 -117.29 56.99 -83.4 0 0 23.4 -28.8 -27.25 14.13 7.12 -0 -0 1.67 -60.42 -0.63
1.54 6.67 -1.71 0.28 -2.54 -32.75 0 0 0 -5.15 16.69 -82.79 34.14 14.29 135.59 -0.07 -28.5 -19.75 0 -0.32 -0.89 0 0 0 8.93 -2.59 -82.43 -34.22 -14.21 135.92 -1.16 8.46 -19.26 -2.32 -9.51 27.4 0.18 1.71 36.38 1.48 2.32 11.76 0.64 1.08 -5.12 1.02 3.03 -15.97 -2.69 4.15 7.75 -0.64 1.88 4.99 0 0 0 -91.4 0.65 45.35 120.2 -56.26 -85.83 -0 -0 13.98 27.67 -32.9 -15.9 -7.12 0 -0 -2.48 -6.13 2.73 0 0 0 84.42 0.87 45.99 -117.09 57.04 -83.23 0 0 23.59 -28.47 -27.17 13.91 7.12 -0 -0 2.03 -60.25 -0.75
1.53 6.67 -1.71 -0.46 -3.23 -33.11 0 0 0 -3.83 18.17 -82.62 34.16 14.27 135.68 -0.16 -29.46 -19.99 0.01 -0.49 -1.34 0 0 0 10.14 -1.58 -81.74 -34.17 -14.26 135.72 -1.18 7.82 -19.42 -2.35 -9.56 27.55 0.93 1.62 36.78 1.78 2.49 11.85 0.5 1.17 -5.15 1.26 3.02 -15.3 -2.86 4.11 7.68 -0.74 1.86 4.87 0 -0 0 -91.46 0.87 45.27 120.1 -56.28 -85.75 -0 -0 13.7 27.96 -33.09 -16.16 -7.12 0 -0 -2.36 -6.41 2.61 0 -0 0 84.51 1.05 46.05 -117.21 57.01 -83.33 0 0 23.76 -28.39 -27.24 13.89 7.12 -0 -0 2.15 -60.3 -0.8
1.53 6.68 -1.72 -0.99 -3.19 -33.31 0 0 0 -3.26 18.1 -82.31 34.15 14.28 135.61 -0.16 -29.67 -20.14 0.02 -0.81 -2.23 0 0 0 10.66 -1.77 -81.2 -34.14 -14.29 135.58 -1.21 7.7 -19.7 -2.33 -9.52 27.44 1.53 1.34 37.29 1.91 2.37 11.83 0.36 1.12 -5.32 1.1 2.92 -14.05 -2.6 3.99 7.51 -0.67 1.82 4.61 0 -0 0 -91.33 1.05 45.34 120.32 -56.22 -85.93 -0 -0 13.52 28.08 -33.16 -16.27 -7.12 0 -0 -2.31 -6.52 2.56 0 -0 0 84.57 0.87 46.12 -117.53 56.93 -83.59 0 0 24.09 -28.03 -27.39 13.77 7.12 -0 -0 2.63 -60.38 -0.99
1.53 6.7 -1.71 -1.05 -2.8 -33.04 0 0 0 -3.39 17.12 -82.4 34.13 14.3 135.53 -0.1 -29.18 -20.11 0.01 -0.78 -2.15 0 0 0 10.46 -2.2 -81.36 -34.15 -14.28 135.61 -1.24 7.79 -19.89 -2.28 -9.43 27.16 1.45 1.22 37.4 1.9 2.2 11.9 0.45 1.03 -5.29 1.26 2.83 -11.78 -2.36 3.8 6.12 -0.74 1.79 4.23 -0 0 0 -90.87 1.42 45.22 121.22 -55.98 -86.67 -0 -0 11.9 27.33 -34.72 -16.4 -7.12 0 -0 -3.03 -7.92 3.42 -0 0 0 84.39 0.66 46.26 -119.25 56.51 -85.03 0 0 21.96 -26.97 -27.17 13.08 7.12 -0 -0 3.77 -59.87 -1.37
1.54 6.72 -1.71 -0.86 -2.39 -32.54 0 0 0 -3.86 15.72 -82.61 34.07 14.36 135.31 0.01 -28.37 -20.13 0.02 -0.83 -2.29 0 0 0 9.88 -2.25 -81.87 -34.14 -14.29 135.59 -1.23 7.91 -19.81 -2.31 -9.48 27.3 1.1 1.17 38.2 1.81 2 12.18 0.6 0.93 -5.25 1.17 2.78 -9.49 -2.21 3.72 4.25 -0.72 1.78 3.11 -0 -0 0 -90.59 1.92 43.27 125.56 -54.64 -90.24 -0 -0 6.87 27.3 -40.63 -18.58 -7.12 0 -0 -4.35 -13.91 5.28 -0 -0 0 84.37 0.57 44.97 -123.79 55.21 -88.79 0 0 13.72 -21.58 -24.01 9.15 7.12 -0 -0 8.34 -55.39 -2.14
1.55 6.78 -1.71 -0.4 -2.91 -31.93 0 0 0 -4.05 15.53 -82.64 34 14.43 135.03 0.27 -27.68 -21.14 0.04 -1.27 -3.5 0 0 0 9.54 -0.49 -82.05 -34.06 -14.37 135.27 -1.26 7.63 -20.03 -2.26 -9.39 27.04 0.74 1.43 40.3 1.59 2.17 12.69 0.48 1 -5.35 1.07 2.76 -7.15 -2.05 3.66 1.11 -0.69 1.79 1.62 0 0 0 -91.84 2.22 36.52 130.01 -52.99 -93.84 -0 -0 4.64 29.12 -40.52 -19.9 -7.12 0 -0 -3.42 -14.32 4.16 0 0 0 85.29 0.72 40.76 -128.26 53.67 -92.43 0 0 7.4 -21.1 -24.48 9.08 7.12 -0 -0 9.04 -55.76 -2.4
1.55 6.84 -1.69 0.46 -3.96 -30.59 0 0 0 -4.5 15.95 -83.45 33.98 14.45 134.93 0.45 -27.21 -21.88 0.06 -1.56 -4.3 0 0 0 8.94 2.45 -83.08 -33.99 -14.43 134.99 -1.24 7.14 -19.89 -2.27 -9.41 27.1 -0.12 2.31 43.19 1.4 2.86 13.07 0.41 1.29 -5.79 0.71 2.46 -4.51 -1.74 3.24 -2.9 -0.6 1.61 -0.1 0 0 0 -92.79 1.02 28.05 129.06 -53.37 -93.07 -0 0 -2.8 28.35 -33.24 -16.48 -7.12 0 -0 -2.17 -6.67 2.41 0 0 0 86.26 1.08 33.73 -128.54 53.57 -92.65 0 0 0.74 -23.7 -26.27 11 7.12 -0 -0 7.04 -58.17 -2.28
1.54 6.92 -1.6 0.13 -3.74 -27.84 0 0 0 -4.53 14.15 -85.72 34.04 14.39 135.17 0.66 -26.61 -22.66 0.08 -1.77 -4.87 0 0 0 8.76 3.01 -85.32 -34.06 -14.37 135.27 -1.32 7.59 -20.57 -2.42 -9.68 27.96 -0.28 2.43 45.75 1.34 2.88 13.48 0.38 1.29 -5.99 0.45 2.14 -2.08 -1.42 2.8 -7.46 -0.55 1.42 -1.94 -0 -0 0 -91.74 -1.54 20.48 116.34 -57.21 -82.6 -0 0 -9.53 25.86 -25.69 -11.87 -7.12 0 -0 -2.33 1.87 2.26 -0 -0 0 86.03 2.78 26.66 -121.12 56 -86.59 0 -0 -4.01 -23.45 -32.18 13.01 7.12 -0 -0 10.81 -64.11 -5.03
1.55 7.01 -1.45 0.12 -4.11 -23.7 0 0 0 -5.04 13.32 -89.57 34.19 14.24 135.78 0.95 -25.93 -23.86 0.07 -1.75 -4.81 0 0 0 8.19 4.93 -89.8 -34.13 -14.31 135.53 -1.29 6.86 -20.29 -2.24 -9.35 26.91 -0.86 2.82 49.48 0.95 2.96 13.11 0.23 1.29 -5.9 0.17 1.95 -1.14 -0.94 2.57 -12.56 -0.42 1.32 -3.86 -0 0 0 -87.77 -3.95 16.47 92.15 -59.98 -61.86 -0 0 -9.01 22.2 -20.02 -7.95 -7.12 0 -0 -3.98 8.54 3.36 -0 0 0 83.39 6.36 22.03 -105.04 59.13 -72.99 0 -0 -6.71 -16.79 -38.58 10.65 7.12 -0 -0 25.44 -68.19 -14.52
1.55 7.08 -1.23 -0.86 -3.33 -18.33 0 0 0 -5.28 10.67 -94.94 34.43 14 136.75 1.39 -23.98 -25.35 0.08 -1.77 -4.87 0 0 0 8.88 4.36 -94.45 -34.34 -14.09 136.39 -1.61 5.97 -22.79 -1.79 -8.42 24.01 -0.97 2.62 54.31 0.93 2.56 12.47 0.37 1.07 -7.14 0.18 1.82 -1.64 -0.87 2.41 -18.04 -0.4 1.25 -5.14 -0 -0 0 -79.21 -6.18 19.06 63.66 -57.21 -37.4 -0 0 -7.85 17.37 -22.79 -6.91 -7.12 0 -0 -7.25 6.38 6.46 -0 -0 0 77.25 9.82 21.85 -86.83 59.96 -57.26 0 -0 -14.46 -11.89 -45.57 8.55 7.12 -0 -0 43.82 -71.98 -29.71
1.64 6.97 -0.71 -1.98 -1.83 -4.7 0 0 0 -4.16 2.8 -111.73 35.1 13.27 139.6 1.47 -18.24 -23.57 0.21 -2.92 -8.06 0 0 0 6.53 5.39 -111.73 -34.96 -13.42 139.03 -1.43 4.87 -21.56 -1.84 -8.53 24.33 0.25 1.04 46.77 0.61 1.37 12.8 -0.05 0.59 -6.94 -0.11 1.68 -3.06 -0.44 2.29 -21.4 -0.22 1.18 -5.97 0 0 0 -72.54 -8.09 21.46 46.5 -51.48 -23.4 -0 0 -1.65 9.76 -25.12 -4.18 -7.12 0 -0 -12.05 5.01 11.21 0 0 0 70.74 12.2 24.95 -68.52 58.18 -41.51 0 -0 -13.38 -6.21 -43.69 4.3 7.12 -0 -0 45.23 -68.81 -27.83
1.69 7.29 -0.27 -2.5 -2.31 0.8 0 0 0 -3.01 0.89 -113.62 35.09 13.28 139.56 1.96 -16.62 -26.06 0.17 -2.65 -7.32 0 0 0 5.59 7.96 -113.58 -34.86 -13.54 138.56 -1.74 4.18 -23.95 -1.73 -8.27 23.53 0.52 0.83 46.93 0.55 1.21 12.35 -0.19 0.51 -7.49 -0.36 1.59 -3.4 -0.83 2.1 -24.29 -0.31 1.14 -6.85 0 0 0 -70.53 -12.4 19.23 37.22 -46.33 -16.4 -0 -0 4.28 5.94 -23.19 -2.34 -7.12 0 -0 -14.36 7.27 12.85 0 0 0 66.42 17.34 27.84 -52.16 53.83 -27.91 0 -0 -9.26 -4.33 -44.12 3.02 7.12 -0 -0 47.85 -68.49 -29.38
1.77 7.98 0.1 -2.88 -2.6 4.61 0 0 0 -2.45 -1.05 -109.68 34.38 14.05 136.55 2.76 -15.94 -30.36 0.19 -2.77 -7.65 0 0 0 5.99 9.36 -110 -34.1 -14.33 135.42 -2.23 3.49 -27.42 -1.41 -7.52 21.27 1.15 0.25 47.28 0.53 0.82 11.03 -0.38 0.32 -9.07 -0.62 1.74 -4.83 -1.08 2.25 -24.73 -0.34 1.25 -6.75 0 -0 0 -72.46 -15.71 14.6 33.2 -43.49 -13.56 -0 -0 3.99 5.02 -15.26 -1.32 -7.12 0 -0 -15.17 15.01 11.13 0 -0 0 67.12 22.19 29.17 -39.4 47.71 -17.99 0 -0 -3.85 -3.84 -40.16 2.48 7.12 -0 -0 41.48 -65.59 -22.3
1.82 9.11 0.38 -2.75 -3.35 7.32 0 0 0 -3.12 -2.85 -101.5 32.54 15.71 129.41 3.43 -14.9 -33.68 0.31 -3.56 -9.83 0 0 0 6.38 11.6 -102.04 -32.22 -15.96 128.23 -2.66 3.39 -30.03 -1.37 -7.4 20.92 1.1 0.21 49.34 0.67 0.82 8.41 -0.15 0.29 -11.09 -0.99 1.84 -6.53 -1.51 2.31 -26.41 -0.42 1.35 -7.04 0 0 0 -74.63 -17.3 13.33 32.07 -42.6 -12.79 -0 -0 1.04 6.4 -14.07 -1.56 -7.12 0 -0 -14.32 16.1 10.11 0 0 0 70.32 23.76 27.75 -33.09 43.4 -13.48 0 0 0.52 -7.3 -38.11 4.52 7.12 -0 -0 35.07 -65 -17.98
1.82 10.43 0.69 -2.45 -4.22 9.72 0 0 0 -4.51 -3.85 -92.62 29.74 17.55 119.66 3.78 -14.96 -35.37 0.35 -3.78 -10.45 0 0 0 7.24 13.88 -93.09 -29.45 -17.71 118.7 -3.01 2.98 -32.13 -1.13 -6.76 19.01 0.35 0.75 47.88 1.14 1.16 8.35 0.53 0.45 -12.34 -1.01 1.83 -7.89 -2.04 2.17 -27.7 -0.58 1.32 -7.24 0 0 0 -76.39 -17.13 15.72 34.49 -44.44 -14.45 -0 -0 0.86 4.75 -14.77 -1.21 -7.12 0 -0 -15.37 15.5 11.12 0 0 0 73.3 23.7 26.73 -30.38 41.22 -11.66 0 -0 -1.95 -6.5 -38.34 4.05 7.12 -0 -0 36.21 -64.97 -18.59
1.84 11.78 1.01 -1.95 -4.01 12.73 0 0 0 -6.55 -5.73 -85.28 26.08 19.09 108.03 3.67 -14.12 -34.78 0.55 -4.77 -13.24 0 0 0 8.31 13.69 -85.69 -25.92 -19.14 107.54 -2.92 3.13 -31.57 -0.72 -5.43 15.13 0.5 0.66 44.29 1.47 1.19 7.59 0.8 0.47 -12.27 -2.53 1.53 -8.78 -0.64 2.1 -28.52 0.15 1.33 -7.42 -0 0 0 -78.31 -15.69 20.36 39.31 -47.66 -17.93 -0 -0 0.3 6.11 -15.99 -1.69 -7.12 0 -0 -14.42 14.25 10.78 -0 0 0 75.61 22.21 25.85 -28.19 39.29 -10.24 0 -0 -4 -6.06 -37.54 3.7 7.12 -0 -0 35.59 -64.21 -17.62
1.82 13.1 1.36 -1.74 -3.97 14.36 0 0 0 -8.75 -5.91 -77.04 21.89 19.91 95.53 3.19 -14.45 -32.43 0.58 -4.86 -13.51 0 0 0 10.25 13.03 -77.1 -21.8 -19.92 95.28 -2.68 4.25 -29.99 -0.57 -4.83 13.43 0.36 0.88 40.3 1.81 1.45 6.76 1.15 0.61 -12.02 -1.24 1.62 -10.77 -2.13 1.9 -26.6 -0.52 1.19 -6.42 -0 -0 0 -80.09 -12.47 25.35 45.38 -50.95 -22.53 -0 0 -2.19 7.23 -16.22 -2.03 -7.12 0 -0 -13.67 13.95 10.27 -0 -0 0 77.84 19.23 25.2 -26.01 37.22 -8.89 0 -0 -2.84 -6.18 -37.13 3.74 7.12 -0 -0 34.94 -63.91 -17.02
1.81 14.32 1.74 -1.37 -3.5 14.19 0 0 0 -11.44 -5.45 -67.3 17.42 19.84 82.45 2.66 -14.76 -29.64 0.64 -5.13 -14.29 0 0 0 12.55 10.78 -67.4 -17.46 -19.84 82.56 -2.31 5.21 -27.58 -0.57 -4.82 13.39 0.4 0.78 36.85 1.98 1.37 5.85 1.36 0.59 -11.86 -1.29 1.56 -12.58 -1.97 1.92 -24.17 -0.43 1.16 -5.35 0 0 0 -81.42 -8.69 29.62 50.44 -53.17 -26.52 -0 0 -4.19 6.62 -15.69 -1.8 -7.12 0 -0 -14.09 14.51 10.44 0 0 0 79.93 15.59 24.23 -24.37 35.56 -7.92 0 -0 -1.99 -6.62 -37.43 4.04 7.12 -0 -0 34.88 -64.27 -17.28
1.79 15.39 2.17 -0.82 -3.12 12.87 0 0 0 -14.19 -4.56 -56.51 13.02 18.79 69.18 2.2 -13.84 -26.97 0.88 -5.98 -16.71 0 0 0 14.33 8.39 -57.03 -13.31 -18.89 70.1 -1.9 5.55 -24.91 -0.61 -5.01 13.95 0.15 0.76 32.88 2 1.26 5 1.56 0.57 -11.43 -1.14 1.54 -15.32 -2.27 1.95 -19.33 -0.54 1.11 -3.81 -0 0 0 -82.57 -4.38 33.42 52.84 -54.08 -28.45 -0 0 -4.88 7.29 -16 -2.02 -7.12 0 -0 -13.64 14.17 10.19 -0 0 0 82.03 11.21 22.38 -23.62 34.76 -7.49 0 -0 -1.76 -6.98 -37.6 4.27 7.12 -0 -0 34.72 -64.5 -17.38
1.77 16.3 2.62 -0.41 -2.46 10.3 0 0 0 -16.15 -4.52 -44.13 8.96 16.79 55.97 1.79 -11.87 -24.19 1 -6.36 -17.84 0 0 0 15.8 6.58 -45.33 -9.5 -17.12 57.82 -1.61 4.4 -22.98 -0.8 -5.71 15.93 0.14 0.62 29.24 1.89 1.06 4.58 1.67 0.52 -11.04 -0.85 1.64 -17.09 -2.92 2.1 -15.13 -0.72 1.12 -2.02 0 0 0 -83.79 -0.65 35.45 52.43 -53.93 -28.13 -0 0 -4.45 6.84 -16.35 -1.93 -7.12 0 -0 -13.92 13.85 10.5 0 0 0 83.86 7.36 20.34 -22.88 33.95 -7.07 0 -0 -2.19 -6.73 -37.46 4.1 7.12 -0 -0 34.81 -64.33 -17.28
1.75 17 3.1 0.14 -2.66 7.48 0 0 0 -18.07 -4.23 -31.7 5.61 14.04 43.38 1.42 -8.3 -21.32 1.22 -7 -19.71 0 0 0 16.56 6.38 -33.33 -6.29 -14.7 46.13 -1.24 1.65 -20.56 -0.95 -6.21 17.41 -0.51 0.86 25.33 1.68 1.15 3.69 1.79 0.59 -10.05 -0.16 2.26 -17.01 -4.2 2.83 -11.51 -1.18 1.41 -0.8 0 -0 0 -85.17 2.97 35.4 49.98 -52.99 -26.16 -0 0 -4.2 6.17 -16.06 -1.71 -7.12 0 -0 -14.37 14.18 10.76 0 -0 0 85.18 3.93 19.07 -21.98 32.95 -6.57 0 -0 -3.28 -6.29 -37.55 3.84 7.12 -0 -0 35.37 -64.28 -17.55
1.76 17.44 3.56 0.04 -2.98 4.37 0 0 0 -19.23 -2.84 -20.26 3.24 11.07 32.53 1.12 -5.19 -18.92 1.53 -7.81 -22.12 0 0 0 17.73 4.32 -22.65 -3.92 -12.05 35.91 -0.92 0.3 -18.07 -0.93 -6.14 17.18 -0.22 0.96 21.6 1.6 1.35 2.82 1.49 0.67 -9.04 0.35 2.71 -15.89 -4.91 3.47 -7.34 -1.44 1.65 0.42 0 0 0 -86.85 6 33.64 45.44 -50.98 -22.58 -0 0 -2.95 6.52 -16.14 -1.82 -7.12 0 -0 -14.14 14.07 10.61 0 0 0 86.13 1.48 17.85 -20.91 31.73 -6.01 0 -0 -3.24 -7.28 -37.4 4.43 7.12 -0 -0 34.17 -64.43 -17.01
1.72 17.74 4.01 -0.52 -3.1 2.49 0 0 0 -19.11 -0.8 -11.11 1.59 7.94 22.54 0.85 -3.83 -16.5 1.75 -8.33 -23.73 0 0 0 19.08 2.52 -13.97 -2.25 -9.38 26.98 -0.72 -0.68 -16.26 -1.06 -6.55 18.4 -0.18 1.04 16.8 1.69 1.47 1.69 1.57 0.74 -7.66 0.91 2.91 -14.26 -4.89 3.81 -3.2 -1.51 1.76 1.54 -0 -0 0 -88.32 8.67 30.43 40.98 -48.64 -19.17 -0 0 -1.24 5.68 -14.88 -1.46 -7.12 0 -0 -14.76 15.35 10.69 -0 -0 0 87.1 -0.15 16.22 -20.07 30.72 -5.57 0 -0 -1.97 -6.83 -37.73 4.19 7.12 -0 -0 35.06 -64.57 -17.62
1.68 17.87 4.36 -1.34 -2.7 1.27 0 0 0 -18.47 -0.56 -4.14 0.75 5.55 15.47 0.65 -1.94 -14.73 1.77 -8.37 -23.83 0 0 0 20.52 2.48 -7.08 -1.3 -7.24 20.42 -0.57 -3.04 -15.74 -1.08 -6.61 18.55 0.2 0.89 12.83 1.9 1.34 0.55 1.65 0.68 -6.67 0.91 2.92 -13.6 -4.32 3.96 1.16 -1.31 1.8 2.88 0 0 0 -89.75 9.94 26.77 36.14 -45.61 -15.62 -0 0 -0.95 5.72 -14.26 -1.41 -7.12 0 -0 -14.76 15.95 10.49 0 0 0 87.76 -1.36 15.12 -20.05 30.71 -5.56 0 -0 -2.58 -7.26 -37.63 4.45 7.12 -0 -0 34.48 -64.61 -17.32
1.65 17.88 4.6 -1.83 -1.99 0.25 0 0 0 -17.92 0.15 -0.43 0.48 4.45 12.34 0.61 -2.02 -14.2 1.83 -8.51 -24.28 0 0 0 21.29 1.89 -3.18 -0.96 -6.22 17.44 -0.54 -3.97 -15.89 -1.26 -7.12 20.07 0.47 0.72 10.37 1.95 1.14 -0.48 1.61 0.58 -6.36 0.96 2.8 -13.31 -3.84 3.91 4.88 -1.17 1.75 4.13 -0 0 0 -91.18 10.25 22.26 31 -41.74 -12.07 -0 0 -0.61 6.28 -14.46 -1.57 -7.12 0 -0 -14.38 15.73 10.27 -0 0 0 88.27 -1.99 13.8 -19.86 30.47 -5.46 0 -0 -2.69 -7.32 -36.73 4.39 7.12 -0 -0 33.28 -63.9 -16.11
1.64 17.87 4.75 -1.86 -1.44 -0.51 0 0 0 -17.91 0.29 1.41 0.42 4.17 11.55 0.61 -2.06 -14.23 1.95 -8.76 -25.06 0 0 0 21.33 0.95 -1.38 -0.85 -5.88 16.43 -0.58 -3.86 -16.29 -1.4 -7.49 21.18 0.32 0.67 8.9 1.92 1.04 -1.04 1.68 0.53 -6.11 1.06 2.67 -13.7 -3.7 3.81 8.25 -1.02 1.66 4.8 0 0 0 -92.71 8.61 16.41 24.65 -35.84 -8.08 -0 -0 0.98 7.19 -14.47 -1.81 -7.12 0 -0 -13.77 15.67 9.83 0 0 0 88.66 -1.56 11.91 -18.68 29.02 -4.87 0 -0 -1.85 -8.2 -35.85 4.82 7.12 -0 -0 31.32 -63.4 -14.7
1.63 17.85 4.88 -1.87 -1.5 -1.21 0 0 0 -17.93 0.5 2.77 0.4 4.08 11.3 0.64 -1.68 -14.58 1.93 -8.72 -24.93 0 0 0 21.52 0.74 0.17 -0.8 -5.7 15.92 -0.56 -4.44 -16.49 -1.23 -7.03 19.8 0.09 0.85 7.94 1.77 1.25 -1.31 1.63 0.64 -5.86 1.22 2.48 -14.03 -3.16 3.54 10.77 -0.88 1.54 5.63 0 0 0 -93.73 6.94 9.22 19.23 -29.7 -5.14 -0 -0 5.85 6.82 -13.53 -1.6 -7.12 0 -0 -14.07 16.6 9.76 0 0 0 89.22 -0.81 9.41 -16.6 26.32 -3.91 0 -0 -0.56 -8.1 -36.12 4.79 7.12 -0 -0 31.74 -63.6 -15.07
1.61 17.85 4.99 -2.09 -1.52 -0.95 0 0 0 -17.64 0.52 3.17 0.38 3.97 10.98 0.65 -1.45 -14.79 2.11 -9.09 -26.06 0 0 0 21.81 0.61 0.44 -0.77 -5.61 15.66 -0.59 -4.3 -16.74 -1.26 -7.1 20.02 -0.04 0.94 6.52 1.72 1.34 -1.67 1.67 0.69 -5.44 1.12 2.33 -14.77 -2.13 3.28 13.58 -0.54 1.46 6.62 0 0 0 -94.29 6.95 4.29 16.8 -26.59 -4 -0 -0 10.11 5.31 -11.45 -1.06 -7.12 0 -0 -15.22 18.69 9.9 0 0 0 89.6 -0.31 7.25 -14.62 23.62 -3.07 0 0 2.1 -7.38 -36.68 4.42 7.12 -0 -0 33.16 -63.87 -16.03
1.58 17.85 5.08 -1.73 -1.23 -0.72 0 0 0 -17.99 0.5 3.47 0.35 3.8 10.5 0.65 -1.46 -14.8 2.18 -9.24 -26.55 0 0 0 21.56 0.85 0.56 -0.78 -5.65 15.77 -0.62 -4.59 -17.28 -1.29 -7.21 20.32 -0.76 0.98 5.6 1.48 1.33 -1.83 1.83 0.71 -5.09 1.26 2.13 -14.91 -1.61 2.91 14.87 -0.43 1.32 7.05 -0 0 0 -94.69 7.87 2.51 16.43 -26.11 -3.83 -0 -0 11.36 4.48 -11.87 -0.92 -7.12 0 -0 -15.76 18.31 10.41 -0 0 0 90.2 -0.71 5.66 -13.47 21.97 -2.63 0 0 4.3 -7.63 -36.59 4.56 7.12 -0 -0 32.79 -63.86 -15.82
1.56 17.84 5.15 -1.96 -0.7 -0.69 0 0 0 -17.62 0.35 3.51 0.37 3.9 10.8 0.68 -1.84 -15.11 2.17 -9.21 -26.44 0 0 0 21.92 0.51 0.69 -0.79 -5.67 15.83 -0.65 -4.74 -17.7 -1.31 -7.25 20.46 -0.72 0.98 5.16 1.42 1.32 -1.67 1.75 0.7 -4.67 0.85 1.85 -15.19 -0.9 2.5 15.37 -0.17 1.17 7.24 -0 -0 0 -94.69 8.38 3.64 16.52 -26.22 -3.87 -0 -0 9.86 5.22 -12.14 -1.1 -7.12 0 -0 -15.23 18.02 10.14 -0 -0 0 90.83 -1.38 4.35 -12.88 21.11 -2.41 0 0 5.47 -7.81 -36.6 4.67 7.12 -0 -0 32.62 -63.92 -15.78
1.55 17.83 5.21 -2.1 -0.67 -0.84 0 0 0 -17.47 0.23 3.67 0.41 4.09 11.33 0.71 -1.64 -15.43 2.1 -9.08 -26.04 0 0 0 22.16 0.47 1.14 -0.78 -5.62 15.7 -0.65 -4.96 -17.88 -1.22 -7.01 19.73 -0.74 1.1 4.89 1.42 1.48 -1.36 1.75 0.77 -4.21 0.91 1.76 -14.8 -1.1 2.4 15.25 -0.26 1.1 7.13 -0 -0 0 -94.97 8.19 3.98 16.53 -26.23 -3.88 -0 -0 9.09 5.27 -12.88 -1.18 -7.12 0 -0 -15.15 17.31 10.33 -0 -0 0 91.11 -1.79 3.32 -11.9 19.66 -2.07 0 0 7.36 -7.7 -36.52 4.6 7.12 -0 -0 32.64 -63.83 -15.72
1.54 17.83 5.26 -2.04 -0.34 -0.52 0 0 0 -17.51 0.03 3.43 0.41 4.14 11.46 0.72 -1.79 -15.55 2.13 -9.14 -26.23 0 0 0 22.13 0.41 0.99 -0.77 -5.6 15.63 -0.66 -5.12 -18.01 -1.15 -6.8 19.14 -0.82 1.16 4.63 1.34 1.54 -1.46 1.72 0.81 -4.17 0.7 1.73 -14.62 -0.91 2.39 15.92 -0.16 1.1 7.32 -0 -0 0 -95.39 8.71 4.78 17.49 -27.49 -4.31 -0 -0 8.24 4.87 -12.31 -1.04 -7.12 0 -0 -15.46 17.87 10.36 -0 -0 0 91.44 -2.21 0.75 -10.87 18.09 -1.73 0 0 10.16 -7.37 -36.33 4.38 7.12 -0 -0 32.74 -63.58 -15.58
1.53 17.83 5.3 -2.32 -0.11 -0.29 0 0 0 -17.16 -0.11 3.24 0.43 4.19 11.6 0.74 -1.92 -15.71 2.18 -9.24 -26.54 0 0 0 22.55 0.56 1.05 -0.75 -5.54 15.45 -0.64 -5.64 -18.17 -1.15 -6.8 19.12 -0.62 1.16 4.43 1.42 1.57 -1.43 1.69 0.81 -4.02 0.42 1.63 -14.69 -0.54 2.25 16.46 -0.01 1.05 7.5 0 -0 0 -95.52 8.64 5.78 18.09 -28.27 -4.59 -0 -0 7.18 4.84 -12.54 -1.05 -7.12 0 -0 -15.46 17.65 10.43 0 -0 0 91.77 -2.3 -2.09 -10.35 17.28 -1.58 0 0 12.42 -7.08 -36.57 4.23 7.12 -0 -0 33.33 -63.7 -15.99
1.54 17.83 5.32 -2 0.03 -0.03 0 0 0 -17.49 0.03 3.03 0.41 4.11 11.39 0.74 -2.31 -15.65 2.18 -9.23 -26.53 0 0 0 22.14 0.38 0.69 -0.76 -5.58 15.58 -0.65 -5.47 -18.23 -1.14 -6.77 19.04 -0.86 1.14 4.45 1.31 1.52 -1.43 1.71 0.8 -4.03 0.63 1.68 -14.59 -0.73 2.3 16.48 -0.1 1.07 7.49 0 0 0 -95.15 7.83 7.24 17.99 -28.14 -4.54 -0 -0 5.99 5.51 -12.32 -1.18 -7.12 0 -0 -15.02 17.84 10.05 0 0 0 91.87 -2.45 -2.23 -10.44 17.42 -1.6 0 0 11.87 -7.01 -36.52 4.18 7.12 -0 -0 33.35 -63.64 -15.95
1.55 17.84 5.33 -2.07 0.03 0.18 0 0 0 -17.4 0.05 2.88 0.4 4.08 11.31 0.74 -2.45 -15.62 2.2 -9.28 -26.68 0 0 0 22.24 0.54 0.53 -0.77 -5.6 15.63 -0.65 -5.62 -18.26 -1.2 -6.95 19.56 -0.76 1.08 4.52 1.44 1.44 -1.35 1.79 0.76 -3.98 0.41 1.72 -14.67 -0.81 2.42 16.41 -0.08 1.1 7.48 -0 -0 0 -95.15 7.61 7.88 18.61 -28.93 -4.84 -0 -0 5.41 5.49 -13.61 -1.3 -7.12 0 -0 -14.95 16.59 10.42 -0 -0 0 91.72 -2.38 -0.94 -11.02 18.32 -1.78 0 0 10.18 -7.48 -36.54 4.47 7.12 -0 -0 32.88 -63.78 -15.8
1.55 17.84 5.34 -1.94 0.12 0.58 0 0 0 -17.55 -0.02 2.44 0.4 4.07 11.29 0.73 -2.6 -15.51 2.24 -9.35 -26.91 0 0 0 22.1 0.8 0.19 -0.77 -5.6 15.63 -0.63 -5.91 -18.32 -1.17 -6.88 19.36 -0.85 0.93 4.65 1.54 1.24 -1.46 1.97 0.66 -4.17 0.6 1.85 -14.8 -1.37 2.67 16.54 -0.26 1.18 7.56 0 -0 0 -95.14 7.36 7.76 19.11 -29.56 -5.09 -0 -0 5.46 5.55 -13.4 -1.29 -7.12 0 -0 -14.93 16.79 10.34 0 -0 0 91.51 -2.12 0.09 -11.67 19.31 -1.99 0 0 10.79 -7.43 -36.19 4.4 7.12 -0 -0 32.52 -63.48 -15.39
1.56 17.85 5.34 -1.83 0.13 0.78 0 0 0 -17.7 0.02 2.32 0.39 4 11.08 0.72 -2.63 -15.38 2.25 -9.36 -26.93 0 0 0 21.92 0.79 -0.09 -0.78 -5.63 15.72 -0.64 -5.77 -18.29 -1.14 -6.77 19.03 -0.76 0.81 4.73 1.61 1.1 -1.39 2 0.59 -4.14 0.58 1.99 -14.82 -1.44 2.88 16.36 -0.26 1.28 7.5 0 0 0 -95.14 6.93 7.4 19.41 -29.93 -5.23 -0 -0 5.16 5.94 -13.42 -1.38 -7.12 0 -0 -14.67 16.75 10.16 0 0 0 91.28 -1.62 1.84 -12.37 20.36 -2.23 0 0 12.79 -9.04 -35.83 5.32 7.12 -0 -0 30.43 -63.61 -14.39
1.57 17.85 5.35 -1.81 0.03 0.92 0 0 0 -17.76 0.05 2.32 0.37 3.92 10.84 0.71 -2.55 -15.28 2.26 -9.38 -26.99 0 0 0 21.87 0.96 -0.24 -0.79 -5.67 15.84 -0.64 -5.76 -18.34 -1.17 -6.87 19.34 -0.69 0.77 4.82 1.75 1.06 -1.39 2.11 0.57 -4.18 0.69 1.99 -14.76 -1.92 2.94 16.28 -0.43 1.27 7.48 -0 -0 0 -95.12 7.1 7.82 19.86 -30.47 -5.46 -0 -0 4.62 5.85 -13.22 -1.34 -7.12 0 -0 -14.74 16.95 10.14 -0 -0 0 91.12 -1.47 3.65 -13.22 21.62 -2.54 0 0 8.55 -7.89 -36.37 4.7 7.12 -0 -0 32.25 -63.75 -15.45
1.58 17.85 5.35 -1.64 -0.08 1.1 0 0 0 -18 0.03 2.29 0.35 3.82 10.56 0.7 -2.44 -15.17 2.28 -9.43 -27.16 0 0 0 21.64 1.2 -0.49 -0.81 -5.74 16.04 -0.65 -5.72 -18.4 -1.2 -6.96 19.6 -0.64 0.74 4.85 1.79 1.02 -1.37 2.12 0.55 -4.18 0.87 2.17 -14.77 -2.27 3.2 16.3 -0.54 1.37 7.5 0 0 0 -95.01 7.11 8.34 20.12 -30.79 -5.59 -0 -0 4.39 5.68 -12.98 -1.28 -7.12 0 -0 -14.87 17.19 10.16 0 0 0 91.24 -1.02 3.69 -13.62 22.19 -2.68 0 0 5.04 -7.98 -36.44 4.76 7.12 -0 -0 32.24 -63.83 -15.51
1.59 17.85 5.34 -1.51 -0.09 1.27 0 0 0 -18.16 0.17 2.14 0.34 3.74 10.34 0.69 -2.59 -14.99 2.27 -9.41 -27.09 0 0 0 21.48 1.43 -0.7 -0.83 -5.8 16.2 -0.66 -5.85 -18.55 -1.15 -6.81 19.15 -0.62 0.75 4.86 1.86 1.04 -1.38 2.18 0.56 -4.19 0.78 2.2 -14.75 -2.24 3.27 16.45 -0.51 1.4 7.55 -0 -0 0 -95.26 7.04 8.26 20.25 -30.95 -5.66 -0 -0 4.51 6.08 -12.98 -1.37 -7.12 0 -0 -14.6 17.17 9.97 -0 -0 0 91.31 -0.7 3.15 -13.66 22.25 -2.7 0 0 4.52 -8.27 -36.19 4.9 7.12 -0 -0 31.66 -63.71 -15.11
1.6 17.85 5.35 -1.55 -0.02 1.28 0 0 0 -18.14 0.09 2.15 0.34 3.75 10.37 0.69 -2.66 -15 2.22 -9.31 -26.79 0 0 0 21.48 1.35 -0.72 -0.83 -5.8 16.2 -0.66 -5.78 -18.51 -1.16 -6.84 19.25 -0.43 0.7 4.94 1.95 0.98 -1.25 2.17 0.53 -4.1 0.85 2.23 -14.8 -2.51 3.34 16.36 -0.6 1.41 7.53 0 0 0 -95.55 6.9 7.9 20.29 -30.99 -5.68 -0 -0 4.62 5.92 -13.2 -1.36 -7.12 0 -0 -14.69 16.97 10.1 0 0 0 91.26 -0.44 2.96 -13.5 22.02 -2.64 0 0 4.65 -8.13 -36.36 4.84 7.12 -0 -0 32 -63.81 -15.36
1.6 17.86 5.34 -1.42 0.25 1.39 0 0 0 -18.27 0.13 1.94 0.34 3.75 10.36 0.69 -2.95 -14.95 2.24 -9.35 -26.91 0 0 0 21.35 1.4 -0.86 -0.83 -5.82 16.27 -0.66 -5.99 -18.65 -1.19 -6.92 19.48 -0.34 0.75 4.97 1.93 1.06 -1.26 2.1 0.56 -4.14 0.56 2.08 -14.61 -2.44 3.19 16.34 -0.55 1.33 7.49 0 0 0 -95.73 7.1 8.28 20.21 -30.9 -5.64 -0 -0 4.66 5.86 -13.48 -1.37 -7.12 0 -0 -14.71 16.7 10.21 0 0 0 91.29 -0.67 2.21 -13.28 21.69 -2.55 0 0 4.93 -7.9 -36.47 4.71 7.12 -0 -0 32.37 -63.84 -15.58
1.61 17.86 5.34 -1.43 0.56 1.5 0 0 0 -18.25 -0.02 1.7 0.35 3.81 10.54 0.69 -3.21 -14.92 2.24 -9.35 -26.9 0 0 0 21.35 1.28 -0.98 -0.82 -5.79 16.19 -0.65 -6.14 -18.63 -1.19 -6.94 19.52 -0.23 0.7 5.01 1.92 0.99 -1.2 2.02 0.52 -4.09 0.78 2.12 -14.45 -2.65 3.23 16.3 -0.65 1.34 7.45 -0 -0 0 -95.9 7.18 8.35 20.14 -30.82 -5.61 -0 -0 4.57 5.9 -13.17 -1.35 -7.12 0 -0 -14.71 17 10.11 -0 -0 0 91.45 -0.87 1.76 -12.88 21.11 -2.41 0 0 4.71 -10.11 -35.13 5.86 7.12 -0 -0 28.52 -63.29 -13.2
1.61 17.86 5.32 -1.52 0.8 1.54 0 0 0 -18.11 -0.05 1.38 0.37 3.9 10.8 0.69 -3.51 -14.87 2.29 -9.45 -27.2 0 0 0 21.48 1.31 -1.05 -0.82 -5.79 16.19 -0.63 -6.42 -18.64 -1.11 -6.71 18.85 -0.2 0.65 5.06 1.96 0.93 -1.07 2.05 0.49 -3.97 0.64 2.07 -14.41 -2.24 3.13 16.5 -0.51 1.32 7.5 -0 -0 0 -96.12 7.11 7.93 19.97 -30.61 -5.52 -0 -0 4.87 5.75 -13.26 -1.32 -7.12 0 -0 -14.8 16.92 10.2 -0 -0 0 91.43 -0.67 0.64 -12.42 20.43 -2.25 0 0 5.65 -9.29 -36.18 5.51 7.12 -0 -0 30.58 -63.97 -14.73
1.61 17.87 5.29 -1.5 1.04 1.67 0 0 0 -18.12 -0.2 1.05 0.38 3.94 10.92 0.67 -3.66 -14.7 2.28 -9.43 -27.16 0 0 0 21.49 1.43 -1.23 -0.82 -5.78 16.14 -0.59 -6.8 -18.53 -1.1 -6.65 18.7 -0.27 0.62 5.21 1.97 0.89 -0.98 2.12 0.47 -3.97 0.65 2.03 -14.27 -2.26 3.08 16.74 -0.52 1.3 7.55 0 0 0 -96.32 7.16 7.63 19.96 -30.59 -5.51 -0 -0 5.1 5.77 -13.38 -1.34 -7.12 0 -0 -14.78 16.8 10.23 0 0 0 91.34 -0.6 0.14 -12.16 20.04 -2.16 0 0 5.84 -9.95 -36.07 5.9 7.12 -0 -0 29.75 -64.05 -14.35
1.61 17.88 5.24 -1.51 1.18 1.82 0 0 0 -18.09 -0.33 0.55 0.39 4 11.07 0.66 -3.81 -14.48 2.32 -9.5 -27.38 0 0 0 21.48 1.46 -1.6 -0.81 -5.74 16.05 -0.55 -6.86 -18.19 -1.01 -6.4 17.94 -0.26 0.64 5.61 1.95 0.91 -0.79 2.08 0.48 -4 0.77 2.01 -14.07 -2.27 3.03 16.87 -0.55 1.28 7.56 -0 -0 0 -96.27 7.04 7.96 20.01 -30.65 -5.53 -0 -0 5.03 5.75 -13.34 -1.33 -7.12 0 -0 -14.8 16.84 10.23 -0 -0 0 91.27 -0.52 0.68 -12.35 20.32 -2.22 0 0 5.17 -10.27 -35.91 6.06 7.12 -0 -0 29.24 -64.01 -14.05
1.61 17.9 5.14 -1.39 1.21 2.11 0 0 0 -18.23 -0.52 -0.09 0.38 3.97 11.01 0.62 -3.86 -14.08 2.37 -9.59 -27.67 0 0 0 21.29 1.45 -2.47 -0.83 -5.82 16.27 -0.52 -6.75 -17.75 -1.04 -6.5 18.24 -0.35 0.65 6.15 1.88 0.92 -0.44 2.05 0.48 -3.94 0.68 2.02 -14.11 -2.21 3.05 16.94 -0.51 1.29 7.59 0 -0 0 -96.09 6.56 8.5 20.2 -30.88 -5.63 -0 -0 4.82 5.64 -12.36 -1.21 -7.12 0 -0 -14.94 17.8 10 0 -0 0 91.21 0 1.68 -12.74 20.9 -2.36 0 0 4.2 -10.19 -36.19 6.06 7.12 -0 -0 29.64 -64.22 -14.4
1.6 17.92 4.99 -1.39 1.24 2.68 0 0 0 -18.18 -0.78 -1.14 0.37 3.9 10.79 0.57 -3.97 -13.41 2.43 -9.7 -28.02 0 0 0 21.26 1.82 -3.74 -0.86 -5.9 16.5 -0.48 -6.81 -17.32 -1.03 -6.46 18.12 -0.38 0.7 6.93 1.83 0.97 -0.01 2.01 0.51 -3.94 0.67 2.01 -14.05 -2.19 3.04 16.89 -0.51 1.29 7.56 -0 0 0 -95.83 5.87 9.47 20.6 -31.36 -5.84 -0 -0 4.02 5.79 -12.15 -1.22 -7.12 0 -0 -14.84 17.99 9.87 -0 0 0 91.13 0.84 3.38 -13.3 21.73 -2.56 0 0 2.52 -10.95 -35.77 6.45 7.12 -0 -0 28.34 -64.07 -13.63
1.6 17.96 4.78 -1.49 0.97 3.5 0 0 0 -18.06 -1.11 -2.88 0.38 3.94 10.92 0.51 -4 -12.7 2.41 -9.67 -27.93 0 0 0 21.24 2.19 -5.44 -0.85 -5.87 16.4 -0.4 -6.61 -16.21 -1.04 -6.48 18.17 -0.17 0.73 8.18 1.75 1.04 0.39 1.79 0.53 -4.22 0.77 2.1 -13.35 -2.28 3.15 16.77 -0.55 1.34 7.4 -0 -0 0 -95.43 5.37 10.74 21.33 -32.21 -6.23 -0 -0 3.45 6.12 -12.44 -1.32 -7.12 0 -0 -14.6 17.7 9.8 -0 -0 0 91.05 1.52 5.94 -14.19 23 -2.9 0 0 0.42 -11.49 -35.89 6.8 7.12 -0 -0 27.9 -64.32 -13.56
1.6 18 4.49 -1.57 0.53 4.66 0 0 0 -17.87 -1.8 -5.19 0.39 3.99 11.05 0.43 -3.94 -11.69 2.29 -9.44 -27.19 0 0 0 21.12 3.28 -7.84 -0.88 -5.98 16.72 -0.35 -6.32 -15.26 -1.16 -6.85 19.27 -0.02 0.87 9.87 1.64 1.23 0.91 1.55 0.62 -4.62 0.96 2.22 -12.59 -2.32 3.31 17.89 -0.58 1.43 7.64 -0 -0 0 -94.96 4.26 12.29 22.15 -33.14 -6.67 -0 -0 2.43 6.36 -12.54 -1.39 -7.12 0 -0 -14.43 17.59 9.71 -0 -0 0 90.81 2.85 7.92 -15.06 24.23 -3.25 0 0 0.84 -8.52 -36.61 5.1 7.12 -0 -0 31.9 -64.12 -15.54
1.6 18 4.12 -1.41 -0.07 5.99 0 0 0 -17.95 -2.48 -7.86 0.41 4.09 11.34 0.36 -3.49 -10.6 2.35 -9.56 -27.56 0 0 0 20.66 4.15 -11.31 -1 -6.37 17.86 -0.31 -5.7 -14.12 -1.28 -7.16 20.19 -0.05 1.11 12.18 1.49 1.54 1.86 1.34 0.77 -4.92 0.97 2.19 -12.28 -2.27 3.37 21.75 -0.56 1.42 8.88 -0 -0 0 -94.3 2.51 15.04 23.36 -34.48 -7.34 -0 -0 1.21 6.47 -12.64 -1.42 -7.12 0 -0 -14.35 17.49 9.69 -0 -0 0 90.22 5.16 10.47 -16 25.52 -3.65 0 0 0.55 -7.75 -36.97 4.68 7.12 -0 -0 33.13 -64.21 -16.27
1.6 18.02 3.65 -1.35 -0.56 7.87 0 0 0 -17.63 -3.99 -12.86 0.58 4.86 13.51 0.28 -3.24 -9.35 1.52 -7.8 -22.1 0 0 0 20.2 5.41 -15.71 -1.12 -6.73 18.91 -0.23 -5.29 -12.5 -1.46 -7.63 21.59 -0.33 1.04 15.13 1.38 1.4 3.25 1.37 0.69 -5.08 1.12 2.4 -11.8 -2.22 3.75 26.53 -0.52 1.57 10.5 -0 0 0 -93.17 0.07 18.17 25.69 -36.9 -8.7 -0 0 -0.66 6.56 -13.38 -1.52 -7.12 0 -0 -14.25 16.76 9.85 -0 0 0 89.37 8.48 15.28 -17.58 27.62 -4.35 0 -0 -1.2 -7.9 -37.01 4.78 7.12 -0 -0 33.02 -64.28 -16.26
1.61 17.97 3.09 -1.14 -0.84 10.3 0 0 0 -17.19 -5.79 -19.28 0.89 6.01 16.8 0.3 -4.14 -9.76 2 -8.87 -25.4 0 0 0 19.32 6.91 -21.99 -1.47 -7.66 21.68 -0.23 -4.45 -11.79 -1.57 -7.91 22.43 -0.37 1.36 19 1.27 1.78 5.1 1.15 0.87 -5.19 0.76 1.95 -11.21 -2.29 3.31 29.78 -0.54 1.3 11.6 -0 -0 0 -91.63 -2.12 23.43 30.78 -41.56 -11.93 -0 0 -3.55 6.57 -13.51 -1.54 -7.12 0 -0 -14.23 16.64 9.87 -0 -0 0 87.89 11.48 18.78 -21.56 32.48 -6.35 0 -0 -3.23 -6.45 -37.45 3.93 7.12 -0 -0 35.08 -64.24 -17.37
1.61 17.83 2.47 -1.04 -0.51 13.77 0 0 0 -16.19 -8.06 -28.31 1.53 7.82 22.17 0.29 -5.37 -9.7 1.52 -7.79 -22.09 0 0 0 18.29 8.06 -30.95 -2.14 -9.14 26.25 -0.24 -3.17 -10.9 -1.74 -8.3 23.62 -0.88 1.1 23.6 1.6 1.33 6.82 1.86 0.63 -5.71 -0.33 1.94 -10.83 -2.78 3.7 30.35 -0.49 1.28 11.75 -0 -0 0 -90.26 -3.84 26.6 38.6 -47.22 -17.41 -0 0 -6.07 7.41 -14.08 -1.81 -7.12 0 -0 -13.64 16.04 9.62 -0 -0 0 85.22 14.67 23.62 -27.16 38.33 -9.6 0 -0 -6.27 -8.22 -37 4.97 7.12 -0 -0 32.68 -64.36 -16.14
1.64 17.53 1.88 -1.11 -0.16 17.91 0 0 0 -14.76 -9.68 -40.09 2.85 10.45 30.44 0.33 -7.63 -10.84 1.33 -7.32 -20.65 0 0 0 17 9.48 -41.83 -3.36 -11.26 33.15 -0.31 -1.51 -11.18 -1.84 -8.52 24.31 -0.6 1.06 28.37 1.53 1.31 7.89 1.6 0.61 -6.87 -0.44 1.71 -10.93 -3.25 3.51 29.87 -0.67 1.13 11.59 -0 0 0 -87.89 -5.7 29.11 46.84 -51.64 -23.67 -0 0 -7.65 8.72 -16.68 -2.52 -7.12 0 -0 -12.68 13.4 9.64 -0 0 0 82.65 17.12 25.93 -33.75 43.9 -13.94 0 -0 -8.1 -8.53 -36.85 5.14 7.12 -0 -0 32.18 -64.32 -15.84
1.67 16.98 1.38 -0.95 -0.23 21.47 0 0 0 -13.61 -10.3 -52.68 5.06 13.45 41.09 0.39 -10.77 -12.57 1.02 -6.41 -17.99 0 0 0 15.28 10.33 -53.84 -5.53 -13.96 43.06 -0.46 1.4 -12.45 -1.86 -8.57 24.45 -1.04 1.14 32.43 1.65 1.26 9.23 2 0.57 -7.26 -1.29 1.66 -12.09 -3.38 3.66 28.92 -0.54 1.09 11.45 0 -0 0 -86.53 -9.2 29.07 53.26 -54.23 -28.8 -0 0 -8.25 9.53 -17.08 -2.82 -7.12 0 -0 -12.13 12.95 9.32 0 -0 0 79.34 21.17 26.57 -38.81 47.35 -17.56 0 -0 -8.13 -6.45 -37.61 3.95 7.12 -0 -0 35.28 -64.37 -17.58
1.68 16.19 0.95 -1.49 0.18 23.1 0 0 0 -11.11 -10.93 -64.01 8.32 16.35 53.72 0.55 -13.33 -15.15 0.81 -5.76 -16.08 0 0 0 14.56 10.31 -64.94 -8.73 -16.63 55.16 -0.65 3.91 -14.42 -1.67 -8.14 23.14 -0.74 1.21 37.55 1.8 1.39 9.58 1.76 0.6 -7.93 -1.15 1.62 -12.36 -3.53 3.56 27.99 -0.62 1.06 11.15 -0 -0 0 -84.74 -12.67 27.97 56.68 -55.36 -31.6 -0 0 -8.86 10.25 -18.06 -3.21 -7.12 0 -0 -11.66 11.93 9.19 -0 -0 0 76.64 24.31 26.32 -42.49 49.48 -20.32 0 -0 -8.5 -7.77 -37.37 4.73 7.12 -0 -0 33.62 -64.54 -16.79
1.68 15.14 0.62 -1.74 0.62 23.49 0 0 0 -8.71 -11.13 -74.55 12.56 18.62 67.74 0.88 -15 -18.47 0.64 -5.1 -14.2 0 0 0 13.31 10.18 -75.25 -12.92 -18.75 68.88 -1 5.53 -17.84 -1.45 -7.61 21.53 -0.03 1.09 41.7 1.36 1.45 10.31 0.87 0.62 -8.42 -0.69 1.5 -12.64 -3.31 3.19 27.31 -0.66 0.98 10.94 0 0 0 -82.52 -15.36 26.56 60.69 -56.49 -34.92 -0 0 -10.33 11.01 -18.26 -3.49 -7.12 0 -0 -11.16 11.67 8.85 0 0 0 74.89 26.07 24.82 -47.22 51.81 -23.97 0 -0 -8.9 -7.34 -38.05 4.54 7.12 -0 -0 34.96 -64.97 -17.88
1.72 14.01 0.36 -1.8 1.6 21.18 0 0 0 -6.97 -11.74 -81.56 16.98 19.78 81.14 1.4 -15.37 -22.29 0.59 -4.92 -13.69 0 0 0 11.88 8.82 -82.26 -17.32 -19.83 82.13 -1.55 5.8 -22.38 -0.65 -5.17 14.38 1.4 0.15 47.43 1.01 0.94 11.16 -0.04 0.39 -8.95 -0.41 1.47 -12.52 -3.74 3.15 25.91 -0.86 0.96 10.41 -0 -0 0 -81.68 -15.5 24.61 75.56 -59.2 -47.53 -0 0 -15.2 12.04 -16.39 -3.44 -7.12 0 -0 -10.49 13.44 7.9 -0 -0 0 73.49 26.05 23.85 -58.51 55.9 -33.11 0 -0 -14.89 -8.55 -38.17 5.31 7.12 -0 -0 33.86 -65.41 -17.6
1.76 12.71 0.14 -1.64 3.22 19.36 0 0 0 -4.91 -13.1 -89.68 21.48 19.95 94.34 1.8 -15.55 -24.89 0.47 -4.4 -12.21 0 0 0 10.27 6.61 -90.5 -21.89 -19.91 95.54 -1.98 6.04 -25.35 -0.49 -4.47 12.41 3.08 -1.43 52.36 0.61 0.05 10.42 -0.78 0.01 -9.17 -0.67 1.46 -12.31 -3.48 3.05 24.41 -0.74 0.96 9.81 0 0 0 -81.53 -10.33 25.77 113.59 -57.79 -80.28 -0 0 -23.67 25.55 -21.93 -10.12 -7.12 0 -0 -2.05 5.95 1.83 0 0 0 72.59 21.59 25.16 -90.1 60 -60.09 0 -0 -23.23 -14.86 -33.96 8.43 7.12 -0 -0 22.19 -63.51 -10.21
1.82 11.33 -0.06 -1.31 4.71 18.3 0 0 0 -2.77 -14.78 -99.31 25.59 19.23 106.55 1.98 -14.85 -25.8 0.4 -4.05 -11.21 0 0 0 8.51 3.94 -100.32 -26.08 -19.09 108.04 -2.14 5.93 -26.44 -0.64 -5.13 14.29 4.48 -2.77 53.07 0.54 -0.72 10.82 -1.14 -0.3 -8.79 -1.34 1.22 -10.78 -3.14 2.62 21.36 -0.55 0.81 8.45 0 -0 0 -81.5 -2.35 31.27 144.97 -44.83 -105.17 -0 0 -18.05 38.77 -33.67 -24 -7.12 0 -0 3.36 -10.47 -3.92 0 -0 0 71.25 14.5 27.67 -130.18 52.92 -93.97 0 -0 -22.36 -21.1 -26.77 9.86 7.12 -0 -0 10.13 -58.1 -3.27
1.85 9.96 -0.19 -1.18 5.68 16.4 0 0 0 -0.71 -15.57 -108.3 29.13 17.87 117.64 1.92 -14.34 -25.33 0.26 -3.29 -9.08 0 0 0 7 1.48 -109.15 -29.64 -17.61 119.31 -2.1 5.65 -26.2 -0.85 -5.9 16.48 5.38 -3.67 51.83 0.64 -1.35 11.56 -1.21 -0.54 -7.81 -1.84 1.16 -8.64 -3.31 2.49 18.46 -0.55 0.78 7.1 -0 -0 0 -79.21 5.2 39.93 156.94 -34.16 -112.83 -0 0 -1 43.05 -43.03 -32.51 -7.12 0 -0 2.48 -21.92 -3.23 -0 -0 0 68.88 9.53 32.23 -149.75 41.11 -108.42 0 -0 -11.17 -27.57 -18.43 9.37 7.12 -0 -0 0.56 -50.58 -0.08
1.83 8.81 -0.28 -1.73 5.8 13.75 0 0 0 0.37 -14.12 -115.44 31.64 16.38 126.16 1.69 -14.07 -23.89 0.21 -2.96 -8.16 0 0 0 6.77 -0.01 -115.85 -32.07 -16.07 127.68 -1.87 5.57 -24.66 -1.32 -7.29 20.58 5.62 -3.61 49.17 1 -1.35 12.47 -0.99 -0.53 -6.45 -2.61 1.15 -6.71 -2.53 2.28 15.79 -0.2 0.76 5.88 -0 0 0 -75.98 8.4 46.01 158.32 -32.61 -113.59 -0 -0 4.11 41.98 -44.8 -32.38 -7.12 0 -0 1.32 -23.19 -1.73 -0 0 0 66.23 7.77 35.7 -155.43 35.76 -111.96 0 0 2.21 -28.16 -15.3 8.04 7.12 -0 -0 -0.51 -47.21 0.03
1.82 8.05 -0.41 -2.34 6.42 9.07 0 0 0 0.23 -13.28 -117.47 33.07 15.27 131.41 1.5 -14.17 -22.68 0.16 -2.57 -7.1 0 0 0 7.59 -2.61 -117.79 -33.47 -14.92 132.93 -1.74 5.79 -23.73 -1.3 -7.23 20.4 6.55 -4.22 48.52 1.01 -1.68 12.82 -1.31 -0.64 -5.96 -2.61 1.02 -5.74 -1.58 1.85 12.97 0.05 0.68 4.83 0 -0 0 -74.04 7.93 47.18 156.25 -34.9 -112.44 -0 -0 4.54 42.89 -43.08 -32.4 -7.12 0 -0 2.39 -21.9 -3.11 0 -0 0 64.66 7.86 38.08 -154.51 36.7 -111.42 0 0 9.72 -28.91 -15.12 8.2 7.12 -0 -0 -1.26 -47.13 0.07
1.8 7.48 -0.57 -2.3 6.24 3.86 0 0 0 -0.55 -12.56 -117.01 33.97 14.45 134.91 1.4 -13.54 -21.81 0.19 -2.83 -7.82 0 0 0 7.67 -4.89 -117.73 -34.34 -14.09 136.4 -1.57 6.82 -22.45 -1.39 -7.45 21.05 6.41 -4 46.74 1.01 -1.7 14.03 -1.43 -0.62 -5.54 -2.9 0.81 -5.86 -0.34 1.41 10.05 0.48 0.57 4.34 -0 0 0 -73.88 5.25 46.93 154.64 -36.57 -111.5 -0 -0 5 43.87 -41.11 -32.29 -7.12 0 -0 3.57 -20.38 -4.6 -0 0 0 64.53 8.11 37.41 -152.6 38.56 -110.25 0 0 16.28 -29.59 -14.97 8.35 7.12 -0 -0 -1.94 -47.07 0.1
1.77 7.05 -0.79 -2.24 5.82 -3.12 0 0 0 -1.82 -11.35 -113.12 34.51 13.91 137.12 1.33 -13.86 -21.43 0.32 -3.64 -10.08 0 0 0 8.08 -7.32 -114.47 -34.86 -13.54 138.59 -1.46 7.73 -21.63 -1.42 -7.54 21.32 5.9 -3.92 47.99 0.62 -1.73 13.04 -1.42 -0.65 -5.67 -2.52 0.69 -5.52 0.11 1.13 7.44 0.53 0.49 3.35 -0 0 0 -73.5 2.54 47.18 151.86 -39.25 -109.79 -0 -0 7.62 43.16 -38.67 -30.37 -7.12 0 -0 4.09 -17.57 -5.15 -0 0 0 65.39 8.35 37.56 -150.36 40.58 -108.82 0 0 20.44 -28.44 -16.41 8.7 7.12 -0 -0 -0.63 -48.5 0.05
1.7 6.72 -1.06 -3.04 4.9 -11.81 0 0 0 -2.82 -7.27 -106.6 34.82 13.58 138.42 1.11 -16.67 -20.69 0.21 -2.92 -8.06 0 0 0 9.39 -8.96 -107.87 -35.08 -13.29 139.54 -1.37 8.46 -20.98 -1.77 -8.38 23.88 5.38 -3.58 50.02 0.75 -1.4 12.45 -1.11 -0.54 -6.6 -3.34 0.75 -4.05 1.28 1.14 4.47 1.01 0.54 2.07 0 -0 0 -73.82 0.05 46.71 147.98 -42.56 -107.25 -0 -0 10.84 41.1 -34.93 -26.54 -7.12 0 -0 4.23 -12.74 -5.07 0 -0 0 66.42 7.55 38.39 -147.74 42.75 -107.09 0 0 25.97 -27.11 -16.67 8.35 7.12 -0 -0 0.71 -48.57 -0.06
1.63 6.94 -1.44 -2.61 3.99 -20.17 0 0 0 -4.92 -2.85 -94.35 34.08 14.35 135.32 1.02 -20.09 -21.49 0.23 -3.11 -8.59 0 0 0 9.46 -10.71 -96.04 -34.35 -14.09 136.42 -1.34 10.08 -20.86 -2.02 -8.9 25.49 4.3 -3.08 52.67 0.47 -1.23 12.65 -0.95 -0.46 -6.71 -3.06 0.69 -3.11 1.33 1.02 2.99 0.95 0.5 1.43 0 0 0 -77.26 -4.33 43.75 141.91 -46.9 -102.97 -0 -0 13.83 35.99 -31.35 -20.7 -7.12 0 -0 2.44 -6.97 -2.73 0 0 0 70.44 7.61 40.17 -141.78 46.98 -102.87 0 0 29.12 -26.79 -17.24 8.51 7.12 -0 -0 1.11 -49.15 -0.11
1.59 6.98 -1.68 -2.74 2.58 -26.78 0 0 0 -4.91 1.82 -86.42 33.69 14.72 133.8 0.88 -22.55 -21.76 0.23 -3.11 -8.58 0 0 0 9.59 -10.2 -87.62 -33.92 -14.51 134.69 -1.3 10.13 -20.52 -2.07 -9 25.81 4.02 -2.46 54.19 0.64 -0.55 11.82 -0.89 -0.2 -7.77 -3.07 0.41 -3.63 1.37 0.65 4.51 0.98 0.31 2.02 -0 -0 0 -81.65 -5.25 41.33 136.28 -50.13 -98.75 -0 -0 14.53 25.34 -29.66 -13.18 -7.12 0 -0 -3.23 -2.18 3.36 -0 -0 0 73.37 5.63 41.03 -135.36 50.59 -98.04 0 0 30.71 -26.72 -19.67 9.62 7.12 -0 -0 1.68 -51.79 -0.28
1.57 6.95 -1.79 -2.09 1.13 -30.76 0 0 0 -4.7 5.5 -81.89 33.55 14.85 133.24 0.7 -24.29 -21.59 0.17 -2.64 -7.29 0 0 0 9.27 -8.72 -82.75 -33.73 -14.68 133.95 -1.22 10.17 -19.93 -2.39 -9.64 27.81 2.83 -1.56 52.05 0.89 -0.23 11.83 -0.24 -0.09 -7.56 -3.25 0.49 -4.31 1.24 0.79 4.61 0.98 0.37 2.17 0 0 0 -84.53 -3.43 40.92 134.13 -51.19 -97.08 -0 -0 17.4 25.15 -32.76 -14.25 -7.12 0 -0 -3.86 -5.36 4.21 0 0 0 75.01 5.21 42.74 -131.41 52.41 -94.95 0 0 31.43 -26.59 -20.76 10.06 7.12 -0 -0 2.07 -52.94 -0.4
1.58 6.92 -1.84 -1.84 -0.04 -33.32 0 0 0 -4.12 8.17 -79.09 33.52 14.88 133.12 0.63 -25.3 -21.73 0.1 -2.06 -5.66 0 0 0 9.5 -7.78 -79.64 -33.64 -14.77 133.58 -1.22 10.21 -19.94 -2.45 -9.75 28.19 1.54 -1.08 49.5 1.21 -0.39 11.74 0.74 -0.22 -7.36 -1.92 0.99 -5.07 -0.09 1.47 4.1 0.35 0.7 2.14 -0 0 0 -86.25 0.85 40.86 133.35 -51.55 -96.47 -0 -0 20.66 27.22 -36.93 -17.17 -7.12 0 -0 -3.55 -10.16 4.12 -0 0 0 77.21 4.77 44.59 -126.76 54.22 -91.22 0 0 32.65 -27.16 -20.89 10.37 7.12 -0 -0 1.5 -53.19 -0.3
1.54 6.77 -1.78 -0.21 -2.57 -30.88 0 0 0 -4.29 12.79 -83.57 33.92 14.51 134.7 0.5 -26.42 -21.64 0.08 -1.85 -5.09 0 0 0 9.57 -2.42 -83.87 -33.97 -14.46 134.89 -1.13 8.36 -19.01 -2.53 -9.89 28.63 -0.82 1 40.3 1.67 1.03 12.61 1.8 0.4 -5.46 -1.27 0.8 -6.06 -0.86 1.22 3.44 -0.01 0.56 2.12 -0 -0 0 -87.34 4.47 42.72 130.34 -52.86 -94.09 -0 -0 23.56 30.25 -39.38 -20.3 -7.12 0 -0 -2.56 -13.52 3.09 -0 -0 0 79.75 2.67 45.01 -122.29 55.67 -87.56 0 0 32 -27.38 -24.27 12.02 7.12 -0 -0 2.22 -56.88 -0.65
1.57 6.77 -1.81 0.91 -3.73 -32.05 0 0 0 -4.72 14.61 -81.96 33.88 14.54 134.55 0.57 -26.53 -22.13 0.05 -1.5 -4.13 0 0 0 8.95 -1.28 -82.54 -33.9 -14.53 134.61 -1.08 8.71 -18.67 -2.47 -9.79 28.3 -1.61 1.76 38.87 1.7 1.68 12.16 2.01 0.7 -5.54 -2.99 0.97 -8.41 1.83 1.52 3.96 1.19 0.77 2.7 0 0 0 -87.66 7.08 45.29 124.5 -54.99 -89.38 -0 -0 22.62 30.56 -39.43 -20.55 -7.12 0 -0 -2.42 -13.66 2.92 0 0 0 82.18 0.88 45.12 -116.71 57.12 -82.91 0 0 31.95 -33.5 -27.33 16.9 7.12 -0 -0 -4.04 -61.72 1.64
1.56 6.74 -1.84 0.74 -3.9 -32.92 0 0 0 -4.32 14.8 -81.19 33.89 14.53 134.58 0.61 -26.3 -22.2 0.07 -1.72 -4.74 0 0 0 9.33 -1.63 -81.79 -33.88 -14.54 134.54 -1.06 8.8 -18.48 -2.52 -9.87 28.55 -1.61 1.74 38.19 1.86 1.69 11.84 2.18 0.7 -5.69 -0.98 1.11 -9.83 -0.23 1.61 2.68 0.18 0.78 2.55 -0 0 0 -88.36 7.41 46.68 117.39 -56.97 -83.48 -0 -0 24.45 38.11 -41.72 -27.57 -7.12 0 -0 0.62 -18.59 -0.79 -0 0 0 84.85 0.8 43.29 -114.2 57.67 -80.8 0 0 30.58 -32.31 -27.52 16.29 7.12 -0 -0 -2.48 -61.62 1
1.55 6.71 -1.83 0.2 -4.22 -33.65 0 0 0 -3.21 15.49 -80.64 33.94 14.49 134.78 0.48 -26.69 -21.72 0.04 -1.33 -3.66 0 0 0 10.2 -1.49 -80.95 -33.9 -14.53 134.6 -1.07 8.58 -18.55 -2.67 -10.15 29.45 -1.15 1.59 37.61 1.88 1.69 11.61 1.96 0.71 -5.75 -0.72 1.43 -11.47 -0.15 2.01 2.13 0.19 0.99 2.67 0 0 0 -89.46 6.62 46 118.66 -56.66 -84.54 -0 -0 19.51 34.13 -38.33 -22.8 -7.12 0 -0 -0.32 -13.7 0.38 0 0 0 86.13 1.53 42.52 -111.97 58.09 -78.91 0 0 29.09 -30.53 -27.56 15.26 7.12 -0 -0 -0.29 -61.19 0.11
1.55 6.69 -1.82 0.2 -4.32 -33.65 0 0 0 -3.1 15.32 -80.74 33.99 14.43 135 0.51 -26.45 -21.71 0.04 -1.36 -3.74 0 0 0 10.26 -0.97 -81.01 -33.94 -14.49 134.78 -1.08 8.28 -18.57 -2.59 -9.99 28.96 -1.13 1.59 36.71 1.8 1.71 11.24 1.87 0.73 -5.84 -0.15 1.54 -13.12 -1.2 2.14 2.16 -0.23 1.01 3.02 0 -0 0 -89.97 5.94 45.85 117.63 -56.91 -83.68 -0 -0 16.81 33.64 -37.94 -22.25 -7.12 0 -0 -0.47 -13.14 0.56 0 -0 0 85.8 1.39 43.2 -110.78 58.3 -77.89 0 0 28.33 -30.51 -27.54 15.24 7.12 -0 -0 -0.27 -61.16 0.11
1.55 6.69 -1.81 0.33 -4.22 -33.65 0 0 0 -3.29 14.73 -80.66 34.02 14.41 135.11 0.62 -25.88 -22.03 0.06 -1.52 -4.17 0 0 0 10.03 -0.68 -81.09 -33.96 -14.47 134.86 -1.09 8.12 -18.67 -2.44 -9.72 28.07 -1.26 1.59 36.31 1.62 1.64 11 1.78 0.71 -5.97 -0.01 1.71 -15.08 -1.7 2.39 2.55 -0.38 1.1 3.54 -0 -0 0 -89.62 5.73 46.3 117.07 -57.04 -83.21 -0 -0 15.37 32.35 -38.11 -21.35 -7.12 0 -0 -1.17 -12.89 1.4 -0 -0 0 84.78 1.42 44.5 -109.61 58.5 -76.9 0 0 27.37 -31.35 -28.06 15.99 7.12 -0 -0 -1.12 -61.95 0.46
1.55 6.69 -1.81 -0.05 -3.97 -33.6 0 0 0 -3.13 13.78 -80.74 34.03 14.4 135.16 0.67 -25.28 -21.94 0.06 -1.58 -4.35 0 0 0 10.19 -0.76 -81.08 -33.95 -14.48 134.82 -1.09 7.94 -18.71 -2.5 -9.84 28.46 -1.02 1.45 36.34 1.6 1.56 10.85 1.65 0.68 -6.13 0.18 1.92 -16.01 -2.14 2.66 2.16 -0.53 1.21 3.6 -0 0 0 -89.67 5.84 46.46 117.09 -57.04 -83.22 -0 -0 14.73 32.23 -38.6 -21.47 -7.12 0 -0 -1.36 -13.35 1.63 -0 0 0 83.96 1.44 45.45 -108.94 58.6 -76.32 0 0 26.53 -31.83 -28.54 16.52 7.12 -0 -0 -1.54 -62.6 0.66
1.55 6.69 -1.81 -0.01 -3.95 -33.55 0 0 0 -3.27 13.8 -80.84 34.05 14.38 135.21 0.62 -25.15 -21.57 0.04 -1.3 -3.57 0 0 0 10.03 -0.59 -81.14 -33.96 -14.46 134.88 -1.1 7.93 -18.73 -2.51 -9.86 28.54 -1.03 1.55 36.24 1.44 1.67 10.88 1.46 0.74 -6.06 0.26 2.05 -16.83 -2.15 2.81 2.07 -0.53 1.28 3.73 -0 0 0 -89.83 5.58 46.35 117.2 -57.01 -83.32 -0 -0 14.06 32.12 -38.78 -21.47 -7.12 0 -0 -1.46 -13.5 1.76 -0 0 0 83.71 1.49 45.75 -108.59 58.65 -76.03 0 0 25.58 -32.53 -28.03 16.69 7.12 -0 -0 -2.6 -62.24 1.09
1.56 6.69 -1.8 -0.1 -4.05 -33.47 0 0 0 -3.19 14.25 -81.03 34.06 14.37 135.26 0.62 -25.35 -21.72 0.05 -1.38 -3.8 0 0 0 10.12 -0.18 -81.18 -33.97 -14.46 134.89 -1.1 7.79 -18.73 -2.55 -9.93 28.74 -0.99 1.67 35.99 1.46 1.84 11.04 1.4 0.81 -5.8 0.28 2.15 -17.31 -2.21 2.95 2.16 -0.54 1.34 3.86 0 -0 0 -90.34 5.27 46.13 117.42 -56.96 -83.5 -0 -0 14.25 31.86 -38.93 -21.33 -7.12 0 -0 -1.63 -13.57 1.96 0 -0 0 83.71 1.63 45.56 -108.73 58.63 -76.15 0 0 25.34 -32.88 -28.16 16.96 7.12 -0 -0 -3 -62.47 1.27
1.56 6.69 -1.8 -0.06 -3.9 -33.51 0 0 0 -3.43 14.4 -81.04 34.06 14.37 135.24 0.55 -25.4 -21.35 0.03 -1.12 -3.08 0 0 0 9.97 -0.39 -81.2 -33.98 -14.45 134.93 -1.1 7.83 -18.75 -2.52 -9.87 28.54 -1.18 1.76 36.04 1.44 1.88 11.18 1.47 0.83 -5.67 0.43 2.3 -17.31 -2.37 3.14 2.21 -0.6 1.43 3.89 -0 0 0 -90.64 5.03 45.94 117.75 -56.88 -83.78 -0 -0 13.92 31.69 -38.67 -21.09 -7.12 0 -0 -1.65 -13.24 1.98 -0 0 0 84.33 1.63 44.9 -109.31 58.54 -76.64 0 0 25.42 -31.98 -28.22 16.45 7.12 -0 -0 -1.85 -62.29 0.78
1.56 6.68 -1.8 -0.2 -3.71 -33.55 0 0 0 -3.46 14.33 -81.15 34.06 14.37 135.26 0.52 -25.45 -21.16 0.03 -1.07 -2.94 0 0 0 10 -0.76 -81.28 -33.99 -14.44 134.96 -1.09 7.82 -18.68 -2.55 -9.94 28.77 -1.21 1.78 36.3 1.48 1.91 11.2 1.51 0.84 -5.74 0.8 2.3 -17.49 -2.89 3.11 2.92 -0.77 1.38 3.71 0 -0 0 -90.64 4.83 45.9 117.8 -56.87 -83.82 -0 -0 13.27 31.83 -39.04 -21.36 -7.12 0 -0 -1.67 -13.67 2.02 0 -0 0 84.72 1.44 44.42 -110.12 58.41 -77.33 0 0 25.46 -31.86 -28.15 16.34 7.12 -0 -0 -1.71 -62.18 0.71
1.56 6.68 -1.8 -0.32 -3.75 -33.57 0 0 0 -3.33 14.57 -81.2 34.07 14.36 135.29 0.52 -25.58 -21.25 0.04 -1.22 -3.35 0 0 0 10.14 -0.71 -81.25 -33.99 -14.44 134.97 -1.1 7.77 -18.74 -2.53 -9.89 28.63 -1.16 1.8 36.36 1.54 1.94 11.37 1.53 0.86 -5.57 0.91 2.38 -17.53 -3.05 3.21 3.01 -0.83 1.42 3.75 0 0 0 -90.48 4.73 45.95 118.08 -56.8 -84.06 -0 -0 12.91 32.03 -39.32 -21.62 -7.12 0 -0 -1.65 -14.02 2 0 0 0 84.72 1.5 44.36 -110.6 58.33 -77.74 0 0 25.55 -31.86 -28.15 16.34 7.12 -0 -0 -1.71 -62.18 0.71
1.56 6.68 -1.8 -0.24 -3.93 -33.38 0 0 0 -3.37 14.98 -81.46 34.08 14.35 135.35 0.5 -25.72 -21.24 0.03 -1.16 -3.18 0 0 0 10.14 -0.37 -81.47 -33.99 -14.43 135 -1.09 7.72 -18.66 -2.58 -9.97 28.89 -1.18 1.92 36.06 1.51 2.08 11.55 1.48 0.92 -5.28 1.06 2.4 -17.28 -3.18 3.2 2.73 -0.9 1.42 3.63 -0 0 0 -90.27 4.46 46.19 118.31 -56.74 -84.25 -0 -0 12.8 31.96 -39.21 -21.52 -7.12 0 -0 -1.66 -13.89 2.01 -0 0 0 84.74 1.6 44.18 -111 58.27 -78.08 0 0 25.43 -31.92 -27.92 16.26 7.12 -0 -0 -1.87 -61.95 0.77
1.56 6.68 -1.79 -0.41 -4.18 -33.37 0 0 0 -3.03 15.45 -81.55 34.11 14.33 135.44 0.46 -25.96 -21.16 0.03 -1.09 -3 0 0 0 10.5 -0.15 -81.41 -33.99 -14.44 134.98 -1.09 7.58 -18.68 -2.52 -9.87 28.54 -1 1.92 35.99 1.57 2.15 11.64 1.42 0.96 -5.16 1.02 2.49 -16.54 -3 3.32 2 -0.92 1.5 3.69 -0 0 0 -90.11 4.47 46.37 118.63 -56.67 -84.51 -0 -0 12.66 31.91 -39.18 -21.47 -7.12 0 -0 -1.67 -13.84 2.02 -0 0 0 84.48 1.63 44.35 -111.05 58.26 -78.13 0 0 25.28 -32.41 -28.16 16.68 7.12 -0 -0 -2.4 -62.34 1.01
1.56 6.67 -1.79 -0.29 -4.1 -33.33 0 0 0 -3.19 15.22 -81.59 34.11 14.32 135.48 0.49 -25.79 -21.22 0.03 -1.13 -3.12 0 0 0 10.35 -0.46 -81.51 -34.01 -14.42 135.04 -1.09 7.81 -18.7 -2.5 -9.83 28.43 -1.06 1.96 35.88 1.51 2.18 11.7 1.38 0.97 -5.05 0.99 2.44 -16.43 -2.86 3.25 2.21 -0.87 1.47 3.74 -0 0 0 -89.86 4.33 46.62 118.78 -56.63 -84.64 -0 -0 12.72 31.73 -38.75 -21.16 -7.12 0 -0 -1.65 -13.34 1.98 -0 0 0 84.38 1.7 44.3 -111.14 58.24 -78.2 0 0 25.19 -32.35 -28.41 16.77 7.12 -0 -0 -2.24 -62.6 0.96
1.55 6.67 -1.79 -0.39 -4.16 -33.4 0 0 0 -3.01 15.36 -81.52 34.12 14.31 135.5 0.48 -25.89 -21.19 0.03 -1.1 -3.03 0 0 0 10.53 -0.5 -81.39 -34 -14.43 135.03 -1.1 7.78 -18.77 -2.49 -9.81 28.37 -0.94 1.92 35.9 1.55 2.17 11.78 1.37 0.97 -4.98 0.87 2.47 -16.25 -2.76 3.31 2.35 -0.81 1.51 3.75 -0 -0 0 -89.83 4.38 46.64 118.93 -56.59 -84.77 -0 -0 12.66 31.8 -39.03 -21.33 -7.12 0 -0 -1.68 -13.65 2.04 -0 -0 0 84.34 1.67 44.25 -111.42 58.19 -78.44 0 0 24.92 -32.58 -28.47 16.94 7.12 -0 -0 -2.51 -62.72 1.08
1.55 6.67 -1.79 -0.55 -4.33 -33.46 0 0 0 -2.7 15.65 -81.53 34.13 14.3 135.53 0.46 -26.08 -21.2 0.03 -1.1 -3.01 0 0 0 10.83 -0.26 -81.26 -33.99 -14.44 134.98 -1.1 7.63 -18.76 -2.5 -9.84 28.46 -0.76 1.91 35.93 1.65 2.23 11.84 1.35 1 -4.92 0.74 2.42 -16.24 -2.6 3.27 2.6 -0.74 1.49 3.83 -0 -0 0 -89.88 4.41 46.76 118.98 -56.58 -84.81 -0 -0 12.61 32.12 -39.25 -21.66 -7.12 0 -0 -1.59 -13.97 1.92 -0 -0 0 84.32 1.61 44.23 -111.6 58.16 -78.59 0 0 25.04 -32.51 -28.3 16.81 7.12 -0 -0 -2.49 -62.52 1.06
1.57 6.67 -1.8 0.7 -3.46 -33.08 0 0 0 -4.68 13.61 -81.58 34.07 14.36 135.28 0.57 -24.7 -21.03 0.03 -1.11 -3.05 0 0 0 8.83 -1.1 -82.18 -34.05 -14.38 135.21 -1.05 8.4 -18.38 -2.51 -9.85 28.5 -1.99 2.07 35.45 1.27 1.99 11.82 1.7 0.87 -4.91 1.12 2.47 -15.83 -3.03 3.29 2.63 -0.95 1.49 3.78 -0 0 0 -89.83 4.53 46.85 119.09 -56.55 -84.9 -0 -0 12.6 31.82 -39.03 -21.34 -7.12 0 -0 -1.68 -13.66 2.03 -0 0 0 84.33 1.53 44.37 -111.71 58.14 -78.68 0 0 25.1 -32.57 -28.38 16.89 7.12 -0 -0 -2.54 -62.63 1.09
1.57 6.67 -1.8 0.79 -3.47 -33.07 0 0 0 -4.76 13.62 -81.61 34.06 14.37 135.26 0.57 -24.65 -21.02 0.03 -1.03 -2.82 0 0 0 8.75 -0.97 -82.24 -34.05 -14.38 135.21 -1.05 8.36 -18.35 -2.47 -9.78 28.28 -2.03 2.11 35.36 1.27 2.03 11.8 1.7 0.89 -4.91 1.13 2.46 -15.57 -2.96 3.28 2.92 -0.93 1.49 3.83 -0 0 0 -89.68 4.56 47.06 118.97 -56.58 -84.8 -0 -0 12.53 31.92 -38.98 -21.4 -7.12 0 -0 -1.61 -13.63 1.95 -0 0 0 84.33 1.5 44.38 -111.7 58.14 -78.67 0 0 25.11 -32.4 -28.41 16.8 7.12 -0 -0 -2.31 -62.61 0.99
1.57 6.67 -1.8 0.8 -3.46 -33.1 0 0 0 -4.77 13.57 -81.57 34.05 14.38 135.23 0.56 -24.69 -20.96 0.02 -0.97 -2.65 0 0 0 8.72 -0.96 -82.21 -34.05 -14.38 135.2 -1.05 8.36 -18.33 -2.49 -9.82 28.41 -2.05 2.12 35.25 1.32 2.05 11.81 1.76 0.89 -4.86 0.95 2.42 -15.56 -2.72 3.25 3.35 -0.82 1.48 3.98 0 -0 0 -89.68 4.57 47.15 118.87 -56.6 -84.72 -0 -0 12.45 31.9 -38.98 -21.38 -7.12 0 -0 -1.62 -13.64 1.96 0 -0 0 84.32 1.43 44.35 -111.74 58.14 -78.71 0 0 25.17 -32.48 -28.46 16.87 7.12 -0 -0 -2.39 -62.69 1.03
1.57 6.67 -1.81 0.88 -3.48 -33.15 0 0 0 -4.85 13.58 -81.49 34.04 14.39 135.18 0.58 -24.62 -21.07 0.03 -1.09 -3.01 0 0 0 8.61 -0.85 -82.14 -34.04 -14.39 135.17 -1.04 8.39 -18.29 -2.54 -9.92 28.71 -2.09 2.17 35.14 1.33 2.1 11.86 1.77 0.92 -4.77 0.81 2.35 -15.38 -2.53 3.18 3.49 -0.74 1.45 3.98 0 0 0 -89.69 4.47 47.26 118.57 -56.68 -84.47 -0 -0 12.36 32.03 -39.09 -21.53 -7.12 0 -0 -1.59 -13.79 1.92 0 0 0 84.33 1.5 44.25 -111.75 58.13 -78.72 0 0 25.13 -32.13 -28.56 16.72 7.12 -0 -0 -1.92 -62.7 0.82
1.57 6.68 -1.81 1 -3.53 -33.28 0 0 0 -4.89 13.71 -81.24 34.02 14.41 135.1 0.63 -24.61 -21.32 0.04 -1.23 -3.39 0 0 0 8.54 -0.65 -81.91 -34.02 -14.41 135.09 -1.04 8.32 -18.3 -2.5 -9.83 28.44 -2.2 2.25 35.18 1.32 2.16 11.9 1.8 0.95 -4.75 0.95 2.37 -14.73 -2.64 3.17 3.26 -0.81 1.45 3.78 0 -0 0 -89.69 4.46 47.35 118.42 -56.72 -84.34 -0 -0 12.7 32.48 -38.87 -21.78 -7.12 0 -0 -1.3 -13.71 1.57 0 -0 0 84.41 1.47 44.21 -111.79 58.13 -78.76 0 0 24.98 -32.11 -28.27 16.55 7.12 -0 -0 -1.99 -62.38 0.84
1.58 6.68 -1.82 0.76 -3.41 -33.47 0 0 0 -4.72 13.39 -80.94 34 14.43 135 0.65 -24.55 -21.4 0.04 -1.31 -3.59 0 0 0 8.68 -0.89 -81.6 -33.99 -14.44 134.98 -1.05 8.27 -18.36 -2.49 -9.82 28.41 -1.92 2.18 35.77 1.38 2.15 11.76 1.7 0.95 -4.97 0.81 2.37 -13.33 -2.37 3.18 2.75 -0.7 1.48 3.31 -0 -0 0 -89.57 4.37 47.66 118.13 -56.79 -84.1 -0 -0 13.12 31.94 -38.47 -21.2 -7.12 0 -0 -1.47 -13.13 1.77 -0 -0 0 84.69 1 43.8 -112.09 58.07 -79.01 0 0 25.75 -31.71 -28.38 16.37 7.12 -0 -0 -1.45 -62.4 0.61
1.57 6.7 -1.82 0.2 -3.87 -33.67 0 0 0 -3.7 14.33 -80.75 34.01 14.42 135.05 0.59 -25.39 -21.54 0.04 -1.25 -3.43 0 0 0 9.61 -0.16 -80.96 -33.94 -14.49 134.76 -1.08 7.76 -18.57 -2.53 -9.89 28.63 -1.34 2.11 36.51 1.48 2.26 11.79 1.46 1.01 -5.18 0.78 2.42 -11.82 -1.97 3.22 2.53 -0.58 1.53 2.94 -0 -0 0 -89.31 4.66 47.75 118.7 -56.65 -84.58 -0 -0 14.32 31.44 -38.2 -20.71 -7.12 0 -0 -1.66 -12.69 1.98 -0 -0 0 84.87 0.7 44.04 -113.09 57.89 -79.86 0 0 26.2 -31.22 -28.25 16.01 7.12 -0 -0 -0.88 -62.12 0.37
1.56 6.7 -1.81 0.17 -4.57 -32.97 0 0 0 -3.36 15.47 -81.72 34.04 14.39 135.19 0.6 -25.83 -21.84 0.06 -1.61 -4.44 0 0 0 9.99 1.63 -81.68 -33.93 -14.49 134.76 -1.07 7.01 -18.5 -2.52 -9.88 28.59 -1.36 2.33 36.92 1.47 2.5 11.78 1.35 1.12 -5.35 0.71 2.57 -9.17 -1.55 3.4 0.99 -0.46 1.66 1.92 -0 -0 0 -89.01 5.84 47.51 121.69 -55.84 -87.06 -0 -0 13.56 30.4 -39.76 -20.57 -7.12 0 -0 -2.58 -13.95 3.13 -0 -0 0 84.91 0.17 44.34 -115.44 57.41 -81.84 0 0 26.39 -30.11 -28.03 15.24 7.12 -0 -0 0.41 -61.59 -0.16
1.56 6.74 -1.79 0.65 -4.68 -32.01 0 0 0 -3.95 15.64 -82.48 34 14.43 135.01 0.62 -25.89 -22.01 0.06 -1.63 -4.49 0 0 0 9.38 2.65 -82.6 -33.92 -14.5 134.71 -1.04 7.01 -18.21 -2.55 -9.92 28.73 -1.93 2.7 38 1.28 2.72 11.98 1.36 1.21 -5.49 0.84 2.47 -6.33 -1.5 3.25 -1.48 -0.52 1.61 0.63 0 -0 0 -89.12 6.96 46.08 127.45 -53.97 -91.78 -0 -0 11.94 33.21 -43.14 -24.11 -7.12 0 -0 -2.16 -18.23 2.73 0 -0 0 85.34 -0.7 43.18 -120.7 56.12 -86.24 0 0 23.06 -27.66 -25.44 12.69 7.12 -0 -0 2.31 -58.21 -0.75
1.56 6.81 -1.76 -0.78 -2.57 -30.43 0 0 0 -3.83 11.65 -83.77 33.96 14.47 134.86 0.56 -25.68 -21.56 0.06 -1.58 -4.36 0 0 0 9.59 -0.5 -83.79 -33.94 -14.49 134.76 -1.16 7.67 -19.23 -2.45 -9.75 28.16 -0.87 1.64 40.08 1.37 1.79 12.44 1.22 0.78 -5.59 0.69 2.25 -4.05 -1.32 2.95 -4.62 -0.5 1.47 -0.71 0 -0 0 -90.56 6.58 41.19 133.06 -51.68 -96.25 -0 -0 10.69 35.23 -44.15 -26.19 -7.12 0 -0 -1.54 -19.92 1.97 0 -0 0 86.15 -0.98 40.15 -126.22 54.41 -90.78 0 0 16.57 -26.68 -24.28 11.67 7.12 -0 -0 3 -56.74 -0.86
1.57 6.88 -1.7 -0.28 -4.04 -28.52 0 0 0 -4.07 14.16 -85.51 34.02 14.41 135.1 0.79 -26.05 -23.08 0.1 -2.01 -5.54 0 0 0 9.42 3.03 -85.15 -33.91 -14.51 134.67 -1.18 7.08 -19.4 -2.38 -9.63 27.77 -1.43 2.67 43.46 1.2 2.72 12.74 0.91 1.19 -6.25 0.67 2.13 -1.35 -0.99 2.8 -8.76 -0.48 1.41 -2.5 -0 0 0 -91.13 4.7 34.83 135.66 -50.44 -98.27 -0 -0 4.94 36.14 -41.07 -25.63 -7.12 0 -0 -0.12 -17.19 0.15 -0 0 0 86.84 -0.67 36.31 -130.17 52.92 -93.97 0 0 8.44 -28.8 -25.91 13.51 7.12 -0 -0 1.17 -58.98 -0.4
1.56 6.95 -1.56 -0.58 -3.82 -24.41 0 0 0 -4.35 13 -89.65 34.17 14.26 135.7 0.9 -25.87 -23.6 0.08 -1.77 -4.87 0 0 0 8.91 4.33 -89.27 -34.05 -14.38 135.24 -1.26 7.31 -20.05 -2.52 -9.87 28.56 -1.71 2.98 45.98 1.2 2.9 13.03 0.93 1.25 -6.59 0.22 1.96 -0.16 -0.6 2.62 -13.08 -0.33 1.32 -4.24 0 0 0 -90.24 1.89 28.36 133.13 -51.65 -96.31 -0 0 -1.79 32.81 -35.94 -20.73 -7.12 0 -0 -0.38 -10.8 0.44 0 0 0 86.56 0.88 31.36 -130.41 52.83 -94.15 0 0 1.3 -27.26 -30.14 14.51 7.12 -0 -0 4.87 -63.07 -2.14
1.57 7.02 -1.39 -1.2 -3.38 -19.57 0 0 0 -4.47 10.44 -94.43 34.35 14.09 136.42 1.37 -24.03 -25.25 0.23 -3.08 -8.5 0 0 0 8.9 4.71 -93.95 -34.2 -14.23 135.83 -1.49 6.37 -21.9 -1.98 -8.83 25.26 -1.4 2.95 52.07 1.13 2.83 11.28 0.67 1.19 -8.28 -0.4 1.91 0.27 -0.47 2.57 -18.57 -0.21 1.33 -5.64 0 -0 0 -87.51 0.43 23.12 124.36 -55.03 -89.26 -0 0 -5.76 26.78 -29.22 -13.85 -7.12 0 -0 -2.33 -2.07 2.41 0 -0 0 84.4 2.32 27.16 -124.61 54.95 -89.46 0 -0 -4.05 -24.02 -32.8 13.57 7.12 -0 -0 10.59 -64.89 -5.12
1.66 6.92 -0.9 -2.65 -1.51 -6.22 0 0 0 -3.51 3.1 -111.16 34.92 13.47 138.85 1.34 -19.46 -23.21 0.36 -3.84 -10.63 0 0 0 7.53 4.3 -110.7 -34.83 -13.58 138.43 -1.44 5.46 -21.53 -1.56 -7.89 22.37 1.07 1.07 45.71 0.84 1.84 10.66 -0.44 0.8 -9.1 -0.51 1.71 -0.41 -0.58 2.28 -21.4 -0.22 1.21 -6.42 -0 0 0 -84.29 1.83 21.08 108.21 -58.71 -75.7 -0 0 -9.37 22.31 -26.45 -10.36 -7.12 0 -0 -4.57 1.79 4.44 -0 0 0 81.75 0.54 24.99 -110.51 58.35 -77.66 0 -0 -6.04 -18.87 -35.5 11.23 7.12 -0 -0 19.22 -66.03 -9.92
1.63 7.15 -0.38 -3.51 -1.54 2.16 0 0 0 -1.85 2.08 -117.4 35.08 13.29 139.52 1.61 -19.19 -24.7 0.38 -3.94 -10.92 0 0 0 6.61 7.83 -116.68 -34.93 -13.47 138.86 -1.62 4.25 -23.09 -1.76 -8.34 23.76 1.46 1.01 43.03 0.69 1.89 9.44 -0.82 0.82 -9.73 -0.21 1.68 -1.21 -0.55 2.29 -23.47 -0.27 1.2 -6.96 -0 0 0 -81.54 0.78 19.94 88.6 -59.99 -58.79 -0 0 -7.24 18.76 -28.33 -9.16 -7.12 0 -0 -6.89 0.52 6.88 -0 0 0 78.69 2.98 25.65 -83 59.81 -53.94 0 -0 -7.36 -13.41 -38.24 8.4 7.12 -0 -0 28.76 -66.87 -15.69
1.59 7.83 0.07 -4.09 -1.38 5.21 0 0 0 -1.23 1.71 -112.77 34.53 13.9 137.17 2.27 -19.87 -28.57 0.17 -2.63 -7.25 0 0 0 7.61 10.04 -111.84 -34.39 -14.04 136.61 -2.24 2.4 -27.67 -1.52 -7.79 22.07 1.55 1.1 42.79 1.01 2.08 9.2 -0.61 0.89 -9.94 -0.47 1.51 -2.08 -0.62 2.02 -24.46 -0.23 1.1 -7.13 -0 0 0 -81.36 -4.34 18.93 69.89 -58.42 -42.68 -0 0 -3.58 16.72 -30.33 -8.63 -7.12 0 -0 -8.29 -1.15 8.54 -0 0 0 77.24 8.87 26.02 -60.16 56.35 -34.47 0 -0 -5.69 -8.79 -37.89 5.43 7.12 -0 -0 33.24 -65.25 -17.12
1.53 8.88 0.44 -4.19 -1.47 6.78 0 0 0 -1.6 1.4 -103.63 32.98 15.35 131.06 3.08 -20.68 -32.86 0.14 -2.38 -6.56 0 0 0 9.84 11.03 -102.44 -32.88 -15.43 130.68 -3.04 2.77 -32.37 -1.04 -6.49 18.21 1.12 1.48 44.34 1.29 2.44 8.22 -0.27 1.02 -11.53 -0.74 1.37 -2.87 -0.72 1.8 -25.71 -0.21 1.03 -7.42 0 -0 0 -82.78 -6.21 18.18 59.53 -56.18 -33.95 -0 0 -5.48 17.35 -29.32 -8.7 -7.12 0 -0 -7.82 -0.24 7.93 0 -0 0 78.38 10.54 24.52 -48.49 52.37 -24.97 0 -0 -3.39 -10.45 -37.06 6.34 7.12 -0 -0 30.42 -65.03 -15.39
1.48 10.09 0.79 -3.83 -1.71 7.78 0 0 0 -2.63 0.26 -93.51 30.65 17.03 122.72 3.63 -20.6 -35.37 0.23 -3.1 -8.56 0 0 0 11.37 11.83 -92.14 -30.56 -17.08 122.4 -3.57 3.41 -35.02 -0.97 -6.27 17.56 0.14 2.05 45.76 1.56 2.75 7.39 0.34 1.16 -12.95 -1.09 1.3 -4 -0.7 1.71 -26.61 -0.14 1.02 -7.54 -0 -0 0 -84.68 -6.15 17.64 54.47 -54.65 -29.79 -0 0 -4.41 17.51 -29.85 -8.92 -7.12 0 -0 -7.78 -0.8 7.96 -0 -0 0 79.88 10.49 23.37 -42.59 49.53 -20.39 0 -0 -5.3 -10.57 -38.04 6.56 7.12 -0 -0 31.56 -65.87 -16.63
1.48 11.26 1.1 -3.33 -0.71 11.01 0 0 0 -3.99 -3.01 -87.53 27.7 18.51 113.07 3.66 -19.19 -35.28 0.31 -3.56 -9.84 0 0 0 12.04 11.16 -86.44 -27.7 -18.51 113.07 -3.56 3.53 -34.95 -0.7 -5.33 14.86 0.39 1.51 42.57 1.59 2.23 6.77 0.52 0.95 -12.74 -0.98 1.25 -5.23 -0.84 1.63 -26.6 -0.18 0.98 -7.32 -0 -0 0 -86.25 -5.31 17.71 50.32 -53.12 -26.43 -0 0 -2.59 16.5 -28.88 -8.14 -7.12 0 -0 -8.27 0.34 8.31 -0 -0 0 81.3 10.05 22.73 -38.13 46.92 -17.06 0 -0 -5.24 -9.48 -39.13 6.01 7.12 -0 -0 34.25 -66.44 -18.62
1.5 12.42 1.44 -3.09 -0.71 13.01 0 0 0 -5.88 -4.05 -80.5 24.26 19.56 102.56 3.51 -18.16 -34.41 0.44 -4.25 -11.77 0 0 0 13.31 10.55 -79.61 -24.34 -19.54 102.78 -3.37 4.11 -33.85 -0.48 -4.44 12.33 0.46 1.46 38.93 1.56 2.21 6.13 0.5 0.96 -12.28 -1.25 1.14 -6.24 -0.36 1.58 -25.92 0.03 0.94 -6.93 0 0 0 -87.27 -3.75 18.77 45.5 -51.01 -22.63 -0 0 -2.11 15.74 -27.07 -7.31 -7.12 0 -0 -8.56 2.28 8.31 0 0 0 82.77 8.71 22.07 -33.1 43.4 -13.49 0 -0 -3.85 -9.48 -37.46 5.8 7.12 -0 -0 31.96 -65.09 -16.28
1.53 13.56 1.82 -2.63 -0.55 13.23 0 0 0 -8.29 -4.42 -71.68 20.44 20 91.3 3.16 -17.93 -32.72 0.54 -4.71 -13.08 0 0 0 14.85 8.71 -71.13 -20.58 -19.99 91.71 -3.09 5.19 -32.18 -0.42 -4.15 11.49 0.17 1.41 35.69 1.61 2.04 5.44 0.81 0.91 -11.9 -1.35 1.1 -7.31 -0.13 1.59 -24.76 0.13 0.93 -6.37 -0 -0 0 -88.05 -1.53 20.14 40.72 -48.49 -18.98 -0 0 -2.1 13.83 -24.74 -5.88 -7.12 0 -0 -9.56 4.9 8.84 -0 -0 0 84.01 6.65 21.46 -29.15 40.15 -10.86 0 -0 -3.35 -9.29 -37.4 5.67 7.12 -0 -0 32.09 -64.99 -16.28
1.56 14.6 2.23 -2.1 -0.63 12.51 0 0 0 -10.87 -4.03 -62.22 16.48 19.7 79.66 2.82 -16.72 -30.8 0.84 -5.85 -16.35 0 0 0 16.25 6.5 -62.11 -16.71 -19.74 80.35 -2.7 6.12 -29.84 -0.36 -3.83 10.59 -0.25 1.5 32.12 1.52 2.01 4.81 0.99 0.93 -11.34 -1.6 0.88 -9.05 0.41 1.39 -22.13 0.37 0.81 -5.25 0 0 0 -88.71 0.97 21.29 37.18 -46.31 -16.37 -0 0 -1.27 11.21 -21.93 -4.23 -7.12 0 -0 -11.08 8 9.61 0 0 0 85.23 4.39 20.03 -26.08 37.29 -8.94 0 -0 -2.65 -8.87 -37.16 5.39 7.12 -0 -0 32.21 -64.67 -16.11
1.58 15.54 2.66 -1.83 -0.75 10.72 0 0 0 -13.09 -3 -51.63 12.53 18.6 67.65 2.41 -15.52 -28.42 1.05 -6.51 -18.28 0 0 0 17.64 4.21 -52.1 -12.85 -18.73 68.66 -2.27 6.52 -27.18 -0.33 -3.67 10.14 -0.42 1.54 28.82 1.38 2.01 4.45 1.06 0.96 -11.01 -1.5 0.73 -11.17 0.51 1.21 -17.65 0.42 0.69 -3.9 -0 -0 0 -89.48 3.5 21.5 34.88 -44.72 -14.73 -0 0 -0.59 8.88 -19.76 -3.02 -7.12 0 -0 -12.53 10.36 10.33 -0 -0 0 86.78 2.14 17.35 -24.19 35.36 -7.81 0 -0 -1.49 -9.51 -36.89 5.74 7.12 -0 -0 31.2 -64.63 -15.53
1.58 16.37 3.09 -1.7 -0.54 8.09 0 0 0 -14.66 -2.07 -40.14 8.77 16.66 55.28 1.92 -14.14 -25.33 0.97 -6.27 -17.56 0 0 0 18.89 2.41 -41 -9.17 -16.92 56.68 -1.82 5.5 -24.32 -0.45 -4.31 11.94 -0.85 1.41 26.22 1.51 1.76 3.79 1.57 0.88 -10.43 -1.23 0.87 -13.09 0.33 1.35 -12.79 0.34 0.74 -1.89 0 -0 0 -90.84 5.42 19.68 33.42 -43.65 -13.71 -0 0 -0.09 7.57 -18.56 -2.42 -7.12 0 -0 -13.39 11.64 10.71 0 -0 0 87.75 0.88 15.2 -22.58 33.63 -6.9 0 -0 -1.52 -8.23 -36.9 4.96 7.12 -0 -0 32.55 -64.28 -16.01
1.59 17 3.51 -1.65 -0.59 5.21 0 0 0 -15.88 -1.11 -28.68 5.63 14.06 43.48 1.53 -11.55 -22.41 1.16 -6.85 -19.26 0 0 0 19.87 0.8 -29.9 -6.06 -14.49 45.24 -1.42 3.62 -21.64 -0.53 -4.67 12.98 -0.95 1.36 23.79 1.57 1.69 3.22 1.75 0.86 -9.8 -1 0.82 -13.98 -0.15 1.24 -8.72 0.16 0.66 -0.44 -0 0 0 -92.22 6.88 17.2 32.54 -42.98 -13.11 -0 0 -0.26 7.46 -17.58 -2.26 -7.12 0 -0 -13.48 12.62 10.51 -0 0 0 88.7 0.05 12.86 -21.63 32.56 -6.39 0 -0 -2.27 -9.11 -37.27 5.54 7.12 -0 -0 32.1 -64.83 -16.17
1.62 17.46 3.92 -1.55 -1.2 3.31 0 0 0 -17.02 -0.62 -18.47 3.21 11.02 32.36 1.21 -7.9 -19.65 1.45 -7.61 -21.54 0 0 0 20.16 -0.1 -20.31 -3.63 -11.65 34.49 -1.05 2.45 -18.68 -0.76 -5.56 15.52 -0.8 1.37 19.88 1.49 1.75 2.45 1.61 0.89 -8.54 -0.85 0.87 -13.42 -0.54 1.27 -5.38 0.03 0.65 0.54 -0 -0 0 -93.08 7.92 15.06 31.45 -42.1 -12.37 -0 0 -0.85 7.3 -17.1 -2.16 -7.12 0 -0 -13.6 13.09 10.47 -0 -0 0 89.37 -0.55 11.3 -20.97 31.79 -6.03 0 -0 -2.47 -9.42 -36.8 5.68 7.12 -0 -0 31.18 -64.52 -15.44
1.62 17.75 4.28 -1.69 -1.76 2.41 0 0 0 -17.53 -0.75 -10.18 1.61 8 22.71 0.92 -4.12 -17.21 1.87 -8.6 -24.54 0 0 0 20.58 -0.3 -12.7 -2.01 -8.89 25.46 -0.8 1.24 -16.54 -1.28 -7.17 20.22 -0.74 1.34 15.64 1.58 1.77 1.36 1.72 0.9 -7.4 -0.69 0.97 -12.6 -0.95 1.4 -2.05 -0.11 0.68 1.49 -0 0 0 -93.36 8.51 13.45 30.43 -41.26 -11.69 -0 0 -1.01 6.97 -16.61 -2 -7.12 0 -0 -13.83 13.59 10.51 -0 0 0 89.59 -1.01 11.19 -20.76 31.55 -5.92 0 -0 -2.61 -9.56 -37.03 5.79 7.12 -0 -0 31.32 -64.75 -15.69
1.62 17.88 4.57 -2.03 -2.45 1.83 0 0 0 -17.57 -0.38 -4.22 0.79 5.66 15.81 0.72 -1.77 -15.5 1.97 -8.81 -25.21 0 0 0 21.15 0.18 -7.05 -1.16 -6.83 19.23 -0.64 -0.55 -15.34 -1.2 -6.96 19.59 -0.33 1.26 12.16 1.68 1.75 0.1 1.64 0.89 -6.79 -0.3 1.21 -12.12 -1.49 1.73 1.59 -0.33 0.8 2.63 0 0 0 -93.71 8.62 11.16 29.41 -40.38 -11.02 -0 0 -0.87 6.83 -16.12 -1.9 -7.12 0 -0 -13.94 14.08 10.45 0 0 0 89.7 -1.25 11.36 -20.76 31.55 -5.92 0 -0 -2.76 -9 -36.93 5.44 7.12 -0 -0 31.79 -64.52 -15.77
1.62 17.89 4.78 -1.9 -2.7 1.3 0 0 0 -17.71 0.67 -0.68 0.44 4.24 11.75 0.62 -1.63 -14.46 1.97 -8.8 -25.18 0 0 0 21.2 0.87 -4.02 -0.92 -6.1 17.09 -0.62 -1.82 -15.6 -1.15 -6.8 19.12 -0.44 1.17 9.97 1.73 1.62 -1 1.81 0.84 -6.71 -0.09 1.46 -12.53 -2.07 2.14 5.33 -0.52 0.95 4.04 0 -0 0 -94.31 7.78 8.62 27.78 -38.91 -9.99 -0 0 -1.12 7.77 -16.15 -2.17 -7.12 0 -0 -13.32 13.99 9.98 0 -0 0 89.81 -0.4 10.51 -20.06 30.71 -5.56 0 -0 -2.47 -9.78 -35.5 5.71 7.12 -0 -0 29.28 -63.52 -13.74
1.61 17.87 4.92 -1.78 -2.12 0.55 0 0 0 -17.85 1.01 1.01 0.38 3.94 10.9 0.63 -1.97 -14.5 2.02 -8.91 -25.51 0 0 0 21.28 1.18 -1.99 -0.86 -5.9 16.49 -0.63 -3.17 -16.52 -1.23 -7.03 19.79 -0.38 0.76 8.89 1.69 1.09 -1.68 1.83 0.58 -6.79 0.16 1.72 -13.22 -2.73 2.59 8.71 -0.67 1.1 4.81 0 -0 0 -95.04 6.26 5.46 25.24 -36.45 -8.43 -0 0 -0.85 9.33 -16.07 -2.6 -7.12 0 -0 -12.29 13.97 9.18 0 -0 0 90.3 1.52 8.47 -18.19 28.4 -4.64 0 -0 -1.75 -11.45 -34.95 6.62 7.12 -0 -0 26.9 -63.49 -12.52
1.6 17.85 5.05 -1.99 -1.77 -0.21 0 0 0 -17.59 1 2.33 0.38 3.98 11.01 0.67 -2.08 -14.9 2.09 -9.05 -25.94 0 0 0 21.8 1.35 -0.2 -0.82 -5.77 16.12 -0.62 -4.38 -17.11 -1.17 -6.86 19.3 -0.34 0.52 7.95 1.81 0.78 -1.97 1.98 0.43 -6.56 0.57 1.95 -14.4 -3.41 3.01 11.53 -0.9 1.22 5.91 -0 -0 0 -95.82 5.94 3.74 23.41 -34.54 -7.37 -0 -0 0.95 8.75 -14.58 -2.22 -7.12 0 -0 -12.72 15.47 9.09 -0 -0 0 90.92 2.89 5.22 -15.51 24.85 -3.44 0 -0 -1.39 -11.38 -35.08 6.6 7.12 -0 -0 27.12 -63.59 -12.69
1.58 17.83 5.17 -1.89 -1.4 -0.52 0 0 0 -17.63 1.07 3.29 0.36 3.86 10.67 0.68 -2.17 -15.04 2.2 -9.28 -26.66 0 0 0 21.77 0.9 0.36 -0.84 -5.83 16.31 -0.67 -4.42 -17.67 -1.17 -6.88 19.35 -0.59 0.44 6.88 1.71 0.63 -2.09 2.04 0.37 -6.07 0.73 2.03 -15.12 -3.54 3.17 13.01 -0.94 1.26 6.52 0 -0 0 -95.35 5.51 5.72 21.09 -31.94 -6.1 -0 -0 3.09 6.87 -14.29 -1.7 -7.12 0 -0 -13.99 15.86 9.94 0 -0 0 91.34 3.43 3.51 -13.29 21.71 -2.56 0 0 2.8 -10.56 -37.03 6.4 7.12 -0 -0 30.27 -65.03 -15.31
1.55 17.82 5.29 -1.65 -0.99 -0.35 0 0 0 -17.8 1.04 3.43 0.37 3.9 10.78 0.73 -2.36 -15.49 2.2 -9.27 -26.64 0 0 0 21.7 0.73 0.69 -0.83 -5.81 16.22 -0.69 -4.81 -18.17 -1.05 -6.51 18.28 -1.03 0.43 5.67 1.5 0.57 -2.27 2.08 0.35 -5.57 0.85 2.01 -15.59 -3.37 3.11 13.93 -0.91 1.24 6.89 -0 0 0 -95.73 6.69 7.06 21.45 -32.35 -6.29 -0 -0 4.76 5.45 -14.06 -1.33 -7.12 0 -0 -14.95 16.15 10.57 -0 0 0 91.97 2.93 1.77 -11.46 18.99 -1.92 0 0 8.19 -10.25 -36.06 6.08 7.12 -0 -0 29.42 -64.13 -14.22
1.53 17.82 5.4 -1.77 -0.46 -0.32 0 0 0 -17.61 0.87 3.87 0.36 3.84 10.63 0.74 -2.38 -15.64 2.27 -9.4 -27.05 0 0 0 21.97 0.63 1.21 -0.8 -5.72 15.98 -0.72 -5.17 -18.71 -1.08 -6.59 18.52 -0.89 0.58 5.01 1.34 0.78 -2.37 1.81 0.44 -5.3 0.55 1.66 -16.14 -2.91 2.66 14.73 -0.75 1.03 7.22 0 0 0 -96.1 6.88 7.43 20.67 -31.44 -5.88 -0 -0 4.08 6.24 -14.09 -1.52 -7.12 0 -0 -14.42 16.09 10.19 0 0 0 92.79 1.57 0.17 -10.7 17.83 -1.68 0 0 10.34 -9.65 -36.15 5.73 7.12 -0 -0 30.17 -64.04 -14.56
1.51 17.81 5.49 -1.94 -0.09 -0.27 0 0 0 -17.37 0.53 3.94 0.39 4.03 11.16 0.79 -2.39 -16.13 2.1 -9.07 -26.03 0 0 0 22.33 0.6 1.72 -0.78 -5.64 15.73 -0.71 -5.68 -19.02 -1.1 -6.66 18.71 -0.86 0.69 4.38 1.31 0.92 -2.29 1.75 0.51 -4.87 0.19 1.57 -16.4 -2.11 2.49 15.08 -0.45 1 7.36 0 0 0 -96.97 6.48 5.4 19.59 -30.14 -5.32 -0 -0 5.03 6.61 -14.31 -1.64 -7.12 0 -0 -14.16 15.85 10.07 0 0 0 93.37 0.65 -1.94 -9.91 16.61 -1.45 0 0 12.76 -9.68 -35.68 5.68 7.12 -0 -0 29.58 -63.65 -13.98
1.49 17.8 5.57 -1.82 0.27 -0.26 0 0 0 -17.49 0.45 4.11 0.41 4.1 11.37 0.81 -2.41 -16.36 2.16 -9.2 -26.41 0 0 0 22.27 0.43 1.98 -0.78 -5.64 15.73 -0.71 -5.99 -19.23 -1 -6.36 17.83 -1.01 0.72 3.89 1.19 0.95 -2.22 1.72 0.52 -4.51 0.29 1.55 -16.39 -2.1 2.43 15.38 -0.47 0.98 7.46 -0 0 0 -97.43 6.58 3.7 18.59 -28.9 -4.83 -0 -0 6.52 6.21 -14 -1.51 -7.12 0 -0 -14.45 16.17 10.19 -0 0 0 93.71 0.39 -4.54 -9.02 15.19 -1.2 0 0 16.42 -9.69 -36.43 5.79 7.12 -0 -0 30.46 -64.29 -14.89
1.49 17.79 5.64 -1.97 0.3 -0.14 0 0 0 -17.36 0.51 4.19 0.41 4.11 11.39 0.83 -2.24 -16.57 2.21 -9.3 -26.73 0 0 0 22.45 0.38 2.16 -0.77 -5.61 15.65 -0.73 -5.96 -19.44 -0.99 -6.34 17.79 -0.89 0.77 3.39 1.27 1.03 -2.24 1.73 0.56 -4.25 0.59 1.74 -15.76 -2.45 2.69 15.38 -0.6 1.09 7.36 -0 -0 0 -97.78 6.72 1.76 17.37 -27.35 -4.26 -0 -0 8.88 5.32 -14.17 -1.31 -7.12 0 -0 -15.04 16.06 10.67 -0 -0 0 93.58 0.3 -7.25 -8.46 14.3 -1.06 0 0 19.32 -8.92 -35.99 5.27 7.12 -0 -0 30.74 -63.71 -14.63
1.5 17.78 5.7 -1.85 0.08 -0.04 0 0 0 -17.54 0.62 4.4 0.4 4.04 11.19 0.82 -1.96 -16.51 2.27 -9.41 -27.1 0 0 0 22.31 0.57 2.24 -0.79 -5.66 15.8 -0.76 -5.9 -19.64 -0.95 -6.19 17.34 -0.97 0.83 3.16 1.3 1.11 -2.3 1.81 0.6 -4.18 0.75 2.04 -15.22 -2.73 3.12 15.44 -0.68 1.29 7.3 -0 -0 0 -97.82 7.14 0.6 16.78 -26.57 -3.99 -0 -0 10.09 4.85 -13.6 -1.14 -7.12 0 -0 -15.38 16.62 10.74 -0 -0 0 93.27 0.34 -6.83 -8.48 14.32 -1.07 0 0 19.17 -9.45 -36.29 5.63 7.12 -0 -0 30.54 -64.11 -14.8
1.51 17.78 5.73 -1.93 -0.35 -0.01 0 0 0 -17.53 0.68 4.49 0.4 4.08 11.31 0.82 -1.62 -16.66 2.18 -9.23 -26.52 0 0 0 22.37 0.76 2.4 -0.78 -5.64 15.74 -0.75 -5.89 -19.58 -0.87 -5.95 16.63 -0.82 0.88 2.97 1.41 1.19 -2.3 1.84 0.64 -4.08 1.01 2.36 -14.94 -3.27 3.61 15.88 -0.85 1.48 7.42 0 0 0 -97.64 7.33 -0.31 16.4 -26.07 -3.82 -0 -0 10.81 4.77 -12.6 -1.04 -7.12 0 -0 -15.51 17.6 10.48 0 0 0 92.85 0.59 -4.36 -8.91 15.02 -1.18 0 0 16.65 -10.11 -36.59 6.07 7.12 -0 -0 30.21 -64.54 -14.93
1.53 17.77 5.76 -1.84 -0.51 -0.05 0 0 0 -17.7 0.82 4.73 0.39 4.03 11.15 0.82 -1.53 -16.7 2.19 -9.25 -26.58 0 0 0 22.21 0.76 2.5 -0.79 -5.68 15.86 -0.77 -5.77 -19.65 -0.89 -6.02 16.84 -0.9 0.88 2.93 1.49 1.19 -2.27 1.97 0.64 -4.03 1.19 2.64 -15.04 -3.39 4.01 16.66 -0.87 1.66 7.71 -0 0 0 -97.15 7.43 0.02 16.36 -26.01 -3.8 -0 -0 10.52 4.9 -12.84 -1.09 -7.12 0 -0 -15.4 17.36 10.49 -0 0 0 92.4 1.04 -2.06 -9.45 15.87 -1.32 0 0 14.23 -9.78 -36.57 5.87 7.12 -0 -0 30.52 -64.43 -15.02
1.55 17.77 5.77 -1.69 -0.36 -0.1 0 0 0 -17.89 0.92 4.84 0.38 3.97 11 0.82 -1.7 -16.6 2.21 -9.3 -26.73 0 0 0 21.99 0.61 2.5 -0.8 -5.7 15.93 -0.76 -5.87 -19.66 -0.86 -5.93 16.57 -1.04 0.77 2.94 1.55 1.04 -2.27 2.12 0.57 -4.03 1.62 2.84 -14.53 -3.93 4.3 16.74 -1.09 1.78 7.68 -0 -0 0 -96.47 7.25 1.31 16.57 -26.29 -3.9 -0 -0 8.96 5.35 -13.26 -1.23 -7.12 0 -0 -15.07 16.94 10.39 -0 -0 0 92.12 1.46 0.16 -10.02 16.77 -1.48 0 0 12.02 -9.9 -36.18 5.88 7.12 -0 -0 29.94 -64.14 -14.5
1.56 17.77 5.76 -1.57 -0.38 -0.07 0 0 0 -18.08 0.94 4.8 0.38 3.95 10.94 0.81 -1.73 -16.55 2.22 -9.32 -26.79 0 0 0 21.86 0.97 2.54 -0.81 -5.73 16 -0.76 -6.09 -19.79 -0.89 -6.03 16.86 -1.09 0.86 3.11 1.56 1.15 -2.35 2.14 0.63 -4.22 1.36 2.72 -14.49 -3.72 4.17 17.23 -0.99 1.72 7.82 0 0 0 -96.06 7.09 2.26 17.41 -27.39 -4.27 -0 -0 7.92 5.6 -13.31 -1.29 -7.12 0 -0 -14.9 16.88 10.29 0 0 0 92.05 1.69 1.64 -10.56 17.6 -1.64 0 0 10.2 -9.94 -36.09 5.89 7.12 -0 -0 29.79 -64.07 -14.38
1.58 17.78 5.74 -1.63 -0.16 -0.02 0 0 0 -18.04 0.92 4.59 0.39 4 11.07 0.82 -2.03 -16.53 2.24 -9.35 -26.88 0 0 0 21.89 0.9 2.34 -0.81 -5.75 16.07 -0.74 -6.33 -19.75 -0.8 -5.7 15.91 -0.91 0.89 3.29 1.54 1.21 -2.41 2.01 0.65 -4.38 1.32 2.7 -14.59 -3.47 4.13 17.73 -0.91 1.71 8 0 0 0 -95.79 6.73 3.22 18.35 -28.61 -4.72 -0 -0 6.16 6.24 -13.44 -1.45 -7.12 0 -0 -14.46 16.73 10.02 0 0 0 92.07 1.87 3.12 -10.84 18.04 -1.73 0 0 9.11 -10.07 -36.04 5.96 7.12 -0 -0 29.6 -64.06 -14.28
1.6 17.78 5.72 -1.68 0.04 -0.09 0 0 0 -18 0.96 4.42 0.4 4.08 11.29 0.84 -2.35 -16.64 2.26 -9.4 -27.04 0 0 0 21.9 0.89 2.35 -0.82 -5.76 16.09 -0.71 -6.55 -19.63 -0.8 -5.71 15.95 -0.81 0.91 3.48 1.55 1.23 -2.34 1.97 0.66 -4.42 1.63 2.69 -14.45 -3.84 4.12 17.71 -1.09 1.69 7.98 -0 -0 0 -95.56 6.59 4.89 19.33 -29.83 -5.19 -0 -0 4.32 6.63 -13.85 -1.59 -7.12 0 -0 -14.17 16.31 9.93 -0 -0 0 92.19 2.03 3.79 -10.82 18.01 -1.72 0 0 9.03 -10.03 -35.82 5.91 7.12 -0 -0 29.38 -63.87 -14.02
1.62 17.78 5.7 -1.83 0.32 -0.03 0 0 0 -17.9 0.67 4.09 0.43 4.2 11.65 0.85 -2.65 -16.73 2.13 -9.14 -26.24 0 0 0 21.94 0.59 2.24 -0.79 -5.66 15.81 -0.71 -6.47 -19.58 -0.88 -5.98 16.72 -0.62 0.92 3.68 1.65 1.27 -2.37 1.95 0.68 -4.56 1.37 2.67 -14.28 -3.65 4.11 17.67 -0.98 1.7 7.93 0 0 0 -95.7 6.51 6.2 20.01 -30.66 -5.54 -0 -0 3.51 6.69 -13.95 -1.62 -7.12 0 -0 -14.13 16.2 9.94 0 0 0 92.26 1.97 3.67 -10.71 17.85 -1.69 0 0 9.4 -9.88 -35.67 5.8 7.12 -0 -0 29.37 -63.7 -13.91
1.64 17.79 5.67 -1.64 0.62 0.1 0 0 0 -18.16 0.5 3.91 0.42 4.16 11.52 0.83 -2.83 -16.51 2.19 -9.25 -26.6 0 0 0 21.66 0.65 2.01 -0.79 -5.69 15.88 -0.73 -6.49 -19.77 -0.95 -6.2 17.38 -0.85 0.92 3.87 1.6 1.25 -2.42 2.04 0.68 -4.73 1.63 2.7 -14.11 -3.88 4.14 17.67 -1.1 1.7 7.91 -0 0 0 -95.73 6.66 7.27 20.14 -30.81 -5.6 -0 -0 3 6.71 -14.25 -1.66 -7.12 0 -0 -14.1 15.91 10.01 -0 0 0 92.45 1.67 3.49 -10.54 17.58 -1.63 0 0 9.79 -9.85 -35.98 5.83 7.12 -0 -0 29.75 -63.95 -14.28
1.67 17.79 5.64 -1.69 0.65 0.12 0 0 0 -18.2 0.48 3.57 0.44 4.26 11.82 0.84 -2.94 -16.54 2.21 -9.3 -26.74 0 0 0 21.55 0.41 1.64 -0.81 -5.73 16.01 -0.72 -6.27 -19.54 -0.95 -6.2 17.36 -0.75 0.93 4.27 1.77 1.28 -2.4 2.14 0.69 -4.94 0.8 2.53 -13.89 -3.38 3.98 17.34 -0.82 1.63 7.72 0 0 0 -96.21 6.57 6.8 19.59 -30.15 -5.33 -0 -0 3.69 6.6 -14.43 -1.65 -7.12 0 -0 -14.17 15.74 10.11 0 0 0 92.48 1.81 1.8 -10.03 16.78 -1.48 0 0 11.93 -9.55 -36.11 5.66 7.12 -0 -0 30.22 -63.98 -14.55
