HIERARCHY
ROOT Hips
{
	OFFSET 0.00000 0.00000 0.00000
	CHANNELS 6 Xposition Yposition Zposition Zrotation Yrotation Xrotation 
	JOINT LHipJoint
	{
		OFFSET 0 0 0
		CHANNELS 3 Zrotation Yrotation Xrotation
		JOINT LeftUpLeg
		{
			OFFSET 1.09156 -1.61406 0.76500
			CHANNELS 3 Zrotation Yrotation Xrotation
			JOINT LeftLeg
			{
				OFFSET 2.33750 -6.42225 0.00000
				CHANNELS 3 Zrotation Yrotation Xrotation
				JOINT LeftFoot
				{
					OFFSET 2.49247 -6.84800 0.00000
					CHANNELS 3 Zrotation Yrotation Xrotation
					JOINT LeftToeBase
					{
						OFFSET 0.15312 -0.42069 1.45461
						CHANNELS 3 Zrotation Yrotation Xrotation
						End Site
						{
							OFFSET 0.00000 -0.00000 0.77046
						}
					}
				}
			}
		}
	}
	JOINT RHipJoint
	{
		OFFSET 0 0 0
		CHANNELS 3 Zrotation Yrotation Xrotation
		JOINT RightUpLeg
		{
			OFFSET -0.99883 -1.61406 0.76500
			CHANNELS 3 Zrotation Yrotation Xrotation
			JOINT RightLeg
			{
				OFFSET -2.36877 -6.50815 0.00000
				CHANNELS 3 Zrotation Yrotation Xrotation
				JOINT RightFoot
				{
					OFFSET -2.53452 -6.96353 0.00000
					CHANNELS 3 Zrotation Yrotation Xrotation
					JOINT RightToeBase
					{
						OFFSET -0.13156 -0.36145 1.63237
						CHANNELS 3 Zrotation Yrotation Xrotation
						End Site
						{
							OFFSET -0.00000 -0.00000 0.84979
						}
					}
				}
			}
		}
	}
	JOINT LowerBack
	{
		OFFSET 0 0 0
		CHANNELS 3 Zrotation Yrotation Xrotation
		JOINT Spine
		{
			OFFSET -0.02431 1.98242 -0.13616
			CHANNELS 3 Zrotation Yrotation Xrotation
			JOINT Spine1
			{
				OFFSET 0.03629 1.98974 -0.02954
				CHANNELS 3 Zrotation Yrotation Xrotation
				JOINT Neck
				{
					OFFSET 0 0 0
					CHANNELS 3 Zrotation Yrotation Xrotation
					JOINT Neck1
					{
						OFFSET 0.09349 1.40783 0.22333
						CHANNELS 3 Zrotation Yrotation Xrotation
						JOINT Head
						{
							OFFSET -0.04273 1.44500 -0.06495
							CHANNELS 3 Zrotation Yrotation Xrotation
							End Site
							{
								OFFSET -0.02251 1.44600 -0.04544
							}
						}
					}
				}
				JOINT LeftShoulder
				{
					OFFSET 0 0 0
					CHANNELS 3 Zrotation Yrotation Xrotation
					JOINT LeftArm
					{
						OFFSET 3.49137 0.85126 -0.29740
						CHANNELS 3 Zrotation Yrotation Xrotation
						JOINT LeftForeArm
						{
							OFFSET 5.06035 -0.00000 0.00000
							CHANNELS 3 Zrotation Yrotation Xrotation
							JOINT LeftHand
							{
								OFFSET 3.14780 -0.00000 0.00000
								CHANNELS 3 Zrotation Yrotation Xrotation
								JOINT LeftFingerBase
								{
									OFFSET 0 0 0
									CHANNELS 3 Zrotation Yrotation Xrotation
									JOINT LeftHandIndex1
									{
										OFFSET 0.60675 -0.00000 0.00000
										CHANNELS 3 Zrotation Yrotation Xrotation
										End Site
										{
											OFFSET 0.48918 -0.00000 0.00000
										}
									}
								}
								JOINT LThumb
								{
									OFFSET 0 0 0
									CHANNELS 3 Zrotation Yrotation Xrotation
									End Site
									{
										OFFSET 0.49664 -0.00000 0.49664
									}
								}
							}
						}
					}
				}
				JOINT RightShoulder
				{
					OFFSET 0 0 0
					CHANNELS 3 Zrotation Yrotation Xrotation
					JOINT RightArm
					{
						OFFSET -3.28101 0.69707 0.00747
						CHANNELS 3 Zrotation Yrotation Xrotation
						JOINT RightForeArm
						{
							OFFSET -5.12273 -0.00000 -0.00000
							CHANNELS 3 Zrotation Yrotation Xrotation
							JOINT RightHand
							{
								OFFSET -3.42200 -0.00000 0.00000
								CHANNELS 3 Zrotation Yrotation Xrotation
								JOINT RightFingerBase
								{
									OFFSET 0 0 0
									CHANNELS 3 Zrotation Yrotation Xrotation
									JOINT RightHandIndex1
									{
										OFFSET -0.70460 -0.00000 0.00000
										CHANNELS 3 Zrotation Yrotation Xrotation
										End Site
										{
											OFFSET -0.56807 -0.00000 0.00000
										}
									}
								}
								JOINT RThumb
								{
									OFFSET 0 0 0
									CHANNELS 3 Zrotation Yrotation Xrotation
									End Site
									{
										OFFSET -0.57674 -0.00000 0.57674
									}
								}
							}
						}
					}
				}
			}
		}
	}
}
MOTION
Frames: 100
Frame Time: 0.0333332
-28.49 15.78 -2.01 39.36 84.85 45.86 0 0 0 -23.07 -9.75 -20.94 3.74 11.81 35.06 1.19 -11.32 -19.91 1.19 6.93 19.51 0 0 0 15.65 6.28 -13.55 -12.4 -18.56 67.26 0.17 7.73 0.28 -0.23 -3.06 8.44 -6.52 -0.43 -4.26 -1.63 -0.24 -1.43 1.96 -0.1 0.93 4.4 0.43 -8.89 -0.24 0.08 4.13 -0.84 0.11 2.89 0 0 0 -89.03 -5.53 -16.69 5.27 -9.03 -0.42 -0 -0 26.34 17.75 36.47 10.78 -7.12 0 -0 -21.62 66.6 -11.48 0 0 0 93.92 6.94 -125.31 0.26 -0.45 -0 0 0 152.06 -31.66 36.79 -20.27 7.12 -0 -0 1.19 11.32 1.4
-27.71 15.78 -2.04 53.38 85.1 58.15 0 0 0 -25.02 -9.66 -14.8 3.5 11.46 33.86 1.77 -7.63 -23.83 0.15 -2.5 -6.88 0 0 0 14.85 6.42 -18.88 -12.5 -18.6 67.58 -0.12 8.79 -8.18 -0.22 -3.05 8.42 -7.27 -1.16 -2.5 -1.22 -1.33 -0.93 2.78 -0.65 0.59 4.03 0.7 -9.02 -0.47 0.5 4.28 -0.83 0.31 2.98 0 -0 0 -90.23 -9.1 4.75 8.3 -14.04 -1.02 -0 -0 6.85 17.81 38.42 11.29 -7.12 0 -0 -24.03 68.36 -13.77 0 -0 0 92.11 4.97 -123.85 -1.56 2.69 -0.04 0 0 150.98 -29.31 37.27 -18.78 7.12 -0 -0 2.53 11.1 2.98
-26.91 15.72 -2.08 67.7 84.99 72.81 0 0 0 -26.76 -10.12 -11.28 3.46 11.4 33.64 2.07 -6.12 -25.95 0.19 -2.81 -7.74 0 0 0 13.52 7.13 -25.74 -11.58 -18.21 64.66 -0.52 9.02 -13.43 -0.12 -2.21 6.09 -7.62 -1.86 -2.95 -1.12 -2.21 -0.83 3.02 -1.1 1.05 4.33 0.81 -8.98 -0.99 0.64 3.96 -1.05 0.36 2.87 -0 -0 0 -90.19 -12.56 17.44 11.95 -19.73 -2.08 -0 0 -3.91 17.03 38.15 10.71 -7.12 0 -0 -24.56 67.88 -13.83 -0 -0 0 90.74 2.03 -122.95 -1.96 3.4 -0.06 0 0 149.66 -28.32 36.75 -17.87 7.12 -0 -0 2.93 10.28 3.41
-26.14 15.67 -2.08 87.58 85.01 92.74 0 0 0 -27.5 -8.69 -7.77 3.22 11.04 32.4 2.34 -7.21 -27.57 0.22 -3.03 -8.35 0 0 0 12.89 7.08 -31.05 -9.53 -17.14 57.91 -0.86 8.23 -16.64 -0.08 -1.87 5.15 -8.07 -2.69 -2.22 -0.87 -3.38 -0.76 3.51 -1.68 0.87 4.37 1 -8.96 -1.02 0.9 3.35 -1.05 0.48 2.67 0 0 0 -89.72 -16.67 24.38 15.17 -24.39 -3.3 -0 0 -9.11 16.62 37.26 10.24 -7.12 0 -0 -23.88 66.97 -12.94 0 0 0 89.59 -0.8 -122.09 -2.16 3.74 -0.07 0 0 148.06 -28.22 36.43 -17.68 7.12 -0 -0 2.91 9.93 3.37
-25.31 15.65 -2.06 97.82 84.26 102.37 0 0 0 -28.42 -5.9 -2.67 2.57 9.97 28.88 2.3 -9.21 -27.24 0.01 -0.73 -2.01 0 0 0 11.98 7.06 -33.32 -6.49 -14.89 46.93 -0.83 6.31 -16.25 -0.12 -2.24 6.17 -8.51 -3.2 -1.93 -1.1 -4.02 -0.01 3.46 -2.05 1.57 4.58 0.93 -8.74 -0.57 0.79 2.08 -0.94 0.43 2.19 0 0 0 -89.2 -21.89 27.14 17.32 -27.28 -4.23 -0 0 -9.22 16.18 36.46 9.78 -7.12 0 -0 -23.41 66.13 -12.22 0 0 0 89.04 -3.17 -121.5 -2.11 3.65 -0.07 0 0 144.35 -28.92 36.34 -18.12 7.12 -0 -0 2.52 10.03 2.93
-24.41 15.66 -2.07 82.87 85.39 87 0 0 0 -27.4 -2.17 2.96 1.74 8.3 23.63 2.12 -10.91 -26.19 0.01 -0.66 -1.83 0 0 0 13.01 9.54 -33.06 -3.37 -11.27 33.21 -0.51 2.69 -12.8 -0 -0.45 1.24 -6.94 -2.89 -2.61 -0.86 -3.58 0.56 2.82 -1.86 2.41 4.29 1.05 -9.2 -0.16 0.93 2.78 -0.75 0.52 2.51 0 0 0 -88.4 -26.27 29.54 19.05 -29.48 -5.06 -0 0 -9.4 15.16 36.11 9.07 -7.12 0 -0 -24.16 65.53 -12.3 0 0 0 88.43 -5.9 -120.96 -1.94 3.35 -0.06 0 0 139.97 -30.39 34.86 -18.53 7.12 -0 -0 1.41 8.93 1.61
-23.55 15.63 -2.06 103.9 83.74 108.58 0 0 0 -28.11 -0.04 9.24 0.81 5.73 16.01 1.51 -13.37 -22.57 0.07 -1.66 -4.56 0 0 0 9.62 10.85 -33.53 -1.56 -7.88 22.34 -0.26 -2.21 -10.63 -0 -0.32 0.88 -8.22 -3.83 -3.47 -1.01 -4.66 0.84 3.22 -2.45 3.39 4.14 0.91 -9.17 0.32 0.76 2 -0.58 0.44 2.23 0 0 0 -88.13 -30.12 30.72 20.47 -31.21 -5.78 -0 0 -9.23 15.44 36.11 9.24 -7.12 0 -0 -23.84 65.61 -12.18 0 0 0 87.68 -7.77 -120.63 -1.94 3.36 -0.06 0 0 136.96 -33.4 32.74 -19.62 7.12 -0 -0 -0.7 7.62 -0.79
-22.66 15.58 -2.01 118.65 82.99 123.52 0 0 0 -26.68 2.39 16.2 0.17 2.68 7.38 0.75 -15.36 -17.56 0.15 -2.49 -6.85 0 0 0 7.01 14.06 -32.69 -0.8 -5.72 15.97 0.02 -9.47 -13.11 -0.24 -3.17 8.75 -8.67 -4.7 -3.77 -0.41 -5.8 1.01 3.95 -3.06 3.98 3.86 0.86 -8.96 0.38 0.76 0.97 -0.51 0.43 1.85 -0 -0 0 -88.4 -32.87 30.76 21.34 -32.22 -6.23 -0 0 -9.11 15.72 35.32 9.24 -7.12 0 -0 -22.64 64.98 -11.21 -0 -0 0 86.22 -8.54 -119.94 -2.5 4.32 -0.09 0 0 135.16 -30.77 38.45 -20.32 7.12 -0 -0 2.06 12.73 2.46
-21.75 15.49 -1.95 128.06 82.08 132.72 0 0 0 -25.61 2.71 20.6 0.1 2 5.51 -0.01 -17.87 -12.44 0.27 -3.31 -9.15 0 0 0 7.33 12.72 -32.67 -0.73 -5.47 15.27 -0.04 -9.38 -14.1 -0.09 -1.91 5.26 -8.9 -5.29 -3.37 -0.05 -6.63 1.1 4.39 -3.5 4.05 3.48 0.85 -9.55 1.28 0.71 1.62 -0.16 0.44 2.16 0 -0 0 -88.57 -34.34 30.81 21.68 -32.62 -6.41 -0 0 -9.25 16.39 35.24 9.63 -7.12 0 -0 -21.8 65.09 -10.82 0 -0 0 85.28 -8.76 -119.62 -3.55 6.12 -0.19 0 0 134.5 -28.24 37.16 -17.97 7.12 -0 -0 3.07 10.68 3.58
-20.79 15.44 -1.91 131.85 83.14 135.94 0 0 0 -23.78 3.85 21.48 0.32 3.66 10.11 -0.68 -19.17 -6.52 0.01 -0.7 -1.94 0 0 0 10.37 10.72 -33.55 -1.3 -7.22 20.37 -0.12 -3.03 -8.37 -0 -0.4 1.1 -7.45 -5.06 -3.57 0.3 -6.38 1.54 3.94 -3.37 4.45 3.27 0.79 -9.89 2.15 0.61 1.75 0.16 0.42 2.26 0 0 0 -88.61 -34.42 31 21.67 -32.6 -6.41 -0 0 -9.51 16.29 35.06 9.53 -7.12 0 -0 -21.73 64.9 -10.69 0 0 0 85.02 -9.02 -119.82 -3.68 6.34 -0.2 0 0 134.81 -26.37 36.5 -16.43 7.12 -0 -0 3.9 9.49 4.5
-19.8 15.44 -1.85 136.3 83.77 140.13 0 0 0 -22.81 3.7 18.98 1.18 6.9 19.42 -1.02 -17.56 5.27 0.54 4.72 13.12 0 0 0 11.73 10.43 -34.72 -2.51 -9.86 28.52 -0.1 1.94 -5.69 -0 -0.38 1.04 -6.22 -5 -3.29 0.55 -6.41 1.11 3.57 -3.33 3.73 3.75 0.91 -9.67 2.11 0.69 2.63 0.06 0.48 2.52 -0 0 0 -88.82 -31.82 30.47 21.2 -32.06 -6.16 -0 0 -9.7 17.05 34.92 9.96 -7.12 0 -0 -20.71 64.98 -10.21 -0 0 0 84.22 -7.06 -122.57 -5.65 9.68 -0.48 0 0 137.8 -24.64 35.83 -15.03 7.12 -0 -0 4.69 8.37 5.34
-18.85 15.49 -1.79 162.79 85.35 166.31 0 0 0 -19.51 2.92 13.22 3.35 11.24 33.09 -0.67 -16.34 14.59 0.88 5.97 16.68 0 0 0 15.99 9.65 -33.48 -3.28 -11.14 32.75 -0.1 2.8 -5.74 -0.04 1.28 -3.52 -3.64 -5.11 -2.89 1.87 -6.72 0.94 3.55 -3.44 3.23 4.09 1.38 -9.02 1.66 1.33 2.64 -0.11 0.78 2.42 -0 0 0 -89.39 -28.53 28.94 20.46 -31.19 -5.77 -0 0 -9.96 15.79 35.33 9.29 -7.12 0 -0 -22.58 65.01 -11.19 -0 0 0 83.59 -6.1 -119.07 -5.32 9.12 -0.42 0 0 135.29 -24.16 35.87 -14.73 7.12 -0 -0 4.96 8.29 5.64
-17.91 15.59 -1.71 173.12 85.16 175.94 0 0 0 -18.61 1.67 8.01 5.89 14.32 44.56 0.19 -13.45 21.19 0.39 4.02 11.13 0 0 0 18.47 7.69 -30.79 -3.85 -11.96 35.58 -0.27 2.34 -9.33 -0.08 1.82 -5.02 -2.92 -4.62 -2.9 1.94 -6.1 1.22 3.25 -3.12 3.4 3.77 0.92 -8.98 2.57 0.69 3.15 0.21 0.5 2.57 -0 -0 0 -90.05 -26.25 29.58 18.26 -28.49 -4.67 -0 0 -9.43 15.39 35.8 9.15 -7.12 0 -0 -23.54 65.32 -11.86 -0 -0 0 85.57 -6.98 -95.54 -3.84 6.62 -0.22 0 0 110.95 -24.1 35.12 -14.43 7.12 -0 -0 4.85 7.51 5.46
-17.02 15.69 -1.63 199.77 85.2 201.5 0 0 0 -15.88 1.46 2.7 8.52 16.49 54.42 0.17 -7.12 13.43 0.75 5.53 15.44 0 0 0 22.26 6.87 -25.64 -3.78 -11.86 35.22 -0.46 1.07 -12.49 -0.19 2.83 -7.82 -0.76 -3.83 -2.28 2.28 -5.13 1.5 2.5 -2.59 3.1 3.79 0.61 -8.53 2.77 0.29 3.1 0.25 0.31 2.46 0 0 0 -90.48 -23.23 29.17 15.92 -25.41 -3.61 -0 0 -6.94 14.52 37.02 8.86 -7.12 0 -0 -25.95 66.14 -13.63 0 0 0 86.95 -5.47 -71.98 -3.64 6.28 -0.2 0 0 88.06 -23.66 34.8 -14.04 7.12 -0 -0 5.03 7.09 5.64
-16.17 15.8 -1.59 210.86 84.77 212.29 0 0 0 -14.89 -0.5 -3.18 10.28 17.56 60.41 -0.05 -4.79 4.55 1.3 7.24 20.42 0 0 0 24.43 5.07 -20.97 -3.41 -11.33 33.41 -0.66 0.36 -15.23 -0.18 2.75 -7.58 0.69 -3.35 -2.17 2.19 -4.52 1.33 1.66 -2.26 2.7 4.15 0.59 -7.31 2.47 0.33 2.68 0.09 0.3 2.1 0 0 0 -91.03 -19.23 24.64 13.17 -21.54 -2.52 -0 0 -1.6 15.99 36.76 9.73 -7.12 0 -0 -23.98 66.35 -12.65 0 0 0 88.13 -3.27 -47.83 -3.92 6.75 -0.23 0 0 66.41 -23.14 35.09 -13.8 7.12 -0 -0 5.37 7.25 6.03
-15.38 15.87 -1.51 218.25 84.93 219.91 0 0 0 -14.19 -2.08 -10.33 11 17.93 62.77 -0.24 -12.02 -4.43 0.8 5.71 15.96 0 0 0 25.9 5.8 -16.98 -3.21 -11.03 32.38 -0.78 -1.31 -17.21 -0.15 2.51 -6.91 0.35 -2.83 -2.08 2.43 -3.81 1.14 2.14 -1.91 2.48 4.45 0.68 -8.77 1.48 0.34 3.7 -0.28 0.31 2.72 -0 0 0 -91.74 -15.54 17.05 10.21 -17.08 -1.54 -0 -0 4.57 17.92 37.48 11.13 -7.12 0 -0 -22.64 67.55 -12.54 -0 0 0 88.56 0.07 -23.36 -4.73 8.13 -0.34 0 0 44.41 -23.48 33.95 -13.64 7.12 -0 -0 4.98 6.17 5.51
-14.55 15.87 -1.47 226.36 86.16 227.9 0 0 0 -14.78 -2.52 -16.46 10.73 17.8 61.89 0.11 -16.66 -12.77 0.14 2.4 6.61 0 0 0 26.41 6.46 -12.89 -3.2 -11.02 32.34 -1.02 -2.33 -20.03 -0.09 1.98 -5.45 0.09 -1.98 -2.48 1.9 -2.68 1.22 1.77 -1.35 2.73 4.4 0.48 -9.28 1.63 0.04 4.13 -0.24 0.17 2.96 0 0 0 -91.54 -12.31 3.28 6.96 -11.85 -0.72 -0 -0 15.24 17.22 36.51 10.45 -7.12 0 -0 -22.27 66.48 -11.78 0 0 0 89.29 2.58 0.3 -6.52 11.13 -0.64 0 0 23.3 -24.77 33.83 -14.41 7.12 -0 -0 4.25 6.36 4.71
-13.75 15.79 -1.43 218.54 85.92 219.87 0 0 0 -15.21 -4.05 -22.32 9.8 17.3 58.82 0.64 -18.55 -18.15 0.11 2.12 5.85 0 0 0 27.24 6.44 -8.74 -3.18 -10.98 32.22 -1.18 -4.65 -22.7 -0.11 2.13 -5.86 -0.13 -1.77 -2.38 1.4 -2.38 1.27 1.4 -1.2 2.7 4.7 0.49 -9.75 1.45 -0 4.03 -0.35 0.15 3.01 -0 -0 0 -90.53 -9.16 -16.8 4.34 -7.47 -0.28 -0 -0 31.92 17.42 37.32 10.77 -7.12 0 -0 -23.03 67.26 -12.61 -0 -0 0 89.57 4.3 15.49 -9.65 16.2 -1.38 0 0 9.18 -24.41 34.39 -14.38 7.12 -0 -0 4.55 6.85 5.08
-12.95 15.79 -1.41 258.68 86.97 260.89 0 0 0 -14.97 -3.62 -28.58 8.01 16.13 52.61 0.88 -17.52 -19.45 0.32 3.62 10.01 0 0 0 28.18 7.16 -4.58 -2.68 -10.15 29.48 -1.37 -4.11 -23.96 -0.07 1.76 -4.84 0.9 -0.6 -2.83 0.91 -0.85 0.99 0.39 -0.42 2.6 4.72 0.46 -9.93 1.47 -0.05 3.73 -0.35 0.13 2.94 -0 0 0 -88.75 -5.66 -35.32 2.94 -5.08 -0.13 -0 -0 47.75 17.86 39.63 11.62 -7.12 0 -0 -25.72 69.43 -15.4 -0 0 0 89.93 7.21 23.29 -12.73 20.89 -2.36 0 0 2.7 -23.89 34.21 -13.98 7.12 -0 -0 4.8 6.53 5.34
-12.11 15.81 -1.41 264.14 86.27 266.44 0 0 0 -14.27 -5.05 -31.82 5.65 14.08 43.57 0.86 -14.3 -18.07 0.27 3.37 9.31 0 0 0 29.32 4.73 1.36 -1.71 -8.23 23.43 -1.4 -3.44 -23.85 -0.05 1.44 -3.95 1.8 -0.3 -3.03 0.94 -0.5 1.19 -0.07 -0.22 2.91 4.16 0.48 -10.25 1.45 0.05 3.38 -0.25 0.16 2.88 -0 -0 0 -87.52 -2.27 -54.01 2.63 -4.54 -0.1 -0 -0 64.39 18.69 42.54 12.89 -7.12 0 -0 -29.83 72.14 -19.75 -0 -0 0 89.34 10.48 28.13 -15.57 24.93 -3.46 0 -0 -1.39 -23.87 35.53 -14.42 7.12 -0 -0 5.05 7.87 5.72
-11.29 15.83 -1.43 293.85 84.88 297.22 0 0 0 -12.38 -6.68 -34.85 3.5 11.46 33.85 0.54 -8.29 -13.5 0.3 3.54 9.78 0 0 0 29.62 2.67 6.94 -0.77 -5.59 15.59 -1.27 -0.99 -21.69 -0.07 1.7 -4.69 3.31 0.76 -3.85 0.76 0.83 1.03 -1.02 0.47 3.26 4.4 0.55 -10.34 1.07 0.14 2.85 -0.41 0.19 2.72 0 0 0 -86.33 1.68 -72.72 3.4 -5.86 -0.17 -0 -0 81.11 17.35 41.12 11.61 -7.12 0 -0 -28.74 70.52 -17.99 0 0 0 89.1 13.75 31.3 -18.4 28.66 -4.74 0 -0 -3.72 -24.62 35.45 -14.88 7.12 -0 -0 4.63 7.97 5.25
-10.46 15.82 -1.44 303.74 83.4 307.76 0 0 0 -8.74 -11.12 -36.09 2.16 9.2 26.42 0.36 -1.87 -10.88 0.04 -1.25 -3.43 0 0 0 29.41 -0.5 16.84 0 -0 0 -0.65 1.1 -14.88 -0.11 2.18 -6 4.01 1.55 -4.33 0.86 1.82 0.99 -1.23 0.99 3.55 4.57 0.63 -10.4 0.67 0.25 2.57 -0.57 0.22 2.64 -0 -0 0 -86.2 6.27 -91.2 4.31 -7.42 -0.28 -0 -0 96 16.94 38.92 10.83 -7.12 0 -0 -25.74 68.53 -14.9 -0 -0 0 88.78 17.05 32.24 -20.52 31.26 -5.8 0 -0 -5.05 -24.65 36.14 -15.14 7.12 -0 -0 4.75 8.68 5.43
-9.62 15.73 -1.46 312.07 82.46 316.46 0 0 0 -5.5 -15.34 -37.24 1.7 8.22 23.37 0.53 1.82 -14.48 0.07 -1.75 -4.82 0 0 0 28.8 -0.81 19.85 0 -0 0 -0.67 1.58 -14.97 -0.18 2.76 -7.61 4 2.14 -4.65 0.85 2.6 0.78 -1.16 1.37 3.55 4.42 0.77 -9.76 0.5 0.5 2.42 -0.58 0.33 2.48 0 -0 0 -86.14 10.47 -109.95 4.66 -8.01 -0.33 -0 -0 110.53 17.64 37.79 11.02 -7.12 0 -0 -23.38 67.74 -13.06 0 -0 0 88.73 19.56 32.41 -21.93 32.9 -6.55 0 -0 -5.83 -25.58 35.88 -15.67 7.12 -0 -0 4.2 8.65 4.8
-8.75 15.64 -1.48 319.47 82.08 323.94 0 0 0 -6.31 -14.2 -38.28 1.67 8.15 23.16 0.58 -0.8 -14.14 0.13 -2.29 -6.3 0 0 0 27.39 -1.61 22.99 0 -0 0 -0.5 2.97 -12.73 -0.23 3.1 -8.56 3.26 2.55 -4.85 0.62 3.2 0.52 -0.93 1.65 3.4 5.06 0.72 -9.63 0.06 0.37 3.13 -0.85 0.27 2.7 -0 -0 0 -85.5 12.98 -125.89 5.4 -9.25 -0.44 -0 -0 122.79 18.19 37.6 11.34 -7.12 0 -0 -22.49 67.75 -12.55 -0 -0 0 89.06 21.64 31.87 -21.97 32.94 -6.57 0 -0 -6.15 -25.52 36.2 -15.75 7.12 -0 -0 4.3 8.96 4.93
-7.8 15.54 -1.52 318.71 81.61 322.6 0 0 0 -8.01 -11.14 -38.36 2.24 9.35 26.9 0.56 -7.46 -13.48 0.02 0.95 2.62 0 0 0 26.56 -3.22 26.65 0 0 -0 -0.2 6 -8.44 -0.34 3.76 -10.42 3.78 2.63 -4.95 0.63 3.28 0.17 -1.22 1.69 3.12 4.91 0.68 -8.63 0.48 0.35 3.68 -0.68 0.28 2.69 0 0 0 -85.39 16.15 -127.44 5.63 -9.64 -0.47 -0 -0 121.89 17.36 37.67 10.82 -7.12 0 -0 -23.54 67.56 -13.06 0 0 0 89.83 22.33 31.24 -20.79 31.58 -5.94 0 -0 -5.75 -25.74 36.19 -15.89 7.12 -0 -0 4.17 9.01 4.79
-6.77 15.55 -1.58 324.5 81.24 328.55 0 0 0 -9.45 -9.79 -38.4 2.99 10.67 31.18 0.23 -7.41 -9.28 0.05 1.42 3.91 0 0 0 24.71 -3.74 29.38 0 -0 0 0.24 8.66 2.12 -0.01 0.48 -1.31 3.66 2.71 -6.36 0.35 3.35 -0.6 -1.39 1.72 3.13 5.42 0.68 -7.46 0.22 0.37 4.49 -0.86 0.3 2.75 -0 -0 0 -85.69 18.5 -128.73 5.88 -10.07 -0.52 -0 -0 119.32 18.1 38.96 11.61 -7.12 0 -0 -24.44 68.92 -14.33 -0 -0 0 91.05 21.71 30.46 -18.75 29.11 -4.91 0 -0 -4.68 -26.17 36.21 -16.18 7.12 -0 -0 3.95 9.14 4.54
-5.73 15.6 -1.63 341.24 82.35 345.19 0 0 0 -13.52 -9.29 -36.97 3.73 11.79 35.01 0.18 -6.9 -8.42 0 -0.38 -1.04 0 0 0 21.94 -2.3 22.88 -0.85 -5.87 16.41 0.18 9.39 9.34 -0.36 -3.88 10.74 1.29 2.38 -7.66 -0.56 3.1 -1.25 -0.98 1.57 3.1 5.88 0.69 -7.53 0.17 0.31 6.25 -0.96 0.32 3.38 -0 -0 0 -85.55 19.26 -130.44 6.02 -10.3 -0.54 -0 -0 117.97 17.14 40.33 11.29 -7.12 0 -0 -27.66 69.79 -16.84 -0 -0 0 92.24 19.87 29.34 -16.72 26.49 -3.96 0 -0 -3.01 -25.78 36.36 -15.98 7.12 -0 -0 4.19 9.2 4.82
-4.79 15.69 -1.67 361.2 82.71 364.79 0 0 0 -17.87 -8.06 -34.4 4.22 12.45 37.34 0.39 -7.13 -11.45 0.04 -1.3 -3.56 0 0 0 19.12 0.01 16.23 -3.09 -10.84 31.76 -0.2 10.5 17.71 -0.57 -4.83 13.42 -1.36 1.89 -8.02 -1.13 2.71 -1.43 -0.12 1.35 3.01 5.63 0.77 -7.68 0.18 0.41 6.7 -0.91 0.37 3.56 -0 0 0 -86.1 17.97 -128.47 5.84 -10 -0.51 -0 -0 114.67 15.61 39.37 10.05 -7.12 0 -0 -27.92 68.49 -16.21 -0 0 0 92.81 17.82 28.15 -15.18 24.39 -3.3 0 -0 -0.69 -25.51 36.39 -15.81 7.12 -0 -0 4.34 9.16 4.99
-3.92 15.83 -1.71 377.44 82.04 380.11 0 0 0 -21.68 -5.73 -29.71 4.05 12.23 36.54 0.67 -7.19 -14.68 0.09 -1.93 -5.33 0 0 0 16.83 2.83 10.09 -5.9 -14.33 44.56 -1.86 5.85 28.4 -0.02 -0.84 2.3 -3.49 1.42 -7.12 -1.6 2.25 -1.28 0.52 1.11 2.6 5.81 1.27 -8 -0.24 1.07 6.66 -1.05 0.69 3.64 0 -0 0 -87.16 15.66 -118.46 5.21 -8.94 -0.41 -0 -0 105.41 15.7 39.92 10.23 -7.12 0 -0 -28.65 68.98 -16.97 0 -0 0 93.08 15.43 28.69 -13.98 22.71 -2.82 0 -0 -0.22 -25.68 35.73 -15.68 7.12 -0 -0 4.12 8.53 4.69
-3.1 15.95 -1.73 390.82 82.09 392.82 0 0 0 -24.72 -3.53 -24.88 3.59 11.6 34.32 0.87 -7.89 -16.75 0.13 -2.37 -6.52 0 0 0 14.66 3.55 3.62 -8.46 -16.45 54.2 -1.61 3.44 25.42 -0.07 -1.65 4.53 -5.49 0.39 -5.86 -1.59 0.92 -1.85 1.5 0.48 1.32 5.79 1.64 -5.74 -0.7 1.77 6.09 -1.16 1 3.04 0 0 0 -88.51 13.81 -100.99 4.68 -8.05 -0.33 -0 -0 90.5 16.16 40.33 10.62 -7.12 0 -0 -28.79 69.47 -17.36 0 0 0 92.68 11.15 30.18 -13.12 21.46 -2.5 0 0 0.05 -24.83 36.19 -15.28 7.12 -0 -0 4.66 8.78 5.33
-2.32 16.05 -1.76 398.74 82.96 400.88 0 0 0 -25.96 -3.2 -20.71 3.25 11.09 32.57 1.11 -7.65 -18.87 0.09 -1.95 -5.37 0 0 0 13.69 4.08 -3.86 -10.22 -17.53 60.22 -0.12 7.25 12.77 -0.62 -5.03 14 -5.32 -0.39 -6.05 -1.79 -0.1 -1.51 1.13 -0.04 1.84 6.13 1.85 -6.7 -0.71 1.94 6.49 -1.22 1.1 3.37 0 -0 0 -88.01 8.79 -79.79 4.21 -7.25 -0.27 -0 -0 74.89 16.16 40.02 10.56 -7.12 0 -0 -28.3 69.22 -16.9 0 -0 0 92.83 8.65 29.09 -11.94 19.72 -2.08 0 0 3.24 -25.49 36 -15.65 7.12 -0 -0 4.27 8.75 4.88
-1.56 16.08 -1.79 404.45 84.62 406.95 0 0 0 -25.9 -3.94 -17.32 3.18 10.99 32.23 1.44 -7.13 -21.44 0.04 -1.35 -3.7 0 0 0 14.15 4.6 -11.2 -11.06 -17.96 62.98 0.15 7.34 -0.04 -0.14 -2.44 6.72 -4.62 -1.18 -6.34 -1.32 -1.19 -1.25 1.14 -0.6 2.33 5.8 2.09 -7.27 -0.49 2.24 6.53 -1.07 1.25 3.5 0 0 0 -88.13 3.56 -58.4 4.14 -7.13 -0.26 -0 -0 58.84 17.07 40.14 11.2 -7.12 0 -0 -27.44 69.61 -16.59 0 0 0 92.06 5.75 27.2 -10.59 17.65 -1.65 0 0 5.67 -26.36 36.87 -16.56 7.12 -0 -0 3.99 9.87 4.63
-0.79 16.05 -1.8 437.39 86.62 439.59 0 0 0 -25.9 -4.77 -13.56 3.25 11.09 32.57 1.81 -5.81 -24.21 0.3 -3.51 -9.71 0 0 0 14.69 3.85 -17.73 -10.89 -17.88 62.42 -0.17 7.28 -8.34 -0.27 -3.33 9.19 -4.4 -2.34 -5.95 -0.86 -2.78 -0.74 1.34 -1.41 2.74 5.99 2.09 -7.6 -0.63 2.21 6.06 -1.15 1.22 3.4 0 0 0 -88.15 -1.91 -36.75 5.07 -8.7 -0.39 -0 -0 41.04 16.52 38.62 10.49 -7.12 0 -0 -25.8 68.13 -14.71 0 0 0 91.18 2.3 25.17 -9.86 16.52 -1.44 0 0 6.64 -25.45 36.36 -15.75 7.12 -0 -0 4.37 9.11 5.02
-0.04 15.96 -1.8 435.27 86.6 437.74 0 0 0 -26.33 -3.95 -10.84 3.27 11.12 32.69 2.21 -5.01 -27.03 0.26 -3.25 -8.99 0 0 0 14.41 6.41 -23.76 -9.77 -17.28 58.71 -0.59 6.23 -13.73 -0.07 -1.69 4.64 -4.87 -2.38 -5.69 -0.34 -2.83 -0.73 2.15 -1.45 2.66 6.03 1.9 -7.22 -1.11 2.01 5.18 -1.33 1.09 3.03 -0 0 0 -88.46 -6.43 -13.52 7.29 -12.4 -0.79 -0 -0 19.3 16.98 38.32 10.72 -7.12 0 -0 -24.84 68.01 -14.07 -0 0 0 90.29 -0.45 18.73 -7.94 13.46 -0.94 0 0 12.51 -26.39 36.09 -16.29 7.12 -0 -0 3.81 9.08 4.37
0.75 15.93 -1.77 461.16 85.91 463.48 0 0 0 -27.17 -3.14 -6.29 2.84 10.43 30.38 2.47 -5.47 -28.59 0.21 -2.92 -8.07 0 0 0 13.41 7.19 -27.84 -7.55 -15.78 50.93 -0.86 4.84 -16.52 -0.03 -1.2 3.29 -6.11 -2.96 -5.15 -0.29 -3.56 -0.32 2.84 -1.84 2.91 5.44 1.97 -8.1 -0.36 2.06 5.32 -0.96 1.13 3.22 0 0 0 -87.95 -11.61 0.02 9.85 -16.51 -1.43 -0 -0 6.3 16.93 38.39 10.71 -7.12 0 -0 -25.01 68.06 -14.19 0 0 0 89.83 -3.27 10.65 -6.63 11.3 -0.66 0 0 19.49 -25.4 37.02 -15.95 7.12 -0 -0 4.53 9.76 5.24
1.55 15.9 -1.74 468.45 84.5 471.15 0 0 0 -28.31 -1.48 -1.49 2.08 9.04 25.91 2.52 -5.74 -28.84 0.24 -3.17 -8.76 0 0 0 11.51 8.35 -30.73 -4.8 -13.15 39.94 -0.88 3.28 -16.93 -0 -0.43 1.18 -7.57 -3.33 -5.46 -0.56 -3.91 -0.1 3.31 -2.05 3.43 5.34 1.8 -7.85 0.13 1.85 4.67 -0.8 1.03 2.93 -0 -0 0 -86.91 -16.47 9.64 12.5 -20.55 -2.27 -0 0 -2.28 17.09 38.16 10.76 -7.12 0 -0 -24.51 67.91 -13.81 -0 -0 0 89.96 -5.52 -3.44 -5.26 9.02 -0.41 0 0 32.09 -26.1 37.52 -16.62 7.12 -0 -0 4.26 10.45 4.97
2.38 15.86 -1.69 472.95 83.72 476.05 0 0 0 -28.16 2.17 3.34 1.23 7.04 19.83 2.47 -8 -28.3 0.21 -2.97 -8.19 0 0 0 9.67 10.86 -31.69 -2.47 -9.77 28.25 -0.63 -0.68 -15.2 -0.01 -0.46 1.27 -8.52 -3.86 -5.77 -0.52 -4.52 -0.17 3.79 -2.37 3.68 5.42 2.01 -7.6 0.26 2.12 4.8 -0.76 1.17 2.94 -0 -0 0 -85.99 -20.09 14.99 15.4 -24.71 -3.39 -0 0 -5.98 17.3 38.59 11 -7.12 0 -0 -24.85 68.35 -14.26 -0 -0 0 89.66 -7.24 -5.7 -3.53 6.1 -0.19 0 0 32.08 -25.85 34.12 -15.2 7.12 -0 -0 3.71 6.92 4.14
3.22 15.8 -1.64 479.4 82.16 483.23 0 0 0 -27.94 5.3 9.45 0.4 4.07 11.26 2.04 -11.13 -25.72 0.15 -2.51 -6.92 0 0 0 5.12 16.09 -32.04 -1.31 -7.26 20.48 -0.19 -7.9 -14.51 -0.17 -2.64 7.29 -9.75 -4.45 -6.18 -0.8 -5.16 -0.38 4.08 -2.7 3.86 6.07 1.77 -7.9 0.09 1.73 4.75 -0.95 0.99 2.98 0 0 0 -84.94 -23.66 19.26 17.81 -27.91 -4.46 -0 0 -7.63 17.57 38.69 11.2 -7.12 0 -0 -24.68 68.52 -14.25 0 0 0 89.63 -9.32 -8.57 -2.35 4.07 -0.08 0 0 28.71 -25.81 31.65 -14.24 7.12 -0 -0 3.29 4.37 3.54
4.02 15.68 -1.57 483.91 81.65 488.53 0 0 0 -27.31 5.15 16.77 0.02 0.88 2.42 1.39 -10.6 -21.27 0.15 -2.53 -6.97 0 0 0 3.65 17.06 -34.13 -1.03 -6.47 18.14 -0.12 -9.12 -14.89 -0.18 -2.75 7.58 -10.22 -4.76 -5.98 -0.6 -5.59 -0.87 4.54 -2.88 3.36 6.08 1.69 -8.76 0.46 1.51 5.61 -0.84 0.92 3.43 0 0 0 -84.71 -26.52 22.03 19.58 -30.14 -5.32 -0 0 -8 17.39 37.38 10.77 -7.12 0 -0 -23.14 67.31 -12.69 0 0 0 89.01 -11.69 -11.45 -1.83 3.17 -0.05 0 0 27.25 -24.55 29.68 -12.74 7.12 -0 -0 3.69 2.03 3.83
4.86 15.53 -1.5 480.73 81.23 485.74 0 0 0 -27.45 5.04 21.28 0 0 0 1.05 -10.33 -18.62 0.18 -2.76 -7.62 0 0 0 4.3 14.88 -36.75 -1.68 -8.17 23.23 -0.4 -1.63 -12.61 -0.12 -2.23 6.13 -11.31 -4.78 -5.83 -0.4 -5.6 -1.29 5.38 -2.86 2.96 6.71 1.27 -7.15 0.25 1.07 3.55 -1.04 0.65 2.42 -0 0 0 -85.08 -27.87 24.2 21 -31.82 -6.05 -0 0 -8.8 17.58 37.46 10.91 -7.12 0 -0 -23.02 67.43 -12.69 -0 0 0 88.06 -13.2 -14.25 -1.47 2.55 -0.03 0 0 29.96 -24.22 28.91 -12.27 7.12 -0 -0 3.77 1.16 3.85
5.79 15.48 -1.45 486.63 82.04 491.49 0 0 0 -25.81 4.47 25.25 0 0 0 0.65 -10.35 -15.05 0.13 -2.34 -6.44 0 0 0 7.35 12.48 -37.97 -2.75 -10.28 29.88 -0.22 2.09 -8.34 -0.07 -1.7 4.67 -10.22 -4.97 -6.11 0.17 -5.92 -1.58 5.33 -3 2.82 6.22 1.85 -7.36 0.96 1.79 5.22 -0.69 1.07 3.03 -0 0 0 -85.42 -27.48 25.36 22.18 -33.18 -6.68 -0 0 -10.35 16.49 36.48 9.98 -7.12 0 -0 -23.08 66.23 -12.1 -0 0 0 87.14 -14.01 -16.61 -1.55 2.68 -0.04 0 0 32.4 -24.16 28.38 -12.03 7.12 -0 -0 3.73 0.59 3.77
6.74 15.51 -1.38 497.18 84.15 502.13 0 0 0 -23.76 3.27 24.56 0.19 2.78 7.67 0.21 -9.97 -10.05 0 -0.12 -0.32 0 0 0 10.26 13.48 -36.78 -3.36 -11.26 33.15 -0.11 3.53 -5.9 -0.02 -1.01 2.77 -7.74 -4.79 -6.65 0.94 -5.84 -1.96 4.75 -2.93 2.55 6.94 2.07 -8.07 0.59 1.96 6.72 -0.92 1.19 3.72 0 -0 0 -86.02 -25.81 25.9 22.67 -33.73 -6.96 -0 0 -11.45 15.83 36.1 9.48 -7.12 0 -0 -23.38 65.71 -11.98 0 -0 0 86.83 -13.36 -19.19 -1.67 2.88 -0.04 0 0 32.84 -24.71 27.55 -12.02 7.12 -0 -0 3.28 -0.16 3.28
7.67 15.6 -1.3 517.15 85.11 521.73 0 0 0 -21.6 2.33 19.08 1.51 7.76 21.99 -0.35 -11.3 -0.63 0.72 5.44 15.16 0 0 0 14.24 12.31 -34.44 -3.92 -12.05 35.92 -0.24 3.28 -8.62 -0 0.18 -0.49 -5.75 -4.7 -6.17 1.55 -5.9 -2.33 4.33 -2.93 1.78 7.35 2.09 -8.15 0.44 1.93 7.21 -1.05 1.2 3.92 0 0 0 -86.9 -23 26.11 22.53 -33.57 -6.87 -0 0 -11.87 15.54 36.51 9.39 -7.12 0 -0 -24.19 65.99 -12.58 0 0 0 87.39 -12.88 -22.2 -2.96 5.11 -0.13 0 0 33.21 -24.14 28.12 -11.93 7.12 -0 -0 3.7 0.32 3.73
8.53 15.73 -1.23 527.74 84.95 531.66 0 0 0 -20.39 1.75 12.5 4.07 12.25 36.62 -0.38 -11 6.15 0.97 6.26 17.55 0 0 0 16.81 10.81 -30.79 -4.11 -12.31 36.82 -0.41 2.62 -11.45 -0 0.38 -1.05 -4.86 -4.34 -5.35 1.58 -5.52 -1.99 3.95 -2.74 1.55 7.34 1.7 -8.59 0.49 1.38 6.43 -1.06 0.91 3.7 -0 -0 0 -87.8 -21.25 26.92 21.16 -32.02 -6.14 -0 0 -12.05 16.25 36.92 9.93 -7.12 0 -0 -23.87 66.56 -12.71 -0 -0 0 88.62 -10.71 -26.42 -4.19 7.21 -0.26 0 0 35.85 -24.5 29.73 -12.73 7.12 -0 -0 3.73 2.07 3.87
9.34 15.91 -1.17 558.77 85.19 561.81 0 0 0 -17.22 1.8 5.18 7.29 15.58 49.98 -0.17 -7.77 5.39 0.73 5.47 15.24 0 0 0 21.3 9.81 -25.06 -3.57 -11.56 34.2 -0.54 1.95 -13.39 -0.04 1.32 -3.64 -1.92 -3.56 -4.06 1.93 -4.66 -1.62 2.83 -2.31 0.92 7.12 1.8 -9.1 0.93 1.46 6.61 -0.87 0.97 3.86 0 -0 0 -88.67 -19.37 26.94 19.11 -29.56 -5.09 -0 0 -10.9 15.86 37.76 9.87 -7.12 0 -0 -25.38 67.18 -13.92 0 -0 0 89.86 -8.07 -27.07 -5.23 8.97 -0.41 0 0 37.57 -24.36 32.62 -13.71 7.12 -0 -0 4.27 5.02 4.64
10.12 16.04 -1.12 580.36 84.77 582.82 0 0 0 -14.6 1.94 -2.2 9.78 17.29 58.77 -0.18 -7.42 3.26 1.63 8.05 22.88 0 0 0 24.69 8.64 -19.51 -2.96 -10.63 31.06 -0.59 1.07 -14.22 -0.12 2.24 -6.16 -0.03 -2.74 -3.49 2.15 -3.64 -1.2 2.07 -1.81 0.87 6.71 1.69 -9.02 1.16 1.35 6.58 -0.72 0.92 3.82 0 0 0 -89.66 -17.14 25.77 16.44 -26.12 -3.84 -0 0 -8.29 15.64 38.02 9.78 -7.12 0 -0 -25.98 67.34 -14.36 0 0 0 90.29 -5.13 -9.65 -6.23 10.65 -0.58 0 0 23.95 -24.86 33.42 -14.31 7.12 -0 -0 4.13 5.96 4.55
10.87 16.13 -1.06 586.92 85.28 588.99 0 0 0 -14.48 1.69 -9.6 11.05 17.96 62.94 -0.29 -10.85 -1.76 0.92 6.12 17.13 0 0 0 25.76 8.17 -14.78 -2.61 -10.04 29.1 -0.75 0.74 -16.09 -0.07 1.67 -4.6 -0.04 -2.04 -3.01 1.94 -2.72 -0.84 1.91 -1.35 0.92 5.9 1.59 -9.14 1.86 1.25 6.88 -0.35 0.89 3.93 0 0 0 -90.62 -14.24 22.33 13.71 -22.31 -2.72 -0 0 -4.22 16.36 37.36 10.1 -7.12 0 -0 -24.3 66.98 -13.18 0 0 0 89.82 -1.43 6.63 -7.63 12.96 -0.87 0 0 13.03 -25.26 32.9 -14.38 7.12 -0 -0 3.82 5.53 4.17
11.61 16.13 -1.01 589.34 86.14 591.86 0 0 0 -15.32 0.36 -17.31 11.35 18.1 63.9 -0.09 -13.14 -7.97 1.51 7.75 21.97 0 0 0 26.02 8.41 -11.74 -2.56 -9.95 28.81 -0.85 -0.86 -17.8 -0.09 1.93 -5.31 -0.85 -1.53 -3.74 1.62 -2.02 -0.64 2.04 -1.01 1.53 6.29 1.53 -8.97 1.21 1.18 6.93 -0.64 0.83 3.92 0 -0 0 -91.49 -11.18 15.28 10.74 -17.89 -1.7 -0 -0 1.61 16.76 37.21 10.32 -7.12 0 -0 -23.66 66.97 -12.81 0 -0 0 89.27 2.85 16.22 -8.96 15.1 -1.19 0 0 10.08 -25.28 31.99 -14.05 7.12 -0 -0 3.65 4.59 3.94
12.35 16.09 -0.99 601.26 86.77 604.01 0 0 0 -15.93 -1.43 -24.18 10.62 17.74 61.53 0.26 -13.24 -12.31 0.83 5.8 16.21 0 0 0 26.73 8.3 -8.81 -2.59 -10 28.98 -1.03 -2.29 -20.09 -0.16 2.55 -7.04 -0.54 -0.78 -3.32 1.12 -1.03 -0.79 1.41 -0.51 1.09 5.99 1.2 -8.82 1.44 0.76 7.28 -0.54 0.64 4 0 -0 0 -91.61 -7.52 5.86 8.21 -13.89 -1 -0 -0 9.36 16.25 37.84 10.14 -7.12 0 -0 -25.05 67.38 -13.83 0 -0 0 88.74 6.61 24.46 -10.72 17.86 -1.69 0 0 5.25 -25.79 32.6 -14.59 7.12 -0 -0 3.47 5.35 3.79
13.11 16.05 -0.98 611.47 86.71 614.15 0 0 0 -15.9 -3.31 -29.15 8.76 16.65 55.27 0.67 -12.07 -15.79 0.33 3.68 10.17 0 0 0 27.7 7.05 -4.63 -2.27 -9.42 27.11 -1.27 -2.49 -22.31 -0.06 1.54 -4.24 -0.04 -0.34 -3.28 0.86 -0.46 -0.37 0.88 -0.23 1.47 6.48 1.51 -8.7 1.31 1.15 7.03 -0.64 0.83 3.91 0 0 0 -91.56 -4.18 -10.51 6.21 -10.62 -0.58 -0 -0 22.82 15.9 38.28 10.01 -7.12 0 -0 -26.03 67.65 -14.57 0 0 0 88.26 9.94 29.25 -13.88 22.56 -2.78 0 0 1.12 -25.27 32.88 -14.37 7.12 -0 -0 3.81 5.5 4.17
13.89 16.06 -0.99 631.85 85.64 634.28 0 0 0 -14.67 -4.6 -32.24 6.13 14.55 45.51 0.93 -9.49 -17.51 0.2 2.91 8.01 0 0 0 29.2 4.23 1.03 -1.43 -7.57 21.42 -1.26 -1.39 -21.78 -0.05 1.42 -3.91 1.6 0.35 -2.85 0.75 0.41 -0.05 -0.12 0.22 1.55 6.74 1.36 -8.09 1.32 0.99 6.28 -0.7 0.74 3.52 0 0 0 -91.1 -0.73 -31.26 5 -8.59 -0.38 -0 -0 39.13 16.77 38.63 10.66 -7.12 0 -0 -25.53 68.22 -14.6 0 0 0 87.72 13.89 32.82 -16.02 25.54 -3.65 0 -0 -3.59 -26 33.49 -15.06 7.12 -0 -0 3.52 6.32 3.89
14.7 16.04 -1.01 650.45 84.49 653.18 0 0 0 -13.51 -6.11 -34.35 3.76 11.84 35.17 1.2 -5.03 -19.62 0.05 1.46 4.02 0 0 0 29.31 0.94 6.6 -0.63 -5.09 14.16 -1.21 1.38 -20.4 -0.05 1.37 -3.78 2.75 1.27 -3.39 0.67 1.57 0.35 -0.76 0.82 2.31 6.91 1.32 -8.37 0.93 0.93 5.86 -0.86 0.68 3.43 -0 0 0 -90.65 2.54 -50.91 4.54 -7.81 -0.31 -0 -0 52.32 18.04 39.69 11.75 -7.12 0 -0 -25.6 69.54 -15.38 -0 0 0 86.86 17.52 34.13 -18.54 28.84 -4.81 0 -0 -5.97 -26.67 34.2 -15.77 7.12 -0 -0 3.28 7.22 3.67
15.51 16.01 -1.03 667.3 82.64 670.75 0 0 0 -10.74 -9.14 -35.69 2.35 9.56 27.58 1.21 2.03 -21.64 0 0.3 0.81 0 0 0 28.83 -0.85 16.27 0 -0 0 -0.61 4.02 -13.96 -0 -0.31 0.85 3.61 2.33 -4.15 0.55 2.92 0.24 -1.26 1.51 2.72 6.74 1.08 -7.64 0.92 0.7 5.43 -0.85 0.55 3.13 0 0 0 -89.77 6.85 -70.91 4.42 -7.61 -0.29 -0 -0 64.95 18.36 39.73 11.98 -7.12 0 -0 -25.29 69.68 -15.27 0 0 0 86.19 20.56 35.32 -20.47 31.21 -5.77 0 -0 -7.03 -27.95 34.44 -16.7 7.12 -0 -0 2.63 7.8 2.97
16.32 15.95 -1.06 676.99 80.97 680.71 0 0 0 -6.17 -15.94 -35.04 1.81 8.46 24.12 0.64 9.93 -21.78 0 0.44 1.2 0 0 0 28.53 -0.32 19.36 0 -0 0 -0.65 4.3 -14.39 -0.06 1.63 -4.48 3.96 3.16 -4.37 0.37 4.01 0.31 -1.55 2.06 3.01 6.79 1.13 -6.93 0.87 0.85 4.52 -0.86 0.59 2.69 -0 -0 0 -88.41 9.64 -91.06 4.63 -7.97 -0.32 -0 -0 79.81 17.83 40.75 11.86 -7.12 0 -0 -27.56 70.37 -17.13 -0 -0 0 85.94 23.08 35.69 -22.1 33.09 -6.64 0 -0 -7.51 -28.45 34.79 -17.18 7.12 -0 -0 2.44 8.31 2.77
17.16 15.85 -1.08 682.56 79.85 685.95 0 0 0 -6.2 -14.75 -35.01 1.77 8.38 23.86 0.81 5.82 -20.08 0.04 1.29 3.54 0 0 0 27.64 -0.74 23.08 0 0 -0 -0.47 5.9 -12.33 -0.09 1.95 -5.36 3.91 3.67 -4.13 0.07 4.7 0.31 -1.78 2.4 2.94 6.88 1.34 -7.51 1.33 1.02 5.61 -0.72 0.74 3.17 -0 0 0 -87.17 13.28 -111.34 5.19 -8.91 -0.4 -0 -0 97.45 17.36 40.18 11.4 -7.12 0 -0 -27.17 69.74 -16.49 -0 0 0 86.33 24.23 35.52 -23.19 34.29 -7.24 0 -0 -6.4 -29.37 34.99 -17.89 7.12 -0 -0 1.99 8.77 2.27
18.06 15.74 -1.12 687.11 79.72 690.06 0 0 0 -8.54 -11.57 -34.33 2.14 9.15 26.25 0.89 -4.06 -16.89 0.44 4.28 11.85 0 0 0 25.94 -1.91 26.49 0 -0 0 -0.15 7.53 -8.11 -0.3 3.54 -9.79 3.29 3.7 -4.7 -0.34 4.76 0.52 -1.82 2.43 3.47 6.95 1.5 -8.74 1.74 1.05 6.92 -0.59 0.82 3.88 -0 -0 0 -86.01 15.74 -123.01 5.89 -10.08 -0.52 -0 -0 107.98 18.26 40.84 12.18 -7.12 0 -0 -27.2 70.59 -17.02 -0 -0 0 86.92 24.65 36.11 -23.42 34.55 -7.38 0 -0 -5.5 -28.54 35.5 -17.53 7.12 -0 -0 2.54 9.06 2.91
19.02 15.74 -1.16 690.25 79.43 692.96 0 0 0 -10.02 -9.71 -33.99 2.71 10.21 29.64 0.18 -3.28 -7.49 0.21 2.92 8.05 0 0 0 24.4 -2.8 29.45 0 -0 0 0.28 9.48 1.39 -0 -0.17 0.48 2.83 3.57 -5.54 -0.51 4.59 0.24 -1.71 2.34 3.61 7.7 1.37 -6.74 0.73 1.08 6.03 -1.06 0.77 3.19 0 0 0 -85.86 18.32 -126.46 6.14 -10.5 -0.57 -0 -0 110.24 20.23 42.76 14.05 -7.12 0 -0 -28.44 72.86 -19.21 0 0 0 87.74 22.82 37.38 -23.29 34.41 -7.3 0 -0 -4.58 -28.62 35.7 -17.66 7.12 -0 -0 2.54 9.29 2.92
19.96 15.75 -1.2 710.2 80.67 712.6 0 0 0 -15.91 -6.71 -33.31 3.26 11.11 32.64 0.17 -6.59 -8.1 0.02 0.89 2.46 0 0 0 20.79 -1.33 20.6 -1.4 -7.49 21.17 0.34 10.24 4.53 -0.3 -3.5 9.66 -1.17 3.17 -6.32 -1.63 4.39 0.07 -0.61 2.18 3.65 7.62 1.59 -7.89 1.42 1.17 7.56 -0.81 0.9 3.95 0 -0 0 -85.57 18.96 -125.45 6.09 -10.41 -0.55 -0 -0 109.27 21.09 42.92 14.71 -7.12 0 -0 -27.72 73.3 -18.96 0 -0 0 88.83 20.08 37.9 -22.87 33.95 -7.07 0 -0 -4.6 -28.24 35.89 -17.48 7.12 -0 -0 2.78 9.38 3.2
20.81 15.81 -1.22 725.36 81.88 727.13 0 0 0 -20.04 -5.43 -31.25 3.74 11.8 35.04 0.28 -8.84 -10.57 0 -0.19 -0.52 0 0 0 18.01 -1.18 14.63 -3.67 -11.71 34.71 -0.13 8.31 14.17 -1.25 -7.09 19.99 -3.9 2.5 -5.56 -2.17 3.69 0.02 0.24 1.8 3.04 7.91 1.53 -7.7 0.78 1.15 7.02 -1.08 0.85 3.73 0 -0 0 -85.37 17.38 -123.59 5.98 -10.23 -0.54 -0 -0 108.44 19.22 42.21 13.18 -7.12 0 -0 -28.55 72.05 -18.81 0 -0 0 89.79 16.78 37.81 -21.92 32.89 -6.54 0 -0 -4.49 -27.82 35.78 -17.14 7.12 -0 -0 2.99 9.15 3.43
21.62 15.91 -1.29 730.7 82.38 731.59 0 0 0 -22.12 -4.02 -27.41 3.8 11.89 35.35 0.56 -9.8 -14.05 0.03 1.21 3.32 0 0 0 16.96 -0.41 9.01 -6.44 -14.84 46.72 -1.34 3.67 23.43 -0.28 -3.42 9.46 -4.38 1.97 -4.42 -2.08 2.93 0.11 0.5 1.43 2.48 7.68 1.76 -7.82 0.48 1.49 7.22 -1.12 1 3.84 -0 -0 0 -85.17 13.53 -128.12 6.12 -10.47 -0.56 -0 -0 114.45 18.62 40.18 12.26 -7.12 0 -0 -25.68 70.14 -15.78 -0 -0 0 90.49 13.25 37.46 -20.38 31.09 -5.73 0 -0 -3.78 -26.96 35.54 -16.48 7.12 -0 -0 3.39 8.68 3.87
22.4 16.03 -1.35 738.5 82.51 739.22 0 0 0 -24.18 -3.14 -23.3 3.53 11.5 34 0.86 -9.55 -16.85 0 0.04 0.12 0 0 0 15.53 0.62 2.4 -9.17 -16.92 56.68 -1.74 1.01 25.32 -0 0.34 -0.94 -5.25 1.53 -4.23 -2.05 2.38 0.19 0.98 1.15 2.44 7.82 2.04 -8.07 -0.24 1.88 7.18 -1.36 1.16 3.91 -0 0 0 -86 9.3 -116.17 5.43 -9.31 -0.44 -0 -0 105.81 19.12 41.21 12.87 -7.12 0 -0 -26.82 71.19 -17.12 -0 0 0 91.32 10.53 35.44 -17.47 27.48 -4.3 0 -0 -2.16 -26.59 35.24 -16.11 7.12 -0 -0 3.53 8.27 4.01
23.16 16.11 -1.4 749.54 83.48 750.26 0 0 0 -26.03 -3.1 -18.99 3.15 10.93 32.05 1.07 -9.13 -18.62 0.03 -1.17 -3.21 0 0 0 14.28 0.76 -3.87 -11.05 -17.96 62.96 -0.68 1.81 16.37 -0.22 -3.01 8.32 -6 0.85 -4.66 -2.08 1.56 0.13 1.33 0.73 2.65 7.97 2.03 -7.51 -0.09 1.88 7.56 -1.34 1.19 3.94 0 0 0 -86.7 5.12 -85.14 4.64 -7.97 -0.32 -0 -0 79.21 20.09 41.78 13.69 -7.12 0 -0 -26.69 72 -17.5 0 0 0 92.34 7.7 30.21 -13.83 22.49 -2.76 0 0 2.95 -26.71 34.78 -16.01 7.12 -0 -0 3.38 7.83 3.81
23.88 16.17 -1.44 756.56 84.91 757.57 0 0 0 -26.62 -3.21 -15.23 2.87 10.48 30.54 1.29 -8.55 -20.36 0.14 -2.37 -6.53 0 0 0 14.63 1.64 -10.07 -12.01 -18.4 66.02 0.04 3.94 3.58 -0.4 -4.04 11.19 -5.91 0.09 -5.12 -1.7 0.56 0.17 1.6 0.22 3.01 10.1 1.18 -6.56 -3.03 0.86 6.6 -2.8 0.58 3.44 0 -0 0 -87.34 0.04 -56.23 4.77 -8.2 -0.34 -0 -0 53.47 19.51 41.12 13.12 -7.12 0 -0 -26.2 71.25 -16.74 0 -0 0 93.1 6.1 19.85 -9.58 16.08 -1.36 0 0 11.88 -25.54 34.85 -15.27 7.12 -0 -0 4.02 7.59 4.53
24.57 16.15 -1.49 774.5 86.67 775.78 0 0 0 -26.86 -3.77 -12.69 2.97 10.64 31.08 1.6 -8.08 -22.68 0.23 -3.12 -8.61 0 0 0 15.1 2.34 -16.18 -12.06 -18.42 66.18 -0.05 3.27 -4.36 -0.12 -2.22 6.11 -5.61 -0.78 -4.97 -1.28 -0.65 -0.07 1.78 -0.38 2.76 7.01 1.63 -7.49 0.56 1.39 7.88 -0.98 0.95 3.99 -0 -0 0 -88.04 -3.57 -22.15 6.87 -11.71 -0.71 -0 -0 21.8 19.37 41.01 12.99 -7.12 0 -0 -26.16 71.11 -16.64 -0 -0 0 93.18 4.31 -0.66 -5.89 10.07 -0.52 0 0 30.57 -25.7 34.57 -15.27 7.12 -0 -0 3.88 7.35 4.36
25.25 16.07 -1.51 806.15 87.8 807.51 0 0 0 -26.58 -3.72 -10.46 3.21 11.02 32.36 2.06 -8.01 -25.8 0.32 -3.61 -9.99 0 0 0 15.92 3.51 -21.45 -11.13 -18 63.19 -0.43 2.79 -11.78 -0.08 -1.86 5.12 -5.42 -1.42 -4.67 -0.75 -1.57 -0.11 2.16 -0.84 2.63 7.32 1.35 -7.28 -0.21 1.07 7.39 -1.31 0.75 3.78 0 -0 0 -88.15 -8.19 -4.7 9.4 -15.79 -1.31 -0 -0 7.54 19.16 39.89 12.56 -7.12 0 -0 -24.58 70.07 -15.03 0 -0 0 92.59 3.01 -9.69 -2.94 5.08 -0.13 0 0 35.58 -26.9 30.57 -14.47 7.12 -0 -0 2.49 3.51 2.64
25.95 15.98 -1.52 837.18 86.28 838.82 0 0 0 -27.98 -3.19 -7.66 3.14 10.91 31.99 2.43 -8.11 -28.09 0.37 -3.92 -10.84 0 0 0 14.58 4.49 -25.81 -9.22 -16.95 56.85 -0.72 1.39 -15.58 -0.01 -0.62 1.69 -6.98 -2.14 -4.6 -0.69 -2.45 -0.17 3.03 -1.29 2.67 7.3 1.29 -7.75 -0.34 0.96 7.12 -1.36 0.68 3.77 0 0 0 -88.07 -12.71 6.86 12.43 -20.45 -2.25 -0 0 -0.44 18.89 39.95 12.39 -7.12 0 -0 -25 70.04 -15.28 0 0 0 91.32 0.55 -11.51 -0.99 1.71 -0.01 0 0 34.15 -28.46 28.51 -14.51 7.12 -0 -0 1.23 1.72 1.27
26.7 15.97 -1.52 849.71 85.09 851.8 0 0 0 -28.37 -1.79 -3.83 2.57 9.96 28.86 2.62 -8.91 -29.15 0.38 -3.98 -11.03 0 0 0 13.79 6.15 -28.2 -6.35 -14.76 46.36 -0.82 0.27 -17.03 -0 -0.1 0.28 -7.83 -2.72 -5.08 -0.63 -3.11 0.03 3.48 -1.65 3.27 7.01 1.2 -8.26 0.04 0.81 6.75 -1.19 0.6 3.73 0 0 0 -87.36 -17.68 14.84 15.19 -24.41 -3.31 -0 0 -4.53 19.52 37.76 12.25 -7.12 0 -0 -21.12 68.3 -12.02 0 0 0 90.76 -2.9 -13.33 -0.85 1.48 -0.01 0 0 33.92 -28.02 27.26 -13.7 7.12 -0 -0 1.28 0.28 1.29
27.44 15.95 -1.51 856.7 83.37 859.64 0 0 0 -28.44 0.52 -0.03 1.82 8.49 24.22 2.72 -11.74 -29.72 0.36 -3.84 -10.62 0 0 0 12.13 8.1 -29.4 -3.51 -11.48 33.93 -0.6 -1.99 -15.54 -0.02 0.81 -2.22 -9 -3.48 -5.62 -0.59 -4 -0.18 4.06 -2.11 3.55 6.88 1.1 -8.19 0.04 0.7 6.07 -1.17 0.53 3.47 -0 0 0 -86.32 -22.35 21.02 17.51 -27.53 -4.32 -0 0 -7.22 19.32 39.35 12.53 -7.12 0 -0 -23.56 69.65 -14.17 -0 0 0 90.19 -6.87 -14.97 -1.31 2.27 -0.03 0 0 33.35 -27.27 27.63 -13.45 7.12 -0 -0 1.78 0.5 1.8
28.2 15.95 -1.51 862.17 81.39 866.01 0 0 0 -28.09 2.5 5.02 0.97 6.26 17.53 2.44 -14.88 -28.45 0.45 -4.32 -11.98 0 0 0 9.1 12.34 -29.5 -1.85 -8.54 24.37 -0.14 -6.26 -11.92 -0 0.22 -0.6 -9.81 -4.31 -6.38 -0.7 -4.96 -0.38 4.23 -2.6 3.96 6.05 1.72 -9.71 1.54 1.36 7.7 -0.47 0.95 4.35 0 -0 0 -85.46 -26.35 25.2 19.71 -30.29 -5.39 -0 0 -8.54 19.5 39.41 12.67 -7.12 0 -0 -23.43 69.76 -14.14 0 -0 0 90 -10.62 -16.71 -2.06 3.56 -0.06 0 0 32.65 -26.31 27.95 -13.05 7.12 -0 -0 2.4 0.62 2.43
28.96 15.9 -1.51 865.38 80.27 869.92 0 0 0 -27.25 4.44 10.05 0.4 4.04 11.18 1.99 -16.97 -26.34 0.65 -5.14 -14.32 0 0 0 6.62 16.25 -29.94 -1.23 -7.04 19.84 0.19 -12.34 -14.75 -0.02 -0.86 2.37 -9.98 -4.89 -7.01 -0.64 -5.64 -0.65 4.27 -2.94 4.15 6.04 1.6 -9.18 1.26 1.28 7.37 -0.57 0.89 4.12 0 0 0 -85.23 -29.19 27.41 21.57 -32.49 -6.35 -0 0 -8.75 19.18 38.28 12.16 -7.12 0 -0 -22.21 68.66 -12.84 0 0 0 89.3 -12.72 -18.31 -1.99 3.45 -0.06 0 0 32.42 -25 27.27 -12.06 7.12 -0 -0 3.07 -0.39 3.05
29.71 15.8 -1.51 864.95 79.29 869.69 0 0 0 -27.02 4.73 15.8 0.1 1.99 5.48 0.66 -18.68 -18.35 0.02 -0.96 -2.64 0 0 0 6.3 15.54 -30.76 -1.21 -6.97 19.62 0.17 -12.01 -14.61 -0.02 0.96 -2.63 -10.73 -5.33 -7.14 -0.65 -6.14 -0.53 4.57 -3.22 4.51 5.68 1.66 -9.64 1.39 1.36 7.31 -0.46 0.92 4.19 -0 0 0 -85.3 -31.55 28.61 23.21 -34.31 -7.25 -0 0 -9.3 19.67 37.28 12.22 -7.12 0 -0 -20.33 67.91 -11.37 -0 0 0 88.53 -13.21 -19.8 -1.61 2.79 -0.04 0 0 33.41 -24.99 24.2 -10.82 7.12 -0 -0 2.67 -3.62 2.5
30.5 15.75 -1.51 867.8 79.9 872.47 0 0 0 -25.47 5.62 21.71 0 -0 -0 0.25 -17.64 -14.6 0.37 -3.9 -10.8 0 0 0 8.87 13.38 -32.06 -1.74 -8.3 23.63 0.07 -6.34 -6.69 -0.03 1.06 -2.9 -9.57 -5.13 -6.88 -0.34 -6.04 -0.98 4.33 -3.11 3.78 5.54 1.57 -9.23 1.01 1.31 7.28 -0.57 0.87 4.09 -0 -0 0 -86.05 -31.84 30.13 23.79 -34.95 -7.59 -0 0 -10.49 19.42 36.43 11.82 -7.12 0 -0 -19.62 67.05 -10.59 -0 -0 0 87.4 -13.6 -21.73 -0.77 1.34 -0.01 0 0 34.38 -25.43 22.98 -10.52 7.12 -0 -0 2.24 -4.84 2.05
31.34 15.75 -1.51 877.41 81.64 881.5 0 0 0 -22.52 6.28 25.05 0 0 0 -0.46 -18.43 -8.27 0.32 -3.65 -10.08 0 0 0 12.39 13.72 -31.77 -2.57 -9.97 28.87 0.07 -4.74 -2.52 -0.01 -0.46 1.27 -7.38 -4.79 -7.06 0.44 -5.8 -0.82 3.94 -2.98 3.88 5.53 1.76 -9.46 0.79 1.57 7.38 -0.62 0.99 4.19 0 0 0 -87.01 -30.94 30.71 24.53 -35.72 -8.01 -0 0 -11.46 19.77 37.07 12.23 -7.12 0 -0 -19.95 67.75 -11.08 0 0 0 86.38 -12.36 -23.32 -0.35 0.6 -0 0 0 36.41 -25.61 21.53 -9.98 7.12 -0 -0 1.96 -6.36 1.73
32.16 15.78 -1.51 893.08 82.49 896.89 0 0 0 -20.62 4.1 21.17 0.55 4.76 13.22 -0.8 -18.51 -3.81 0.02 -0.79 -2.18 0 0 0 16.02 12.73 -30.64 -3.16 -10.95 32.1 0.02 -3.48 -3.77 -0.03 1.15 -3.16 -4.78 -4.64 -7.07 1.26 -5.82 -1.32 3.39 -2.94 3.19 5.44 1.92 -8.78 0.58 1.85 7.86 -0.66 1.13 4.23 0 0 0 -88.34 -27.15 30.92 25.11 -36.32 -8.35 -0 0 -11.71 19.74 35.48 11.77 -7.12 0 -0 -18.18 66.26 -9.46 0 0 0 85.77 -12.25 -24.93 -0.93 1.61 -0.01 0 0 38.77 -25.81 21.63 -10.11 7.12 -0 -0 1.85 -6.22 1.64
32.95 15.84 -1.51 900.42 81.77 903.85 0 0 0 -19.41 2.04 15.08 2.3 9.47 27.29 -1.32 -19.86 7.73 0.64 5.12 14.24 0 0 0 18.31 10.67 -28.33 -3.49 -11.46 33.83 -0.09 -3.21 -7.79 -0.16 2.56 -7.06 -3.79 -4.72 -6.45 1.59 -6.04 -1.55 3.22 -3.03 2.56 5.56 1.87 -8.97 0.71 1.74 8.39 -0.64 1.09 4.46 0 -0 0 -89.45 -23.6 31.65 24.44 -35.62 -7.96 -0 0 -11.76 19.68 36.26 11.94 -7.12 0 -0 -19.11 66.97 -10.27 0 -0 0 86.01 -11.52 -27.17 -2.19 3.79 -0.07 0 0 40.36 -24.83 25.39 -11.22 7.12 -0 -0 2.92 -2.4 2.79
33.7 15.95 -1.49 909.58 81.39 912.25 0 0 0 -17.88 -0.14 8.77 4.99 13.37 40.78 -1.28 -20.42 14.24 1.72 8.26 23.5 0 0 0 21.25 8.34 -24.38 -3.3 -11.16 32.83 -0.21 -3.01 -10.27 -0.2 2.87 -7.91 -2.46 -4.3 -5.56 1.76 -5.6 -1.3 2.76 -2.8 2.18 5.62 1.5 -9.58 0.94 1.16 9.12 -0.54 0.84 4.33 0 0 0 -90.43 -21.08 32.52 22.14 -33.13 -6.66 -0 0 -10.17 19.23 36.16 11.63 -7.12 0 -0 -19.53 66.75 -10.4 0 0 0 87.61 -9.96 -30.39 -4.02 6.92 -0.24 0 0 41.06 -23.28 27.44 -11.21 7.12 -0 -0 4.12 -0.57 4.09
34.4 16.06 -1.5 925.11 81.08 926.64 0 0 0 -15.15 -1.08 3.06 8.05 16.15 52.74 -0.78 -15.45 6.23 0.29 3.49 9.64 0 0 0 25.03 6.42 -19.07 -2.73 -10.24 29.75 -0.26 -3.08 -11.22 -0.29 3.45 -9.53 0.17 -3.64 -4.8 2.09 -4.88 -0.72 1.73 -2.43 2.11 5.26 1.29 -8.88 1.68 0.92 8.18 -0.31 0.73 4.33 0 -0 0 -91.09 -19.1 31.71 18.81 -29.18 -4.94 -0 0 -6.66 16.04 37.7 9.97 -7.12 0 -0 -25.11 67.19 -13.76 0 -0 0 88.74 -8.29 -24.57 -5.61 9.61 -0.47 0 0 34.25 -23 30.4 -12.12 7.12 -0 -0 4.69 2.44 4.9
35.06 16.17 -1.5 931.59 81.86 932.25 0 0 0 -14.31 -1.37 -3.55 10.63 17.75 61.58 -0.28 -9.34 2.39 0.34 3.77 10.42 0 0 0 26.51 5.67 -13.79 -2.21 -9.29 26.72 -0.33 -3.03 -12.42 -0.19 2.79 -7.7 0.67 -2.82 -4.07 1.99 -3.81 -0.31 1.44 -1.9 2.05 5.38 1.15 -8.45 1.36 0.77 8.22 -0.45 0.64 4.26 0 0 0 -91.91 -16.69 28.38 14.84 -23.92 -3.16 -0 0 -0.68 16.22 37.38 10.02 -7.12 0 -0 -24.48 66.96 -13.28 0 0 0 89.31 -5.37 -11.09 -7.03 11.97 -0.74 0 0 22.88 -23.51 31.41 -12.77 7.12 -0 -0 4.55 3.59 4.84
35.7 16.22 -1.5 933.73 82.79 934.01 0 0 0 -14.22 -2.02 -10.23 12.2 18.47 66.61 -0.07 -7.36 -3.5 0.7 5.35 14.9 0 0 0 26.98 5.43 -9.71 -1.98 -8.82 25.24 -0.35 -3.86 -13.23 -0.16 2.59 -7.15 0.42 -2.09 -3.86 1.67 -2.83 -0.06 1.32 -1.41 2.17 5.43 1.02 -8.46 1.21 0.6 8.79 -0.52 0.57 4.47 -0 0 0 -92.61 -14.45 20.45 10.58 -17.64 -1.65 -0 -0 6.69 18.1 36.99 11.12 -7.12 0 -0 -21.84 67.17 -11.88 -0 0 0 89.42 -2.78 1.6 -9.22 15.52 -1.26 0 0 14.08 -24.29 31.79 -13.38 7.12 -0 -0 4.17 4.16 4.47
36.31 16.23 -1.52 933.52 83.43 933.74 0 0 0 -14.35 -3.65 -16.95 12.66 18.65 68.05 0.17 -9.77 -9.5 0.49 4.48 12.43 0 0 0 27.1 5.27 -7.04 -1.99 -8.85 25.31 -0.43 -4.44 -14.8 -0.19 2.77 -7.64 0.29 -1.63 -3.49 1.17 -2.2 0.06 0.92 -1.1 2.05 5.38 1.01 -8.57 1.54 0.55 9.09 -0.4 0.57 4.59 -0 0 0 -92.65 -12.38 1.5 6.81 -11.6 -0.69 -0 -0 21.08 18.39 37.78 11.51 -7.12 0 -0 -22.49 67.97 -12.66 -0 0 0 89.42 -0.24 11.65 -12.11 19.96 -2.14 0 0 7.97 -24.91 32.73 -14.09 7.12 -0 -0 3.99 5.27 4.34
36.91 16.16 -1.54 938.88 83.81 938.91 0 0 0 -13.93 -4.76 -22.87 12.07 18.42 66.21 0.73 -11.79 -16.25 0.3 3.55 9.81 0 0 0 27.79 4.87 -4.92 -2.17 -9.22 26.48 -0.58 -4.72 -16.9 -0.21 2.94 -8.11 0.65 -1.28 -3.12 1 -1.75 0.45 0.58 -0.87 2.22 5.54 1.13 -9.02 1.08 0.71 9.45 -0.52 0.63 4.33 0 0 0 -91.55 -11.81 -52.58 3.64 -6.28 -0.2 -0 -0 67.58 18.48 38.09 11.65 -7.12 0 -0 -22.79 68.27 -12.99 0 0 0 88.72 2.26 19.78 -15.84 25.31 -3.58 0 0 3.08 -24.98 33.14 -14.29 7.12 -0 -0 4.01 5.7 4.4
37.53 16.16 -1.59 943.58 84.13 944.03 0 0 0 -13.67 -6.25 -28.08 10.15 17.49 59.98 0.93 -13.78 -18.46 0.23 3.11 8.58 0 0 0 28.07 3.71 -2.67 -2.02 -8.92 25.54 -0.68 -4.26 -17.67 -0.24 3.17 -8.76 1.32 -0.85 -3.44 0.59 -1.19 0.27 -0.2 -0.58 2.19 5.62 0.97 -8.01 1.14 0.56 8.67 -0.58 0.55 4.33 -0 0 0 -88.72 -10.12 -113.41 4.77 -8.2 -0.34 -0 -0 121.06 19.51 38.56 12.46 -7.12 0 -0 -22.19 69.01 -13 -0 0 0 88.17 4.01 25.03 -19.47 30 -5.26 0 -0 -1.11 -25.62 33.61 -14.87 7.12 -0 -0 3.74 6.35 4.14
38.17 16.18 -1.66 953.52 84 954.23 0 0 0 -12.76 -7.37 -31.16 7.33 15.6 50.1 1.17 -14.58 -20.5 0.08 1.85 5.1 0 0 0 28.74 2.13 0.76 -1.59 -7.95 22.55 -0.73 -3.09 -17.55 -0.24 3.13 -8.63 2.53 -0.45 -3.65 0.54 -0.72 0.43 -0.9 -0.32 2.47 5.41 0.99 -8.25 1.22 0.59 8.48 -0.52 0.56 4.31 -0 0 0 -86.36 -7.37 -141.53 6.79 -11.58 -0.69 -0 -0 144.51 22.7 39.99 15.05 -7.12 0 -0 -20.32 71.33 -12.91 -0 0 0 87.01 6.41 29.22 -23.07 34.17 -7.18 0 -0 -4.7 -26.03 34.1 -15.32 7.12 -0 -0 3.61 6.96 4.03
38.82 16.24 -1.72 959.89 84.5 961.23 0 0 0 -12.29 -9.37 -32.81 4.59 12.91 39.04 1.11 -12.82 -19.61 0.07 1.77 4.86 0 0 0 28.33 0.31 4.87 -0.96 -6.23 17.44 -0.55 -2.29 -15.02 -0.17 2.69 -7.41 2.36 -0.12 -3.99 0.48 -0.28 0.16 -0.84 -0.11 2.4 5.16 1.04 -8.28 1.14 0.68 8.8 -0.49 0.6 4.43 -0 0 0 -86.24 -1.88 -136.08 6.6 -11.26 -0.65 -0 -0 137.04 23.58 41.5 16.13 -7.12 0 -0 -21.73 72.98 -14.61 -0 0 0 85.74 8.1 32.27 -26.11 37.32 -8.95 0 -0 -6.82 -27.1 33.89 -15.93 7.12 -0 -0 2.99 7.01 3.33
39.48 16.29 -1.78 971.05 85.24 972.65 0 0 0 -11.37 -11.35 -33.38 2.8 10.36 30.16 0.76 -9.19 -15.85 0.02 0.94 2.6 0 0 0 27.46 -1.05 10.25 -0.36 -3.88 10.73 -0.39 -0.74 -12.01 -0.28 3.43 -9.47 1.88 0.24 -4.69 0.31 0.2 0.59 -0.72 0.13 3.24 5.39 1.25 -9.06 0.96 0.9 8.72 -0.58 0.7 4.57 0 -0 0 -86.31 2.74 -125.57 5.7 -9.76 -0.49 -0 -0 123.72 22.75 41.19 15.43 -7.12 0 -0 -22.26 72.41 -14.7 0 -0 0 84.89 11.23 34.4 -27.73 38.86 -9.95 0 -0 -7.52 -27.97 34.85 -16.88 7.12 -0 -0 2.71 8.24 3.07
40.13 16.27 -1.88 988.42 84.82 989.93 0 0 0 -9.08 -13.65 -33.26 2.11 9.08 26.05 0.93 -6.61 -17.24 0.07 1.67 4.58 0 0 0 26.98 -2.99 18.16 0 0 -0 -0.14 1.29 -6.86 -0.69 5.32 -14.81 2.72 0.8 -4.64 0.35 0.9 0.66 -1.09 0.5 3.32 5.45 1.06 -8.81 0.59 0.69 8.45 -0.73 0.57 4.42 -0 -0 0 -86.42 7.42 -116.32 4.92 -8.45 -0.36 -0 -0 110.89 21.65 40.88 14.56 -7.12 0 -0 -23.14 71.77 -14.98 -0 -0 0 84.62 12.71 34.84 -29.33 40.31 -10.97 0 -0 -7.46 -27.93 35.36 -17.05 7.12 -0 -0 2.84 8.74 3.24
40.77 16.24 -1.98 1012.59 84.2 1013.9 0 0 0 -7.42 -15.37 -31.91 1.85 8.55 24.38 1.05 -3.37 -18.57 0.03 1.2 3.31 0 0 0 26.35 -2.1 20.98 0 0 -0 -0.07 3.4 -4.8 -0.47 4.38 -12.16 2.93 1.42 -4.84 0.25 1.71 0.84 -1.25 0.91 3.67 5.46 1.25 -8.51 0.73 0.95 8.46 -0.67 0.71 4.37 -0 -0 0 -86.44 10.72 -111.85 4.73 -8.12 -0.34 -0 -0 102.09 18.92 40.59 12.58 -7.12 0 -0 -26 70.6 -16.24 -0 -0 0 84.95 14.39 35.48 -29.37 40.34 -11 0 -0 -7.12 -27.93 35.4 -17.07 7.12 -0 -0 2.85 8.79 3.25
41.48 16.17 -2.07 1025.62 82.87 1026.54 0 0 0 -7.16 -13.61 -30.26 1.92 8.69 24.83 0.99 -4.87 -17.77 0.04 1.22 3.35 0 0 0 26.6 -0.41 19.86 -0.23 -3.11 8.57 -0.11 4.26 -6.16 -0.15 2.51 -6.91 3.2 1.9 -5.07 0.26 2.33 0.79 -1.33 1.22 3.78 5.45 1.34 -7.89 0.86 1.11 8.85 -0.61 0.8 4.38 0 -0 0 -86.09 12.95 -107.26 4.96 -8.52 -0.37 -0 -0 93.53 19.49 41.08 13.09 -7.12 0 -0 -26.15 71.2 -16.68 0 -0 0 85.68 15.01 35.79 -28.24 39.33 -10.27 0 -0 -6.68 -28.43 35.32 -17.38 7.12 -0 -0 2.56 8.84 2.93
42.22 16.07 -2.18 1037.79 81.97 1038.33 0 0 0 -8.07 -12.36 -27.67 2.15 9.16 26.31 0.85 -2.52 -16.75 0.01 0.52 1.42 0 0 0 25.56 0.38 20.2 -0.61 -5 13.91 -0.03 5.56 -4.84 -0.09 1.92 -5.28 2.58 2.18 -5.55 0.13 2.73 0.53 -1.07 1.41 3.77 5.95 1.37 -8.39 0.24 1.1 10.92 -0.82 0.83 4.69 -0 0 0 -85.79 14.47 -113.18 5.39 -9.25 -0.44 -0 -0 96.19 21.2 42.54 14.69 -7.12 0 -0 -26.79 73.02 -18.14 -0 0 0 86.69 14.48 35.95 -26.59 37.78 -9.24 0 -0 -6.35 -27.92 35.18 -16.98 7.12 -0 -0 2.8 8.56 3.19
43.04 16.09 -2.32 1049.42 81.18 1050.06 0 0 0 -10.33 -9.38 -27.64 2.48 9.79 28.32 0.31 0.27 -10.56 0.03 1.18 3.25 0 0 0 22.96 -0.19 20.02 -0.97 -6.26 17.53 0.17 7.58 0.46 -0.08 -1.85 5.08 1.92 2.25 -7.12 -0.2 2.86 0.2 -0.98 1.46 4.3 5.88 1.6 -8.51 0.24 1.4 12.2 -0.78 1.01 5.12 -0 0 0 -86.02 15.64 -117.58 5.69 -9.74 -0.48 -0 -0 97.66 21.35 42.92 14.9 -7.12 0 -0 -27.38 73.39 -18.77 -0 0 0 87.91 13.21 36.34 -24.58 35.77 -8.04 0 -0 -5.58 -27.62 34.68 -16.58 7.12 -0 -0 2.86 7.96 3.24
43.74 16.08 -2.42 1061.75 82.87 1062.11 0 0 0 -14.52 -6.83 -27.05 2.77 10.31 29.98 0.24 -3.88 -8.75 0 -0.3 -0.83 0 0 0 19.88 -1.43 16.22 -2.22 -9.3 26.74 0.11 7.09 6.72 -0.53 -4.65 12.9 -0.9 1.35 -7.09 -0.86 1.92 -0.09 -0.19 0.95 3.88 6.18 1.85 -8.93 0.22 1.67 12.99 -0.81 1.17 5.45 0 0 0 -86.01 15.43 -119.82 5.75 -9.84 -0.49 -0 -0 99.31 21.86 44.29 15.65 -7.12 0 -0 -29.87 74.68 -21.36 0 0 0 89.94 11.53 35.22 -22.19 33.19 -6.69 0 -0 -3.63 -27.12 34.75 -16.27 7.12 -0 -0 3.15 7.9 3.56
44.35 16.12 -2.5 1092.58 84.08 1091.79 0 0 0 -19.86 -5.58 -24.25 2.87 10.47 30.53 0.43 -5.9 -11.71 0 0.32 0.87 0 0 0 15.81 -1.71 12.01 -4.36 -12.62 37.96 -0.22 4.69 11.78 -0.85 -5.89 16.46 -4.91 0.7 -6.04 -1.9 1.4 0.41 0.92 0.63 3.75 6.09 1.76 -9.22 0.03 1.56 12.29 -0.87 1.08 5.27 0 -0 0 -85.08 12.14 -125.7 5.91 -10.11 -0.52 -0 -0 109.21 22.33 43.31 15.74 -7.12 0 -0 -27.01 74.07 -18.89 0 -0 0 92.23 9.91 31.49 -19.77 30.37 -5.42 0 -0 -0.48 -27.51 35.5 -16.82 7.12 -0 -0 3.09 8.77 3.53
44.93 16.19 -2.63 1106.46 82.76 1104.8 0 0 0 -23.08 -3.6 -20.84 2.66 10.12 29.35 0.58 -5.76 -13.62 0.07 1.68 4.61 0 0 0 13.55 -0.21 7.35 -6.81 -15.17 48.17 -0.66 2.22 16.26 -0.83 -5.82 16.26 -6.6 0.59 -4.74 -2.48 1.3 0.56 1.23 0.57 3.16 5.94 1.91 -9.12 -0.18 1.82 11.9 -0.89 1.17 5.14 -0 0 0 -84.46 8.03 -128.65 5.83 -9.97 -0.51 -0 -0 118.09 21.99 43.18 15.45 -7.12 0 -0 -27.16 73.84 -18.87 -0 0 0 93.84 8.62 28.92 -16.04 25.58 -3.66 0 0 1.23 -27.57 34.51 -16.48 7.12 -0 -0 2.85 7.77 3.22
45.43 16.3 -2.74 1105.43 82.24 1103.6 0 0 0 -23.97 -2.23 -18.16 2.5 9.84 28.45 0.66 -5.54 -14.44 0.18 2.72 7.5 0 0 0 13.78 1.24 1.8 -9.16 -16.91 56.65 -0.32 -3.86 10.1 -0.73 -5.44 15.18 -6.21 0.75 -4.37 -2.54 1.48 0.9 0.96 0.66 3.3 5.46 1.83 -9.23 -0.42 1.79 11.74 -0.89 1.12 5.11 0 0 0 -84.34 2.61 -121.88 5.34 -9.16 -0.43 -0 -0 119.43 21.88 43.02 15.32 -7.12 0 -0 -26.95 73.66 -18.62 0 0 0 95.03 7.6 23.34 -12.58 20.67 -2.3 0 0 5.11 -27.03 34.11 -15.97 7.12 -0 -0 3.07 7.22 3.44
45.95 16.36 -2.84 1108.98 82.87 1107.26 0 0 0 -24.94 -1.63 -15.91 2.42 9.69 27.98 0.73 -5.98 -15.28 0.32 3.66 10.13 0 0 0 13.73 1.56 -3.77 -10.64 -17.76 61.62 0.04 -5.29 2.29 -1.08 -6.61 18.58 -6.26 0.4 -4.47 -2.43 1.02 0.92 1.07 0.42 3.4 5.47 1.83 -9.12 -1.27 1.92 12.68 -1.15 1.14 5.39 -0 0 0 -85.21 -1.81 -86.37 4.27 -7.35 -0.27 -0 -0 89.93 22.48 43.42 15.87 -7.12 0 -0 -27.05 74.21 -19 -0 0 0 95.31 7.27 12.9 -7.91 13.4 -0.93 0 0 16.76 -27.36 35.97 -16.9 7.12 -0 -0 3.27 9.21 3.76
46.42 16.36 -2.94 1121.01 84.71 1119.97 0 0 0 -25.9 -1.26 -14.72 2.38 9.62 27.75 0.84 -7.67 -16.42 0.41 4.11 11.4 0 0 0 13.87 1.18 -9.76 -11.18 -18.02 63.37 0.03 -3.67 -3.77 -0.67 -5.22 14.53 -6.22 -0.3 -4.69 -2.32 0.09 0.59 1.1 -0.03 3.25 4.74 1.67 -8.13 -0.91 1.83 13.04 -0.93 1.1 5.32 -0 0 0 -86.29 -4.71 -42.28 4.83 -8.3 -0.35 -0 -0 49.41 21.67 42.93 15.14 -7.12 0 -0 -27.02 73.51 -18.59 -0 0 0 95.3 5.95 -4.87 -5.01 8.61 -0.38 0 0 36.39 -27.63 35.26 -16.81 7.12 -0 -0 2.98 8.56 3.39
46.88 16.34 -3 1133.99 86.87 1133.31 0 0 0 -25.19 -1.79 -14.24 2.71 10.22 29.68 0.97 -9.68 -17.87 0.84 5.86 16.38 0 0 0 15.77 1.9 -14.71 -10.8 -17.84 62.14 -0.18 -2.54 -9.36 -0.87 -5.94 16.62 -5.87 -1.06 -4.52 -1.78 -0.99 0.65 1.38 -0.57 3.28 5.42 1.85 -8.68 -1.78 2.08 13.61 -1.29 1.2 5.61 -0 -0 0 -86.83 -8.31 -9.87 7.73 -13.11 -0.89 -0 -0 17.6 20.78 42.86 14.47 -7.12 0 -0 -27.97 73.14 -19.05 -0 -0 0 94.72 5.17 -4.74 -2.47 4.27 -0.09 0 0 34.02 -31.16 33.58 -18.49 7.12 -0 -0 0.71 7.82 0.8
47.38 16.25 -3.06 1177.34 87.75 1177 0 0 0 -25.25 -2.48 -13.45 3.13 10.9 31.95 1.37 -11.18 -21.2 1.17 6.88 19.36 0 0 0 16.75 2.32 -18.82 -9.6 -17.18 58.14 -0.65 -1.92 -16.06 -0.29 -3.45 9.53 -6 -1.65 -4.7 -1.4 -1.76 0.74 1.78 -0.97 3.55 4.99 1.78 -8.98 -1.59 2.01 13.64 -1.16 1.15 5.67 -0 -0 0 -87.17 -12.11 6.22 11.16 -18.54 -1.83 -0 -0 2.27 20.71 42.82 14.41 -7.12 0 -0 -27.98 73.08 -19.02 -0 -0 0 94.22 1.85 -5.16 -2.53 4.37 -0.1 0 0 28.78 -31.19 31.23 -17.43 7.12 -0 -0 0.19 5.35 0.21
47.81 16.15 -3.14 1217.03 86.58 1217.05 0 0 0 -25.88 -2.76 -12.15 3.3 11.17 32.85 1.47 -12.7 -22.19 1.72 8.25 23.47 0 0 0 16.63 2.52 -23.03 -7.95 -16.08 52.38 -0.84 -1.2 -17.78 -0.14 -2.4 6.6 -6.18 -2.23 -4.15 -1.2 -2.58 0.61 2.04 -1.37 3.18 4.73 1.63 -8.54 -1.41 1.82 12.85 -1.08 1.05 5.33 -0 -0 0 -87.48 -16.55 14.62 14.01 -22.75 -2.83 -0 0 -4.17 21.2 41.36 14.37 -7.12 0 -0 -24.55 72.03 -16.06 -0 -0 0 93.46 -1.62 -5.62 -2.87 4.96 -0.12 0 0 24.97 -30.59 30.09 -16.51 7.12 -0 -0 0.3 3.97 0.33
48.3 16.14 -3.18 1217.03 84.96 1216.9 0 0 0 -27.09 -0.86 -9.68 2.99 10.68 31.2 1.25 -15.27 -21.26 2.34 9.55 27.52 0 0 0 15.59 3.98 -24.61 -5.77 -14.2 44.04 -0.87 -3.65 -19.28 -0.01 -0.55 1.5 -7.7 -2.42 -4.32 -1.32 -2.71 1.13 2.73 -1.49 3.9 4.56 1.48 -8.76 -1.19 1.6 12.51 -1 0.94 5.25 0 0 0 -87.85 -21.66 19.89 16.4 -26.05 -3.82 -0 0 -6.26 21.59 40.98 14.55 -7.12 0 -0 -23.38 71.83 -15.16 0 0 0 92.99 -3.88 -6.32 -3.13 5.4 -0.15 0 0 23.91 -29.73 29.47 -15.69 7.12 -0 -0 0.68 3.08 0.71
